{
  "type": "FeatureCollection",
  "metadata": {
    "gemeente": "Ameland",
    "slug": "ameland",
    "generated_at": "2026-05-19T19:48:49.730979Z",
    "total_points": 7,
    "providers": [
      "Amazon",
      "DHL",
      "DPD",
      "PostNL"
    ],
    "bounds": [
      5.636077322,
      53.44107061,
      5.797937298,
      53.44746481
    ]
  },
  "features": [
    {
      "type": "Feature",
      "geometry": {
        "type": "Point",
        "coordinates": [
          5.636077322,
          53.44107061
        ]
      },
      "properties": {
        "type": "pakketpunt",
        "locatieNaam": "De Markthal VOF",
        "straatNaam": "Olfert Pieter Lapstraat 6",
        "straatNr": "",
        "vervoerder": "Amazon",
        "puntType": "3p",
        "bezettingsgraad": 50,
        "latitude": 53.44107061,
        "longitude": 5.636077322,
        "canPickup": true,
        "canDropoff": false,
        "openingstijden": null
      }
    },
    {
      "type": "Feature",
      "geometry": {
        "type": "Point",
        "coordinates": [
          5.797937298,
          53.44746481
        ]
      },
      "properties": {
        "type": "pakketpunt",
        "locatieNaam": "Primera",
        "straatNaam": "Hoofdweg 5",
        "straatNr": "",
        "vervoerder": "Amazon",
        "puntType": "3p",
        "bezettingsgraad": 50,
        "latitude": 53.44746481,
        "longitude": 5.797937298,
        "canPickup": true,
        "canDropoff": false,
        "openingstijden": null
      }
    },
    {
      "type": "Feature",
      "geometry": {
        "type": "Point",
        "coordinates": [
          5.6383022,
          53.4411132
        ]
      },
      "properties": {
        "type": "pakketpunt",
        "locatieNaam": "Warenhuis Engels",
        "straatNaam": "Zwaneplein",
        "straatNr": "1",
        "vervoerder": "DHL",
        "puntType": "parcelShop",
        "bezettingsgraad": 50,
        "latitude": 53.4411132,
        "longitude": 5.6383022,
        "canPickup": true,
        "canDropoff": true,
        "openingstijden": {
          "ma": "09:00 - 17:00",
          "di": "09:00 - 17:00",
          "wo": "09:00 - 17:00",
          "do": "09:00 - 17:00",
          "vr": "09:00 - 17:00",
          "za": "09:00 - 16:00",
          "zo": "gesloten"
        }
      }
    },
    {
      "type": "Feature",
      "geometry": {
        "type": "Point",
        "coordinates": [
          5.77332,
          53.444366
        ]
      },
      "properties": {
        "type": "pakketpunt",
        "locatieNaam": "DA Kienstra 't Centrum",
        "straatNaam": "REEWEG",
        "straatNr": "25",
        "vervoerder": "DPD",
        "puntType": "pickup_point",
        "bezettingsgraad": 50,
        "latitude": 53.444366,
        "longitude": 5.77332,
        "canPickup": true,
        "canDropoff": true,
        "openingstijden": {
          "ma": "10:00 - 16:30",
          "di": "10:00 - 16:30",
          "wo": "10:00 - 16:30",
          "do": "10:00 - 16:30",
          "vr": "10:00 - 16:30",
          "za": "10:00 - 17:00",
          "zo": "gesloten"
        }
      }
    },
    {
      "type": "Feature",
      "geometry": {
        "type": "Point",
        "coordinates": [
          5.77487945028592,
          53.4424198324636
        ]
      },
      "properties": {
        "type": "pakketpunt",
        "locatieNaam": "Pakketautomaat",
        "straatNaam": "Hoge Eggenweg",
        "straatNr": "6PBA",
        "vervoerder": "PostNL",
        "puntType": "automaat",
        "bezettingsgraad": 50,
        "latitude": 53.4424198324636,
        "longitude": 5.77487945028592,
        "canPickup": true,
        "canDropoff": true,
        "openingstijden": "00:00 - 23:59"
      }
    },
    {
      "type": "Feature",
      "geometry": {
        "type": "Point",
        "coordinates": [
          5.797937298,
          53.44746481
        ]
      },
      "properties": {
        "type": "pakketpunt",
        "locatieNaam": "Primera",
        "straatNaam": "Hoofdweg",
        "straatNr": "5",
        "vervoerder": "PostNL",
        "puntType": "servicepunt",
        "bezettingsgraad": 50,
        "latitude": 53.44746481,
        "longitude": 5.797937298,
        "canPickup": true,
        "canDropoff": true,
        "openingstijden": "09:00 - 17:00 (Zaterdag open)"
      }
    },
    {
      "type": "Feature",
      "geometry": {
        "type": "Point",
        "coordinates": [
          5.636077322,
          53.44107061
        ]
      },
      "properties": {
        "type": "pakketpunt",
        "locatieNaam": "De Markthal VOF",
        "straatNaam": "Olfert Pieter Lapstraat",
        "straatNr": "6",
        "vervoerder": "PostNL",
        "puntType": "servicepunt",
        "bezettingsgraad": 50,
        "latitude": 53.44107061,
        "longitude": 5.636077322,
        "canPickup": true,
        "canDropoff": true,
        "openingstijden": "08:30 - 17:30 (Zaterdag open)"
      }
    },
    {
      "type": "Feature",
      "geometry": {
        "type": "MultiPolygon",
        "coordinates": [
          [
            [
              [
                5.636504231577159,
                53.43838724507887
              ],
              [
                5.636061694845051,
                53.438375181301964
              ],
              [
                5.635619308598011,
                53.43838907440966
              ],
              [
                5.635181332462273,
                53.43842879062897
              ],
              [
                5.634751983624074,
                53.43849394754113
              ],
              [
                5.634335396245191,
                53.43858391776218
              ],
              [
                5.633935581675657,
                53.43869783498029
              ],
              [
                5.633556389845902,
                53.438834602293454
              ],
              [
                5.633201472209094,
                53.43899290276587
              ],
              [
                5.632874246589941,
                53.439171212103
              ],
              [
                5.632577864277854,
                53.43936781332249
              ],
              [
                5.632315179681099,
                53.43958081328083
              ],
              [
                5.632088722834018,
                53.439808160896206
              ],
              [
                5.631900675022302,
                53.440047666893186
              ],
              [
                5.631752847761301,
                53.440297024878426
              ],
              [
                5.631646665330483,
                53.44055383354565
              ],
              [
                5.631583151032931,
                53.44081561979606
              ],
              [
                5.631562917313177,
                53.44107986255115
              ],
              [
                5.631586159829537,
                53.44134401702972
              ],
              [
                5.631652655539206,
                53.4416055392547
              ],
              [
                5.631761764815724,
                53.441861910553776
              ],
              [
                5.631912437579576,
                53.44211066181868
              ],
              [
                5.632103223384031,
                53.442349397287956
              ],
              [
                5.63233228536013,
                53.442575817625546
              ],
              [
                5.632597417887399,
                53.44278774207158
              ],
              [
                5.632896067820913,
                53.44298312945222
              ],
              [
                5.633225359070756,
                53.443160097846025
              ],
              [
                5.633582120297575,
                53.44331694271696
              ],
              [
                5.633962915457554,
                53.44345215333882
              ],
              [
                5.634364076902535,
                53.443564427352996
              ],
              [
                5.634781740716192,
                53.4436526833191
              ],
              [
                5.635211883945339,
                53.44371607113633
              ],
              [
                5.635650363367093,
                53.443753980236416
              ],
              [
                5.6360929554176,
                53.4437660454678
              ],
              [
                5.636535396896763,
                53.44375215061471
              ],
              [
                5.63697342605581,
                53.44371242951739
              ],
              [
                5.637047122131914,
                53.443701245634756
              ],
              [
                5.637436898181191,
                53.44375867699627
              ],
              [
                5.637875379988427,
                53.443796577996025
              ],
              [
                5.6383179730891575,
                53.44380863505235
              ],
              [
                5.638760414273161,
                53.443794732028216
              ],
              [
                5.639198441794519,
                53.443755002842515
              ],
              [
                5.639627836445119,
                53.44368983017932
              ],
              [
                5.6400444622173,
                53.443599841799625
              ],
              [
                5.64044430616286,
                53.443485904491595
              ],
              [
                5.640823517063557,
                53.443349115716785
              ],
              [
                5.641178442539751,
                53.44319079303422
              ],
              [
                5.641505664239091,
                53.44301246140347
              ],
              [
                5.641802030765794,
                53.442815838489686
              ],
              [
                5.642064688033078,
                53.442602818112825
              ],
              [
                5.642291106746305,
                53.44237545199984
              ],
              [
                5.642479106752299,
                53.44213593001691
              ],
              [
                5.642626878020702,
                53.4418865590721
              ],
              [
                5.642732998055847,
                53.44162974089133
              ],
              [
                5.642796445572246,
                53.441367948882935
              ],
              [
                5.642816610302898,
                53.441103704313285
              ],
              [
                5.642793298847007,
                53.440839552022865
              ],
              [
                5.6427267365019205,
                53.44057803591754
              ],
              [
                5.64261756506283,
                53.44032167446998
              ],
              [
                5.642466836612607,
                53.44007293646836
              ],
              [
                5.642276003362678,
                53.43983421724495
              ],
              [
                5.642046903643845,
                53.43960781561328
              ],
              [
                5.641781744182872,
                53.43939591173651
              ],
              [
                5.641483078836213,
                53.43920054613933
              ],
              [
                5.641153783986341,
                53.439023600065134
              ],
              [
                5.640797030837821,
                53.43886677736767
              ],
              [
                5.640416254880162,
                53.43873158811101
              ],
              [
                5.640015122811331,
                53.438619334035266
              ],
              [
                5.639597497240151,
                53.4385310960284
              ],
              [
                5.639167399506942,
                53.438467723723036
              ],
              [
                5.63872897097975,
                53.43842982732035
              ],
              [
                5.638286433197897,
                53.4384177717172
              ],
              [
                5.637844047245724,
                53.438431672994675
              ],
              [
                5.637406072746625,
                53.43847139730108
              ],
              [
                5.637332385735987,
                53.43848258141908
              ],
              [
                5.636942657720099,
                53.43842514958061
              ],
              [
                5.636504231577159,
                53.43838724507887
              ]
            ]
          ],
          [
            [
              [
                5.779192410880058,
                53.44162341813373
              ],
              [
                5.779040887465637,
                53.44137485219947
              ],
              [
                5.7788492900776856,
                53.4411363504638
              ],
              [
                5.778619464403399,
                53.440910209645075
              ],
              [
                5.778353624157825,
                53.44069860739423
              ],
              [
                5.778054329750436,
                53.44050358133069
              ],
              [
                5.777724463618436,
                53.44032700942796
              ],
              [
                5.777367202464695,
                53.44017059193636
              ],
              [
                5.776985986667756,
                53.44003583501793
              ],
              [
                5.776584487158402,
                53.43992403624973
              ],
              [
                5.776166570081416,
                53.43983627213555
              ],
              [
                5.775736259582259,
                53.43977338774511
              ],
              [
                5.775297699076372,
                53.439735988581745
              ],
              [
                5.774855111373077,
                53.4397244347546
              ],
              [
                5.7744127580371245,
                53.43973883751373
              ],
              [
                5.773974898378125,
                53.43977905817885
              ],
              [
                5.773545748461588,
                53.4398447094744
              ],
              [
                5.773129440535204,
                53.439935159256144
              ],
              [
                5.772729983259964,
                53.44004953659487
              ],
              [
                5.772351223128061,
                53.44018674015798
              ],
              [
                5.771996807438295,
                53.440345448808955
              ],
              [
                5.771670149184714,
                53.440524134322544
              ],
              [
                5.771374394196211,
                53.44072107609377
              ],
              [
                5.771112390843089,
                53.44093437769933
              ],
              [
                5.77088666260234,
                53.441161985152
              ],
              [
                5.770699383745892,
                53.44140170667341
              ],
              [
                5.7705523583863885,
                53.44165123379384
              ],
              [
                5.770447003082798,
                53.44190816357729
              ],
              [
                5.770384333174208,
                53.442170021757434
              ],
              [
                5.770372832529917,
                53.44232684279445
              ],
              [
                5.770110621968347,
                53.442470261727244
              ],
              [
                5.7698148464382975,
                53.44266719954918
              ],
              [
                5.769552823481869,
                53.44288049762986
              ],
              [
                5.769327076764827,
                53.44310810201612
              ],
              [
                5.769139780737048,
                53.44334782095903
              ],
              [
                5.768992739676559,
                53.44359734601379
              ],
              [
                5.768887370293588,
                53.44385427426431
              ],
              [
                5.768824688062862,
                53.44411613145899
              ],
              [
                5.768805297416766,
                53.44438039583511
              ],
              [
                5.768829385894803,
                53.44464452240199
              ],
              [
                5.76889672230686,
                53.44490596745029
              ],
              [
                5.769006658929137,
                53.44516221304982
              ],
              [
                5.769158137712772,
                53.44541079130181
              ],
              [
                5.769349700446486,
                53.44564930811014
              ],
              [
                5.769579502776431,
                53.44587546624386
              ],
              [
                5.769845331949094,
                53.44608708746765
              ],
              [
                5.77014462810715,
                53.446282133527575
              ],
              [
                5.770474508933727,
                53.44645872578915
              ],
              [
                5.770831797408033,
                53.44661516333883
              ],
              [
                5.771213052405196,
                53.4467499393734
              ],
              [
                5.771614601845446,
                53.44686175572025
              ],
              [
                5.772032578073082,
                53.44694953534714
              ],
              [
                5.772462955123901,
                53.44701243274174
              ],
              [
                5.7729015875214476,
                53.4470498420597
              ],
              [
                5.773344250227519,
                53.44706140296379
              ],
              [
                5.773786679361114,
                53.447047004096355
              ],
              [
                5.774224613292602,
                53.44700678415272
              ],
              [
                5.774653833716095,
                53.44694113054423
              ],
              [
                5.775070206303363,
                53.44685067566477
              ],
              [
                5.775469720546617,
                53.446736290795876
              ],
              [
                5.775848528405421,
                53.44659907771022
              ],
              [
                5.776202981384635,
                53.4464403580537
              ],
              [
                5.776529665685569,
                53.44626166060923
              ],
              [
                5.776825435091296,
                53.44606470656511
              ],
              [
                5.7770874412690665,
                53.44585139293015
              ],
              [
                5.7773131611979105,
                53.44562377425521
              ],
              [
                5.7775004214574075,
                53.44538404283829
              ],
              [
                5.777647419144083,
                53.4451345076036
              ],
              [
                5.7777527392145425,
                53.44487757185843
              ],
              [
                5.7778153680891124,
                53.444615710142415
              ],
              [
                5.777826842143236,
                53.444458888550976
              ],
              [
                5.778089039014391,
                53.444315452940415
              ],
              [
                5.778384787876472,
                53.4441184949479
              ],
              [
                5.77864677445005,
                53.443905177789055
              ],
              [
                5.778872475902969,
                53.44367755604878
              ],
              [
                5.779059718992735,
                53.44343782205452
              ],
              [
                5.779206700981207,
                53.44318828475535
              ],
              [
                5.7793120069761335,
                53.442931347478435
              ],
              [
                5.779374623533336,
                53.44266948477804
              ],
              [
                5.7793939483894325,
                53.44240521860014
              ],
              [
                5.77936979623243,
                53.442141093992326
              ],
              [
                5.779302400455775,
                53.44187965459253
              ],
              [
                5.779192410880058,
                53.44162341813373
              ]
            ]
          ],
          [
            [
              [
                5.802250334940795,
                53.4466675715836
              ],
              [
                5.802098660259145,
                53.44641903526688
              ],
              [
                5.801906912328581,
                53.446180570799264
              ],
              [
                5.8016769382857865,
                53.44595447454006
              ],
              [
                5.801410953274253,
                53.44574292371093
              ],
              [
                5.801111519097124,
                53.445547955436005
              ],
              [
                5.800781519537099,
                53.44537144713215
              ],
              [
                5.800424132581422,
                53.44521509843734
              ],
              [
                5.800042799819553,
                53.445080414850935
              ],
              [
                5.799641193308101,
                53.44496869324399
              ],
              [
                5.799223180221739,
                53.44488100937711
              ],
              [
                5.798792785630023,
                53.44481820754752
              ],
              [
                5.798354153757792,
                53.44478089246342
              ],
              [
                5.797911508101289,
                53.44476942342455
              ],
              [
                5.797469110783132,
                53.44478391086448
              ],
              [
                5.797031221536347,
                53.444824215287774
              ],
              [
                5.796602056711362,
                53.44488994861227
              ],
              [
                5.796185748699546,
                53.44498047790399
              ],
              [
                5.79578630616292,
                53.445094931468134
              ],
              [
                5.795407575452067,
                53.445232207238206
              ],
              [
                5.79505320358286,
                53.445390983382374
              ],
              [
                5.79472660312784,
                53.44556973102544
              ],
              [
                5.7944309193598365,
                53.44576672896427
              ],
              [
                5.794168999963865,
                53.44598008023443
              ],
              [
                5.7939433676089855,
                53.44620773037055
              ],
              [
                5.7937561956443195,
                53.44644748718304
              ],
              [
                5.793609287153659,
                53.44669704186224
              ],
              [
                5.793504057571006,
                53.4469539912066
              ],
              [
                5.793441521025142,
                53.44721586076121
              ],
              [
                5.793422280545729,
                53.44748012864407
              ],
              [
                5.793446522226265,
                53.44774424983063
              ],
              [
                5.7935140134012775,
                53.4480056806631
              ],
              [
                5.793624104856448,
                53.44826190334798
              ],
              [
                5.7937757370516065,
                53.44851045020696
              ],
              [
                5.793967450297732,
                53.44874892744617
              ],
              [
                5.794197398791053,
                53.44897503821554
              ],
              [
                5.794463368369925,
                53.449186604735765
              ],
              [
                5.79476279782427,
                53.449381589279675
              ],
              [
                5.79509280355289,
                53.449558113805224
              ],
              [
                5.7954502073314815,
                53.44971447805112
              ],
              [
                5.795831566924085,
                53.44984917592026
              ],
              [
                5.796233209243012,
                53.44996090999278
              ],
              [
                5.796651265737521,
                53.45004860402904
              ],
              [
                5.797081709669903,
                53.45011141334102
              ],
              [
                5.79752039491919,
                53.4501487329329
              ],
              [
                5.7979630959378845,
                53.450160203331755
              ],
              [
                5.798405548475838,
                53.450145714051736
              ],
              [
                5.798843490677953,
                53.45010540465908
              ],
              [
                5.799272704158753,
                53.45003966342681
              ],
              [
                5.7996890546570645,
                53.449949123592816
              ],
              [
                5.800088531878125,
                53.44983465725706
              ],
              [
                5.800467288138455,
                53.449697366976864
              ],
              [
                5.800821675440323,
                53.44953857514162
              ],
              [
                5.801148280618119,
                53.44935981122947
              ],
              [
                5.801443958217533,
                53.449162797068965
              ],
              [
                5.801705860790589,
                53.448949430247744
              ],
              [
                5.801931466314731,
                53.448721765828836
              ],
              [
                5.802118602471927,
                53.44848199655078
              ],
              [
                5.80226546755444,
                53.448232431702216
              ],
              [
                5.802370647796427,
                53.44797547487557
              ],
              [
                5.802433130965234,
                53.447713600813174
              ],
              [
                5.802452316082453,
                53.44744933157028
              ],
              [
                5.802428019182123,
                53.447185212223744
              ],
              [
                5.802360475051783,
                53.44692378636071
              ],
              [
                5.802250334940795,
                53.4466675715836
              ]
            ]
          ]
        ]
      },
      "properties": {
        "type": "buffer_union_300m",
        "buffer_m": 300
      }
    },
    {
      "type": "Feature",
      "geometry": {
        "type": "MultiPolygon",
        "coordinates": [
          [
            [
              [
                5.636056485622585,
                53.4374767029132
              ],
              [
                5.635466649564968,
                53.437495226669036
              ],
              [
                5.634882693165088,
                53.43754818054426
              ],
              [
                5.634310238885277,
                53.43763505468897
              ],
              [
                5.63375479852481,
                53.43775501265777
              ],
              [
                5.6332217201862305,
                53.4379068994578
              ],
              [
                5.632716136812132,
                53.438089252661484
              ],
              [
                5.632242916786453,
                53.4383003164779
              ],
              [
                5.631806617074644,
                53.43853805864799
              ],
              [
                5.631411439353066,
                53.43880019000087
              ],
              [
                5.631061189549489,
                53.43908418648364
              ],
              [
                5.630759241184162,
                53.439387313453736
              ],
              [
                5.630508502864732,
                53.43970665199943
              ],
              [
                5.630311390248647,
                53.44003912703662
              ],
              [
                5.630169802744088,
                53.44038153691117
              ],
              [
                5.630085105175146,
                53.44073058422258
              ],
              [
                5.630058114589443,
                53.441082907572145
              ],
              [
                5.630089092337122,
                53.441435113930744
              ],
              [
                5.630177741499485,
                53.44178381131403
              ],
              [
                5.63032320969414,
                53.442125641450815
              ],
              [
                5.630524097231736,
                53.44245731212975
              ],
              [
                5.630778470547728,
                53.44277562891301
              ],
              [
                5.6310838807816825,
                53.44307752591058
              ],
              [
                5.63143738732676,
                53.443360095319086
              ],
              [
                5.6318355861239855,
                53.44362061543968
              ],
              [
                5.632274642429702,
                53.443856576904956
              ],
              [
                5.632750327741308,
                53.44406570686145
              ],
              [
                5.633258060525818,
                53.444245990874556
              ],
              [
                5.633792950358788,
                53.444395692343825
              ],
              [
                5.6343498450479235,
                53.444513369241584
              ],
              [
                5.6349233802865,
                53.444597888012716
              ],
              [
                5.6355080313571175,
                53.44464843450153
              ],
              [
                5.63609816638615,
                53.44466452179997
              ],
              [
                5.63668810063421,
                53.444645994941325
              ],
              [
                5.636996152644416,
                53.444618060714795
              ],
              [
                5.637148439937657,
                53.4446404991599
              ],
              [
                5.637733094189196,
                53.44469103484803
              ],
              [
                5.63832323061863,
                53.44470711124606
              ],
              [
                5.638913164473082,
                53.44468857349234
              ],
              [
                5.639497212952805,
                53.44463560016028
              ],
              [
                5.640069749994022,
                53.44454870153695
              ],
              [
                5.640625260503186,
                53.44442871470396
              ],
              [
                5.641158393518357,
                53.44427679546816
              ],
              [
                5.641664013783852,
                53.44409440722035
              ],
              [
                5.642137251239908,
                53.443883306829385
              ],
              [
                5.642573547949388,
                53.443645527708455
              ],
              [
                5.642968702008648,
                53.443383360216764
              ],
              [
                5.643318908019045,
                53.44309932958605
              ],
              [
                5.643620793729221,
                53.442796171585435
              ],
              [
                5.64387145249539,
                53.44247680615875
              ],
              [
                5.644068471247757,
                53.44214430929034
              ],
              [
                5.64420995369465,
                53.441801883368875
              ],
              [
                5.644294538542311,
                53.44145282633675
              ],
              [
                5.644321412556484,
                53.441100499921646
              ],
              [
                5.644290318341884,
                53.44074829725661
              ],
              [
                5.644201556766615,
                53.44039961020107
              ],
              [
                5.644055984010329,
                53.44005779667697
              ],
              [
                5.643855003266595,
                53.43972614833508
              ],
              [
                5.6436005511814225,
                53.439407858862154
              ],
              [
                5.64329507916035,
                53.43910599323446
              ],
              [
                5.642941529725803,
                53.438823458212674
              ],
              [
                5.6425433081536225,
                53.43856297436259
              ],
              [
                5.642104249663009,
                53.438327049869976
              ],
              [
                5.64162858247635,
                53.43811795640126
              ],
              [
                5.641120887104949,
                53.437937707242135
              ],
              [
                5.640586052252475,
                53.43778803792392
              ],
              [
                5.640029227760227,
                53.43767038952347
              ],
              [
                5.639455775046341,
                53.437585894797074
              ],
              [
                5.638871215514883,
                53.43753536728153
              ],
              [
                5.638281177430115,
                53.437519293466856
              ],
              [
                5.637691341765588,
                53.43753782811544
              ],
              [
                5.637383340984866,
                53.43756576416077
              ],
              [
                5.637231078660526,
                53.43754332593994
              ],
              [
                5.636646522307802,
                53.437492787625956
              ],
              [
                5.636056485622585,
                53.4374767029132
              ]
            ]
          ],
          [
            [
              [
                5.780630028065244,
                53.441357910791744
              ],
              [
                5.780427987403063,
                53.44102649188658
              ],
              [
                5.780172516508481,
                53.44070849240855
              ],
              [
                5.779866076593978,
                53.440406974539805
              ],
              [
                5.7795116194978835,
                53.44012484169099
              ],
              [
                5.779112559231413,
                53.43986481055416
              ],
              [
                5.778672739084708,
                53.43962938495497
              ],
              [
                5.778196394609165,
                53.439420831755434
              ],
              [
                5.77768811283283,
                53.43924115903885
              ],
              [
                5.777152788101307,
                53.43909209678604
              ],
              [
                5.7765955749689,
                53.438975080228666
              ],
              [
                5.776021838592623,
                53.43889123603978
              ],
              [
                5.775437103105422,
                53.4388413714929
              ],
              [
                5.774846998464278,
                53.438825966695205
              ],
              [
                5.774257206283082,
                53.438845169968204
              ],
              [
                5.773673405169997,
                53.43889879642061
              ],
              [
                5.773101216093646,
                53.43898632972716
              ],
              [
                5.772546148302184,
                53.43910692709637
              ],
              [
                5.772013546314053,
                53.43925942737909
              ],
              [
                5.771508538489171,
                53.43944236224089
              ],
              [
                5.771035987674136,
                53.43965397029017
              ],
              [
                5.7706004443955425,
                53.439892214027225
              ],
              [
                5.770206103051123,
                53.44015479945095
              ],
              [
                5.76985676152013,
                53.44043919813534
              ],
              [
                5.7695557845816765,
                53.44074267156371
              ],
              [
                5.769306071493589,
                53.44106229748688
              ],
              [
                5.769110028044661,
                53.441394998051706
              ],
              [
                5.768969543350419,
                53.441737569430586
              ],
              [
                5.768927326349272,
                53.44191394294639
              ],
              [
                5.7686465228100685,
                53.44210090821187
              ],
              [
                5.76829715514153,
                53.44238530219626
              ],
              [
                5.767996153567939,
                53.4426887715358
              ],
              [
                5.767746417584387,
                53.44300839402073
              ],
              [
                5.767550353200195,
                53.443341091831066
              ],
              [
                5.767409849732591,
                53.4436836611657
              ],
              [
                5.767326261568882,
                53.44403280308654
              ],
              [
                5.767300395074495,
                53.44438515528196
              ],
              [
                5.767332500774758,
                53.44473732444284
              ],
              [
                5.767422270887748,
                53.44508591894106
              ],
              [
                5.767568842234079,
                53.445427581494286
              ],
              [
                5.767770804497683,
                53.445759021503235
              ],
              [
                5.768026213760025,
                53.44607704675003
              ],
              [
                5.768332611179246,
                53.44637859415091
              ],
              [
                5.768687046635989,
                53.446660759268376
              ],
              [
                5.769086107119459,
                53.4469208242965
              ],
              [
                5.769525949581321,
                53.44715628425049
              ],
              [
                5.770002337941663,
                53.447364871106856
              ],
              [
                5.770510683890749,
                53.44754457566196
              ],
              [
                5.77104609109346,
                53.44769366689681
              ],
              [
                5.771603402370026,
                53.44781070866188
              ],
              [
                5.772177249397675,
                53.44789457352037
              ],
              [
                5.772762104453212,
                53.447944453615904
              ],
              [
                5.773352333696541,
                53.44795986846015
              ],
              [
                5.773942251480156,
                53.447940669564524
              ],
              [
                5.774526175159494,
                53.44788704187161
              ],
              [
                5.775098479874279,
                53.44779950197237
              ],
              [
                5.775653652771115,
                53.447678893125946
              ],
              [
                5.776186346143189,
                53.44752637713114
              ],
              [
                5.776691428973434,
                53.447343423127165
              ],
              [
                5.7771640363831915,
                53.44713179343231
              ],
              [
                5.777599616508813,
                53.44689352655797
              ],
              [
                5.777993974353808,
                53.44663091756084
              ],
              [
                5.778343312193621,
                53.44634649592439
              ],
              [
                5.778644266143749,
                53.44604300118268
              ],
              [
                5.778893938539243,
                53.44572335652178
              ],
              [
                5.779089925814432,
                53.44539064061379
              ],
              [
                5.779230341615355,
                53.445048057955354
              ],
              [
                5.779272519337088,
                53.44487168106817
              ],
              [
                5.779553294631209,
                53.44468469125084
              ],
              [
                5.779902606331905,
                53.44440026491611
              ],
              [
                5.780203535647546,
                53.44409676608755
              ],
              [
                5.780453185150425,
                53.44377711799047
              ],
              [
                5.780649151495296,
                53.443444399330104
              ],
              [
                5.780789548529692,
                53.44310181462953
              ],
              [
                5.780873025415916,
                53.442752663358426
              ],
              [
                5.78089877959181,
                53.44240030815012
              ],
              [
                5.780866564447378,
                53.44204814241287
              ],
              [
                5.780776691645321,
                53.44169955764848
              ],
              [
                5.780630028065244,
                53.441357910791744
              ]
            ]
          ],
          [
            [
              [
                5.8036879775196555,
                53.446401789548965
              ],
              [
                5.803485735171138,
                53.44607041013646
              ],
              [
                5.803230063558083,
                53.44575246035139
              ],
              [
                5.802923425825421,
                53.44545100189712
              ],
              [
                5.8025687757158275,
                53.44516893761182
              ],
              [
                5.802169529098449,
                53.444908983527135
              ],
              [
                5.801729531057078,
                53.444673642726606
              ],
              [
                5.80125301885526,
                53.444465181255566
              ],
              [
                5.800744581135217,
                53.44428560631398
              ],
              [
                5.800209113743289,
                53.44413664694111
              ],
              [
                5.799651772606629,
                53.44401973737816
              ],
              [
                5.799077924114048,
                53.44393600326782
              ],
              [
                5.798493093477423,
                53.4438862508239
              ],
              [
                5.797902911569413,
                53.44387095907428
              ],
              [
                5.797313060747565,
                53.44389027525207
              ],
              [
                5.796729220184519,
                53.44394401337895
              ],
              [
                5.796157011228775,
                53.44403165605459
              ],
              [
                5.7956019433201025,
                53.44415235943448
              ],
              [
                5.795069360978456,
                53.444304961348976
              ],
              [
                5.794564392375121,
                53.444487992484895
              ],
              [
                5.794091899979725,
                53.444699690523855
              ],
              [
                5.79365643375714,
                53.44493801709964
              ],
              [
                5.793262187364012,
                53.44520067741329
              ],
              [
                5.792912957766249,
                53.44548514231773
              ],
              [
                5.79261210866609,
                53.445788672658445
              ],
              [
                5.79236253809131,
                53.44610834563797
              ],
              [
                5.7921666504592615,
                53.44644108294994
              ],
              [
                5.792026333385818,
                53.44678368041239
              ],
              [
                5.791942939463949,
                53.44713283881618
              ],
              [
                5.791917273188952,
                53.447485195690454
              ],
              [
                5.791949583158261,
                53.447837357680754
              ],
              [
                5.7920395596228405,
                53.448185933227656
              ],
              [
                5.792186337415914,
                53.448527565230926
              ],
              [
                5.79238850423289,
                53.44885896338525
              ],
              [
                5.792644114184725,
                53.44917693587538
              ],
              [
                5.792950706496097,
                53.44947842012549
              ],
              [
                5.793305329169847,
                53.449760512306035
              ],
              [
                5.793704567391168,
                53.45002049531335
              ],
              [
                5.794144576398929,
                53.45025586495253
              ],
              [
                5.79462111850815,
                53.45046435406985
              ],
              [
                5.795129603927281,
                53.45064395440302
              ],
              [
                5.795665134976939,
                53.4507929359369
              ],
              [
                5.7962225532836325,
                53.45090986357878
              ],
              [
                5.79679648949296,
                53.45099361099105
              ],
              [
                5.797381415022128,
                53.45104337144882
              ],
              [
                5.797971695351814,
                53.451058665616195
              ],
              [
                5.798561644342186,
                53.45103934616722
              ],
              [
                5.799145579048038,
                53.45098559920582
              ],
              [
                5.799717874503016,
                53.45089794247189
              ],
              [
                5.800273017943233,
                53.4507772203502
              ],
              [
                5.8008056619460975,
                53.4506245957307
              ],
              [
                5.801310675970723,
                53.45044153879888
              ],
              [
                5.801783195801962,
                53.45022981286468
              ],
              [
                5.802218670420602,
                53.44999145736626
              ],
              [
                5.8026129058473375,
                53.449728768213994
              ],
              [
                5.802962105537695,
                53.44944427566323
              ],
              [
                5.803262906938766,
                53.44914071993094
              ],
              [
                5.803512413855817,
                53.44882102479034
              ],
              [
                5.803708224317831,
                53.44848826939959
              ],
              [
                5.803848453674528,
                53.44814565863515
              ],
              [
                5.803931752703855,
                53.44779649221749
              ],
              [
                5.803957320557177,
                53.447444132925476
              ],
              [
                5.803924912419347,
                53.44709197420634
              ],
              [
                5.8038348418119625,
                53.44674340749393
              ],
              [
                5.8036879775196555,
                53.446401789548965
              ]
            ]
          ]
        ]
      },
      "properties": {
        "type": "buffer_union_400m",
        "buffer_m": 400
      }
    },
    {
      "type": "Feature",
      "geometry": {
        "type": "Polygon",
        "coordinates": [
          [
            [
              5.552856,
              53.471585
            ],
            [
              5.562877,
              53.467078
            ],
            [
              5.582912,
              53.458063
            ],
            [
              5.590396,
              53.449065
            ],
            [
              5.597878,
              53.440068
            ],
            [
              5.602365,
              53.434669
            ],
            [
              5.603559,
              53.433232
            ],
            [
              5.605356,
              53.431069
            ],
            [
              5.612831,
              53.422071
            ],
            [
              5.612807,
              53.417578
            ],
            [
              5.612784,
              53.413086
            ],
            [
              5.61276,
              53.408593
            ],
            [
              5.612736,
              53.404101
            ],
            [
              5.612713,
              53.399608
            ],
            [
              5.612695,
              53.396239
            ],
            [
              5.612689,
              53.395116
            ],
            [
              5.61256,
              53.370407
            ],
            [
              5.612425,
              53.344575
            ],
            [
              5.612313,
              53.323236
            ],
            [
              5.612289,
              53.318743
            ],
            [
              5.627241,
              53.323183
            ],
            [
              5.627281,
              53.323207
            ],
            [
              5.64238,
              53.332161
            ],
            [
              5.658239,
              53.341584
            ],
            [
              5.659625,
              53.342407
            ],
            [
              5.702683,
              53.367958
            ],
            [
              5.702881,
              53.394913
            ],
            [
              5.727753,
              53.394845
            ],
            [
              5.747976,
              53.394786
            ],
            [
              5.777876,
              53.376723
            ],
            [
              5.792504,
              53.376674
            ],
            [
              5.792901,
              53.376673
            ],
            [
              5.823134,
              53.394538
            ],
            [
              5.903496,
              53.410194
            ],
            [
              5.908746,
              53.411214
            ],
            [
              5.909221,
              53.411307
            ],
            [
              5.913542,
              53.412146
            ],
            [
              5.943694,
              53.418001
            ],
            [
              5.958774,
              53.420925
            ],
            [
              5.95884,
              53.425917
            ],
            [
              5.958893,
              53.42991
            ],
            [
              5.959013,
              53.438894
            ],
            [
              5.993058,
              53.452205
            ],
            [
              6.004411,
              53.45664
            ],
            [
              6.004476,
              53.461132
            ],
            [
              6.00467,
              53.474609
            ],
            [
              6.004929,
              53.492578
            ],
            [
              5.989821,
              53.489659
            ],
            [
              5.982268,
              53.488199
            ],
            [
              5.974715,
              53.486739
            ],
            [
              5.959612,
              53.483816
            ],
            [
              5.93556,
              53.482137
            ],
            [
              5.914383,
              53.480653
            ],
            [
              5.839015,
              53.475344
            ],
            [
              5.808886,
              53.474455
            ],
            [
              5.782919,
              53.473683
            ],
            [
              5.782433,
              53.473668
            ],
            [
              5.778758,
              53.473558
            ],
            [
              5.748631,
              53.472654
            ],
            [
              5.734923,
              53.47224
            ],
            [
              5.731785,
              53.472145
            ],
            [
              5.718505,
              53.471742
            ],
            [
              5.703443,
              53.471284
            ],
            [
              5.699769,
              53.472208
            ],
            [
              5.68841,
              53.475066
            ],
            [
              5.685404,
              53.475822
            ],
            [
              5.666141,
              53.480664
            ],
            [
              5.665895,
              53.480726
            ],
            [
              5.613209,
              53.493949
            ],
            [
              5.564921,
              53.47606
            ],
            [
              5.552856,
              53.471585
            ]
          ]
        ]
      },
      "properties": {
        "type": "boundary",
        "gemeente": "Ameland"
      }
    }
  ]
}