{
  "type": "FeatureCollection",
  "metadata": {
    "gemeente": "Beesel",
    "slug": "beesel",
    "generated_at": "2026-06-30T16:12:50.311691Z",
    "total_points": 19,
    "providers": [
      "DHL",
      "DPD",
      "PostNL",
      "VintedGo",
      "GLS",
      "ViaTim",
      "InPost"
    ],
    "bounds": [
      6.06914,
      51.283936,
      6.0826347,
      51.29045
    ]
  },
  "features": [
    {
      "type": "Feature",
      "geometry": {
        "type": "Point",
        "coordinates": [
          6.082365,
          51.290221
        ]
      },
      "properties": {
        "type": "pakketpunt",
        "locatieNaam": "Pakketwinkel Tankstation Reuver",
        "straatNaam": "Rijksweg",
        "straatNr": "113",
        "vervoerder": "DHL",
        "puntType": "parcelShop",
        "bezettingsgraad": 50,
        "latitude": 51.290221,
        "longitude": 6.082365,
        "canPickup": true,
        "canDropoff": true,
        "openingstijden": {
          "ma": "09:00 - 20:00",
          "di": "09:00 - 20:00",
          "wo": "09:00 - 20:00",
          "do": "09:00 - 20:00",
          "vr": "09:00 - 20:00",
          "za": "09:00 - 17:00",
          "zo": "10:00 - 16:00"
        }
      }
    },
    {
      "type": "Feature",
      "geometry": {
        "type": "Point",
        "coordinates": [
          6.0823653,
          51.2902206
        ]
      },
      "properties": {
        "type": "pakketpunt",
        "locatieNaam": "Pakketautomaat Tankstation Reuver",
        "straatNaam": "Rijksweg",
        "straatNr": "113",
        "vervoerder": "DHL",
        "puntType": "packStation",
        "bezettingsgraad": 50,
        "latitude": 51.2902206,
        "longitude": 6.0823653,
        "canPickup": true,
        "canDropoff": true,
        "openingstijden": {
          "ma": "09:00 - 20:00",
          "di": "09:00 - 20:00",
          "wo": "09:00 - 20:00",
          "do": "09:00 - 20:00",
          "vr": "09:00 - 20:00",
          "za": "09:00 - 17:00",
          "zo": "10:00 - 16:00"
        }
      }
    },
    {
      "type": "Feature",
      "geometry": {
        "type": "Point",
        "coordinates": [
          6.0825300216674805,
          51.28972625732422
        ]
      },
      "properties": {
        "type": "pakketpunt",
        "locatieNaam": "Electro World Reuver",
        "straatNaam": "Rijksweg",
        "straatNr": "118",
        "vervoerder": "DHL",
        "puntType": "parcelShop",
        "bezettingsgraad": 50,
        "latitude": 51.28972625732422,
        "longitude": 6.0825300216674805,
        "canPickup": true,
        "canDropoff": true,
        "openingstijden": {
          "ma": "10:00 - 18:00",
          "di": "10:00 - 18:00",
          "wo": "10:00 - 18:00",
          "do": "10:00 - 18:00",
          "vr": "10:00 - 20:00",
          "za": "09:00 - 17:00",
          "zo": "gesloten"
        }
      }
    },
    {
      "type": "Feature",
      "geometry": {
        "type": "Point",
        "coordinates": [
          6.077323,
          51.283936
        ]
      },
      "properties": {
        "type": "pakketpunt",
        "locatieNaam": "Pakketautomaat PLUS Gerdes Reuver",
        "straatNaam": "Pastoor Vranckenlaan",
        "straatNr": "18",
        "vervoerder": "DHL",
        "puntType": "packStation",
        "bezettingsgraad": 50,
        "latitude": 51.283936,
        "longitude": 6.077323,
        "canPickup": true,
        "canDropoff": true,
        "openingstijden": {
          "ma": "00:00 - 23:59",
          "di": "00:00 - 23:59",
          "wo": "00:00 - 23:59",
          "do": "00:00 - 23:59",
          "vr": "00:00 - 23:59",
          "za": "00:00 - 23:59",
          "zo": "00:00 - 23:59"
        }
      }
    },
    {
      "type": "Feature",
      "geometry": {
        "type": "Point",
        "coordinates": [
          6.081970799083604,
          51.28478166858548
        ]
      },
      "properties": {
        "type": "pakketpunt",
        "locatieNaam": "Pakketautomaat Lidl Reuver",
        "straatNaam": "Greswarenstraat",
        "straatNr": "1",
        "vervoerder": "DHL",
        "puntType": "packStation",
        "bezettingsgraad": 50,
        "latitude": 51.28478166858548,
        "longitude": 6.081970799083604,
        "canPickup": true,
        "canDropoff": true,
        "openingstijden": {
          "ma": "08:00 - 20:00",
          "di": "08:00 - 20:00",
          "wo": "08:00 - 20:00",
          "do": "08:00 - 20:00",
          "vr": "08:00 - 21:00",
          "za": "08:00 - 21:00",
          "zo": "09:00 - 20:00"
        }
      }
    },
    {
      "type": "Feature",
      "geometry": {
        "type": "Point",
        "coordinates": [
          6.0691438,
          51.2849998
        ]
      },
      "properties": {
        "type": "pakketpunt",
        "locatieNaam": "DHL Buurtpunt ViaTim & Timmermans",
        "straatNaam": "Minister Goselinglaan",
        "straatNr": "17",
        "vervoerder": "DHL",
        "puntType": "parcelShop",
        "bezettingsgraad": 50,
        "latitude": 51.2849998,
        "longitude": 6.0691438,
        "canPickup": true,
        "canDropoff": true,
        "openingstijden": {
          "ma": "15:30 - 21:00",
          "di": "15:30 - 21:00",
          "wo": "15:30 - 21:00",
          "do": "15:30 - 21:00",
          "vr": "15:30 - 21:00",
          "za": "gesloten",
          "zo": "gesloten"
        }
      }
    },
    {
      "type": "Feature",
      "geometry": {
        "type": "Point",
        "coordinates": [
          6.082568,
          51.290262
        ]
      },
      "properties": {
        "type": "pakketpunt",
        "locatieNaam": "Tankstation Reuver",
        "straatNaam": "RIJKSWEG",
        "straatNr": "113",
        "vervoerder": "DPD",
        "puntType": "pickup_point",
        "bezettingsgraad": 50,
        "latitude": 51.290262,
        "longitude": 6.082568,
        "canPickup": true,
        "canDropoff": true,
        "openingstijden": {
          "ma": "09:00 - 20:00",
          "di": "09:00 - 20:00",
          "wo": "09:00 - 20:00",
          "do": "09:00 - 20:00",
          "vr": "09:00 - 20:00",
          "za": "09:00 - 17:00",
          "zo": "10:00 - 16:00"
        }
      }
    },
    {
      "type": "Feature",
      "geometry": {
        "type": "Point",
        "coordinates": [
          6.07728951954588,
          51.2841314938604
        ]
      },
      "properties": {
        "type": "pakketpunt",
        "locatieNaam": "Pakket- en briefautomaat",
        "straatNaam": "Pastoor Vranckenlaan",
        "straatNr": "18PBA",
        "vervoerder": "PostNL",
        "puntType": "automaat",
        "bezettingsgraad": 50,
        "latitude": 51.2841314938604,
        "longitude": 6.07728951954588,
        "canPickup": true,
        "canDropoff": true,
        "openingstijden": "00:00 - 23:59"
      }
    },
    {
      "type": "Feature",
      "geometry": {
        "type": "Point",
        "coordinates": [
          6.079020465,
          51.28484933
        ]
      },
      "properties": {
        "type": "pakketpunt",
        "locatieNaam": "Bruna",
        "straatNaam": "Rijksweg",
        "straatNr": "36B",
        "vervoerder": "PostNL",
        "puntType": "servicepunt",
        "bezettingsgraad": 50,
        "latitude": 51.28484933,
        "longitude": 6.079020465,
        "canPickup": true,
        "canDropoff": true,
        "openingstijden": "09:00 - 18:00 (Na 18:00 open; Zaterdag open)"
      }
    },
    {
      "type": "Feature",
      "geometry": {
        "type": "Point",
        "coordinates": [
          6.082370329,
          51.29022278
        ]
      },
      "properties": {
        "type": "pakketpunt",
        "locatieNaam": "Pakket- en briefautomaat",
        "straatNaam": "Rijksweg",
        "straatNr": "113PBA",
        "vervoerder": "PostNL",
        "puntType": "automaat",
        "bezettingsgraad": 50,
        "latitude": 51.29022278,
        "longitude": 6.082370329,
        "canPickup": true,
        "canDropoff": true,
        "openingstijden": "00:00 - 23:59"
      }
    },
    {
      "type": "Feature",
      "geometry": {
        "type": "Point",
        "coordinates": [
          6.06914,
          51.285
        ]
      },
      "properties": {
        "type": "pakketpunt",
        "locatieNaam": "S. Timmermans",
        "straatNaam": "Minister Goselinglaan 17",
        "straatNr": "",
        "vervoerder": "VintedGo",
        "puntType": "social",
        "bezettingsgraad": 50,
        "latitude": 51.285,
        "longitude": 6.06914,
        "canPickup": true,
        "canDropoff": true,
        "openingstijden": null
      }
    },
    {
      "type": "Feature",
      "geometry": {
        "type": "Point",
        "coordinates": [
          6.0826347,
          51.2901809
        ]
      },
      "properties": {
        "type": "pakketpunt",
        "locatieNaam": "Tankstation Reuver",
        "straatNaam": "Rijksweg 113",
        "straatNr": "",
        "vervoerder": "VintedGo",
        "puntType": "locker",
        "bezettingsgraad": 50,
        "latitude": 51.2901809,
        "longitude": 6.0826347,
        "canPickup": true,
        "canDropoff": true,
        "openingstijden": null
      }
    },
    {
      "type": "Feature",
      "geometry": {
        "type": "Point",
        "coordinates": [
          6.0790507,
          51.2849027
        ]
      },
      "properties": {
        "type": "pakketpunt",
        "locatieNaam": "Gsm Reuver",
        "straatNaam": "Rijksweg 36",
        "straatNr": "",
        "vervoerder": "VintedGo",
        "puntType": "parcel_shop",
        "bezettingsgraad": 50,
        "latitude": 51.2849027,
        "longitude": 6.0790507,
        "canPickup": true,
        "canDropoff": true,
        "openingstijden": null
      }
    },
    {
      "type": "Feature",
      "geometry": {
        "type": "Point",
        "coordinates": [
          6.08237032,
          51.2902227
        ]
      },
      "properties": {
        "type": "pakketpunt",
        "locatieNaam": "Pakketautomaat",
        "straatNaam": "Rijksweg",
        "straatNr": "113",
        "vervoerder": "GLS",
        "puntType": "locker",
        "bezettingsgraad": 50,
        "latitude": 51.2902227,
        "longitude": 6.08237032,
        "canPickup": true,
        "canDropoff": true,
        "openingstijden": {
          "ma": "00:00 - 23:59",
          "di": "00:00 - 23:59",
          "wo": "00:00 - 23:59",
          "do": "00:00 - 23:59",
          "vr": "00:00 - 23:59",
          "za": "00:00 - 23:59",
          "zo": "00:00 - 23:59"
        }
      }
    },
    {
      "type": "Feature",
      "geometry": {
        "type": "Point",
        "coordinates": [
          6.07728951,
          51.2841314
        ]
      },
      "properties": {
        "type": "pakketpunt",
        "locatieNaam": "Pakketautomaat",
        "straatNaam": "Pastoor Vranckenlaan",
        "straatNr": "18",
        "vervoerder": "GLS",
        "puntType": "locker",
        "bezettingsgraad": 50,
        "latitude": 51.2841314,
        "longitude": 6.07728951,
        "canPickup": true,
        "canDropoff": true,
        "openingstijden": {
          "ma": "00:00 - 23:59",
          "di": "00:00 - 23:59",
          "wo": "00:00 - 23:59",
          "do": "00:00 - 23:59",
          "vr": "00:00 - 23:59",
          "za": "00:00 - 23:59",
          "zo": "00:00 - 23:59"
        }
      }
    },
    {
      "type": "Feature",
      "geometry": {
        "type": "Point",
        "coordinates": [
          6.0691417,
          51.2849994
        ]
      },
      "properties": {
        "type": "pakketpunt",
        "locatieNaam": "ViaTim en Timmermans",
        "straatNaam": "Minister Goselinglaan",
        "straatNr": "17",
        "vervoerder": "GLS",
        "puntType": "parcel_shop",
        "bezettingsgraad": 50,
        "latitude": 51.2849994,
        "longitude": 6.0691417,
        "canPickup": true,
        "canDropoff": true,
        "openingstijden": {
          "ma": "15:30 - 21:00",
          "di": "15:30 - 21:00",
          "wo": "15:30 - 21:00",
          "do": "15:30 - 21:00",
          "vr": "15:30 - 21:00",
          "za": "00:00 - 00:00",
          "zo": "00:00 - 00:00"
        }
      }
    },
    {
      "type": "Feature",
      "geometry": {
        "type": "Point",
        "coordinates": [
          6.06914390328857,
          51.2849998001182
        ]
      },
      "properties": {
        "type": "pakketpunt",
        "locatieNaam": "ViaTim en Timmermans",
        "straatNaam": "Minister Goselinglaan",
        "straatNr": "17",
        "vervoerder": "ViaTim",
        "puntType": "servicepunt",
        "bezettingsgraad": 50,
        "latitude": 51.2849998001182,
        "longitude": 6.06914390328857,
        "canPickup": true,
        "canDropoff": true,
        "openingstijden": {
          "ma": "15:30 - 21:00",
          "di": "15:30 - 21:00",
          "wo": "15:30 - 21:00",
          "do": "15:30 - 21:00",
          "vr": "15:30 - 21:00",
          "za": "gesloten",
          "zo": "gesloten"
        }
      }
    },
    {
      "type": "Feature",
      "geometry": {
        "type": "Point",
        "coordinates": [
          6.08174,
          51.29045
        ]
      },
      "properties": {
        "type": "pakketpunt",
        "locatieNaam": "",
        "straatNaam": "Rijksweg",
        "straatNr": "113",
        "vervoerder": "InPost",
        "puntType": "automaat",
        "bezettingsgraad": 50,
        "latitude": 51.29045,
        "longitude": 6.08174,
        "canPickup": true,
        "canDropoff": true,
        "openingstijden": "24/7"
      }
    },
    {
      "type": "Feature",
      "geometry": {
        "type": "Point",
        "coordinates": [
          6.07909,
          51.28489
        ]
      },
      "properties": {
        "type": "pakketpunt",
        "locatieNaam": "GSM REUVER",
        "straatNaam": "Rijksweg 36",
        "straatNr": "",
        "vervoerder": "InPost",
        "puntType": "servicepunt",
        "bezettingsgraad": 50,
        "latitude": 51.28489,
        "longitude": 6.07909,
        "canPickup": true,
        "canDropoff": true,
        "openingstijden": null
      }
    },
    {
      "type": "Feature",
      "geometry": {
        "type": "Polygon",
        "coordinates": [
          [
            [
              6.0803345553796015,
              51.28201124163195
            ],
            [
              6.08001922277941,
              51.28183539677161
            ],
            [
              6.079677927663945,
              51.281679781267954
            ],
            [
              6.0793139566691945,
              51.281545893570886
            ],
            [
              6.078930814683984,
              51.28143502289736
            ],
            [
              6.078532191109463,
              51.281348236823256
            ],
            [
              6.0781219243460445,
              51.28128637100818
            ],
            [
              6.077703964849123,
              51.28125002115321
            ],
            [
              6.077282337108538,
              51.28123953726771
            ],
            [
              6.076861100917004,
              51.28125502030084
            ],
            [
              6.07644431229945,
              51.28129632116994
            ],
            [
              6.076035984478595,
              51.281363042195345
            ],
            [
              6.075640049251485,
              51.281454540927506
            ],
            [
              6.075260319148114,
              51.28156993632977
            ],
            [
              6.074900450735505,
              51.28170811725785
            ],
            [
              6.074563909419951,
              51.281867753153826
            ],
            [
              6.074253936085661,
              51.28204730685239
            ],
            [
              6.073973515890697,
              51.282245049376556
            ],
            [
              6.073725349520364,
              51.2824590765798
            ],
            [
              6.073511827174851,
              51.282687327475664
            ],
            [
              6.073335005541758,
              51.282927604078026
            ],
            [
              6.073196587975599,
              51.28317759256125
            ],
            [
              6.073097908075687,
              51.28343488553737
            ],
            [
              6.073039916821223,
              51.283697005234856
            ],
            [
              6.073036018548963,
              51.283758569302364
            ],
            [
              6.0730185073913345,
              51.283837718776155
            ],
            [
              6.072917056179756,
              51.28370640994683
            ],
            [
              6.0726967235568345,
              51.28348071706453
            ],
            [
              6.0724421787551615,
              51.283269653843114
            ],
            [
              6.072155873372964,
              51.28307525272114
            ],
            [
              6.071840564742195,
              51.282899385664365
            ],
            [
              6.071499289371798,
              51.28274374614662
            ],
            [
              6.071135333707768,
              51.282609832848976
            ],
            [
              6.070752202491432,
              51.282498935234976
            ],
            [
              6.070353585020343,
              51.28241212113979
            ],
            [
              6.070352393664593,
              51.28241194140837
            ],
            [
              6.0703513818459705,
              51.28241172104424
            ],
            [
              6.069941116468375,
              51.28234982638964
            ],
            [
              6.069523153618745,
              51.2823134471619
            ],
            [
              6.069101517819221,
              51.28230293365315
            ],
            [
              6.0686802689400965,
              51.28231838709778
            ],
            [
              6.068263463128441,
              51.282359658698105
            ],
            [
              6.067855113772456,
              51.282426351056166
            ],
            [
              6.067459152876467,
              51.28251782199848
            ],
            [
              6.067079393217522,
              51.282633190756
            ],
            [
              6.067078350004941,
              51.28263359121759
            ],
            [
              6.067077693278084,
              51.28263379072579
            ],
            [
              6.066717791697805,
              51.28277194640552
            ],
            [
              6.066381213931004,
              51.28293155869821
            ],
            [
              6.066071201212754,
              51.28311109066591
            ],
            [
              6.065790739080214,
              51.28330881354079
            ],
            [
              6.065542528622391,
              51.283522823365665
            ],
            [
              6.065328960463898,
              51.28375105932154
            ],
            [
              6.0651520917333945,
              51.28399132356601
            ],
            [
              6.065013626238857,
              51.28424130239269
            ],
            [
              6.064914898041081,
              51.284498588506494
            ],
            [
              6.064856858584366,
              51.28476070420217
            ],
            [
              6.064840067509048,
              51.28502512522204
            ],
            [
              6.064864687235426,
              51.2852893050636
            ],
            [
              6.064930481372138,
              51.28555069950329
            ],
            [
              6.0650368169654705,
              51.28580679109945
            ],
            [
              6.065182670568908,
              51.28605511343975
            ],
            [
              6.065366638075535,
              51.28629327489817
            ],
            [
              6.065586948219468,
              51.28651898167313
            ],
            [
              6.0658414796171405,
              51.286730059885144
            ],
            [
              6.066127781184937,
              51.28692447651986
            ],
            [
              6.06644309573706,
              51.28710035901552
            ],
            [
              6.066784386536617,
              51.28725601330539
            ],
            [
              6.06714836654434,
              51.28738994014104
            ],
            [
              6.067531530083107,
              51.287500849538965
            ],
            [
              6.067930186613012,
              51.287587673211554
            ],
            [
              6.068340496291165,
              51.287649574861554
            ],
            [
              6.068758506973114,
              51.287685958241674
            ],
            [
              6.069180192298663,
              51.2876964729003
            ],
            [
              6.069601490494412,
              51.28768101755904
            ],
            [
              6.069602399998771,
              51.287680927502365
            ],
            [
              6.069605394009508,
              51.28768081766142
            ],
            [
              6.070022247027948,
              51.28763954117713
            ],
            [
              6.070430639670018,
              51.28757284114924
            ],
            [
              6.070826638267942,
              51.28748136004591
            ],
            [
              6.071206428595782,
              51.287365979026276
            ],
            [
              6.071566352623393,
              51.28722780944921
            ],
            [
              6.071902943762218,
              51.28706818216327
            ],
            [
              6.072212960262875,
              51.286888634682114
            ],
            [
              6.0724934164423665,
              51.28669089636951
            ],
            [
              6.0727416114399295,
              51.28647687177568
            ],
            [
              6.072955155224532,
              51.286248622286976
            ],
            [
              6.073131991603593,
              51.286008346265504
            ],
            [
              6.073270418011777,
              51.28575835787022
            ],
            [
              6.0733691018897185,
              51.2855010647637
            ],
            [
              6.073414980910322,
              51.285293693590944
            ],
            [
              6.073516460646571,
              51.285425032459095
            ],
            [
              6.073736806709559,
              51.285650723747736
            ],
            [
              6.073991370762338,
              51.28586178408259
            ],
            [
              6.074277701406618,
              51.286056180621564
            ],
            [
              6.074593041176398,
              51.28623204099647
            ],
            [
              6.074934353091742,
              51.28638767135354
            ],
            [
              6.075298349909861,
              51.286521572674836
            ],
            [
              6.0756815257915955,
              51.2866324552227
            ],
            [
              6.075784831233033,
              51.2866549466723
            ],
            [
              6.076038905542209,
              51.28682743223622
            ],
            [
              6.076354257385127,
              51.28700328781161
            ],
            [
              6.076695581029385,
              51.28715891297739
            ],
            [
              6.077059589119191,
              51.2872928087656
            ],
            [
              6.077442775706784,
              51.287403685491775
            ],
            [
              6.0778414500301166,
              51.287490475183056
            ],
            [
              6.078251772074805,
              51.28755234186953
            ],
            [
              6.078669789577195,
              51.28758868964059
            ],
            [
              6.079091476111358,
              51.28759916838776
            ],
            [
              6.079512769892236,
              51.287583677178525
            ],
            [
              6.079929612920275,
              51.28754236522915
            ],
            [
              6.080058967830255,
              51.287521226933556
            ],
            [
              6.079770346047013,
              51.287658135478374
            ],
            [
              6.079460354093525,
              51.287837703038136
            ],
            [
              6.079179921091935,
              51.288035458086306
            ],
            [
              6.078931747851025,
              51.28824949635583
            ],
            [
              6.078718224637326,
              51.28847775675373
            ],
            [
              6.078641923721241,
              51.28858144608667
            ],
            [
              6.078389875397967,
              51.288759178115896
            ],
            [
              6.078141694545289,
              51.28897321470883
            ],
            [
              6.077928164024351,
              51.289201473664356
            ],
            [
              6.077751340601687,
              51.289441756918656
            ],
            [
              6.077612927649281,
              51.28969175058211
            ],
            [
              6.077514258722255,
              51.289949047216744
            ],
            [
              6.077456284694391,
              51.29021116901591
            ],
            [
              6.0774395645761885,
              51.290475591663046
            ],
            [
              6.0774642601048,
              51.29073976863986
            ],
            [
              6.0775301341590104,
              51.291001155750266
            ],
            [
              6.077636553015555,
              51.29125723562309
            ],
            [
              6.077782492426083,
              51.29150554195889
            ],
            [
              6.077966547457268,
              51.29174368328558
            ],
            [
              6.07818694600022,
              51.29196936599542
            ],
            [
              6.078441565819867,
              51.29218041644058
            ],
            [
              6.078727954980828,
              51.2923748018741
            ],
            [
              6.07904335545346,
              51.2925506500347
            ],
            [
              6.079384729673103,
              51.29270626718626
            ],
            [
              6.079748789796779,
              51.29284015443793
            ],
            [
              6.080132029375452,
              51.29295102218761
            ],
            [
              6.080530757136574,
              51.293037802548724
            ],
            [
              6.080941132550923,
              51.293099659641236
            ],
            [
              6.0813592028406696,
              51.2931359976471
            ],
            [
              6.081780941071295,
              51.29314646655165
            ],
            [
              6.082202284959675,
              51.29313096551729
            ],
            [
              6.082619176023499,
              51.293089643855026
            ],
            [
              6.083027598693992,
              51.29302289958536
            ],
            [
              6.083423619014149,
              51.292931375602485
            ],
            [
              6.083607862712039,
              51.29287538425273
            ],
            [
              6.083855639867435,
              51.29283489036781
            ],
            [
              6.0842516568925955,
              51.29274336357319
            ],
            [
              6.084631456767505,
              51.29262793875364
            ],
            [
              6.084991381370194,
              51.29248972768978
            ],
            [
              6.085327964106753,
              51.2923300616298
            ],
            [
              6.08563796330896,
              51.29215047846093
            ],
            [
              6.0859183934607,
              51.291952707890594
            ],
            [
              6.086166553952203,
              51.291738654779614
            ],
            [
              6.086380055085088,
              51.29151038078906
            ],
            [
              6.086413814689228,
              51.291464493279165
            ],
            [
              6.0864467501277515,
              51.29142927861787
            ],
            [
              6.086623535458558,
              51.291188982244954
            ],
            [
              6.086761903623684,
              51.29093897796628
            ],
            [
              6.086860522625016,
              51.290681673597334
            ],
            [
              6.086918443345904,
              51.29041954722042
            ],
            [
              6.086935108667157,
              51.29015512331538
            ],
            [
              6.086910358805916,
              51.28989094844531
            ],
            [
              6.086844432827048,
              51.28962956673107
            ],
            [
              6.086817726024939,
              51.28956533228217
            ],
            [
              6.086805638690781,
              51.28943630968822
            ],
            [
              6.086739713977095,
              51.28917492790764
            ],
            [
              6.086633249118908,
              51.28891885642418
            ],
            [
              6.0864872700542,
              51.28867056123581
            ],
            [
              6.086303183183892,
              51.28843243341467
            ],
            [
              6.086082761806559,
              51.28820676608518
            ],
            [
              6.085828129023662,
              51.28799573234716
            ],
            [
              6.0855417372805,
              51.28780136435507
            ],
            [
              6.085226344740424,
              51.28762553375567
            ],
            [
              6.084884988720159,
              51.28746993367161
            ],
            [
              6.08452095644206,
              51.28733606240426
            ],
            [
              6.0841377533849395,
              51.287225209012384
            ],
            [
              6.08392851832026,
              51.2871796720631
            ],
            [
              6.084033976585788,
              51.28714761895595
            ],
            [
              6.084393859979609,
              51.287009409786755
            ],
            [
              6.084730404594603,
              51.28684974549136
            ],
            [
              6.085040369129719,
              51.28667016394003
            ],
            [
              6.0853207684027035,
              51.28647239482452
            ],
            [
              6.085568902101128,
              51.28625834299169
            ],
            [
              6.085782380784575,
              51.28603007009024
            ],
            [
              6.085959148887671,
              51.28578977470766
            ],
            [
              6.086097504502833,
              51.28553977118924
            ],
            [
              6.08619611575264,
              51.28528246734329
            ],
            [
              6.086254033594917,
              51.28502034124689
            ],
            [
              6.086270700938001,
              51.284755917377275
            ],
            [
              6.08624595797937,
              51.28449174229716
            ],
            [
              6.086180043717218,
              51.2842303601295
            ],
            [
              6.086073593621495,
              51.2839742880571
            ],
            [
              6.085927633487868,
              51.283725992083504
            ],
            [
              6.085743569534797,
              51.283487863288464
            ],
            [
              6.0855231748400715,
              51.28326219480584
            ],
            [
              6.085268572248098,
              51.2830511597465
            ],
            [
              6.0849822139133956,
              51.28285679027773
            ],
            [
              6.084666857677571,
              51.28268095806054
            ],
            [
              6.084325540507753,
              51.28252535623314
            ],
            [
              6.08396154925221,
              51.28239148311372
            ],
            [
              6.0835783889947885,
              51.28228062777896
            ],
            [
              6.083179749312504,
              51.28219385765688
            ],
            [
              6.082769468760804,
              51.28213200825362
            ],
            [
              6.082351497927808,
              51.28209567511223
            ],
            [
              6.081929861412467,
              51.28208520808106
            ],
            [
              6.081508619091954,
              51.28210070794704
            ],
            [
              6.081091827050219,
              51.28214202546547
            ],
            [
              6.080683498542948,
              51.28220876279634
            ],
            [
              6.0806375012414975,
              51.28221939453134
            ],
            [
              6.080620888724916,
              51.28220562258894
            ],
            [
              6.0803345553796015,
              51.28201124163195
            ]
          ]
        ]
      },
      "properties": {
        "type": "buffer_union_300m",
        "buffer_m": 300
      }
    },
    {
      "type": "Feature",
      "geometry": {
        "type": "Polygon",
        "coordinates": [
          [
            [
              6.080917907954808,
              51.281135180736754
            ],
            [
              6.080462851235228,
              51.280927696678
            ],
            [
              6.079977561989674,
              51.28074918275341
            ],
            [
              6.079466713195173,
              51.280601357803455
            ],
            [
              6.078935223777146,
              51.280485645162166
            ],
            [
              6.078388211269225,
              51.28040315896077
            ],
            [
              6.077830942567065,
              51.280354693407695
            ],
            [
              6.077268783248812,
              51.2803407151468
            ],
            [
              6.076707145948662,
              51.280361358767195
            ],
            [
              6.076151438278951,
              51.28041642550831
            ],
            [
              6.0756070108003515,
              51.28050538517226
            ],
            [
              6.0750791055394675,
              51.28062738122503
            ],
            [
              6.0745728055478,
              51.28078123903787
            ],
            [
              6.074092985986254,
              51.28096547718961
            ],
            [
              6.073644267204832,
              51.281178321721605
            ],
            [
              6.073230970268217,
              51.28141772320816
            ],
            [
              6.072857075354731,
              51.28168137647881
            ],
            [
              6.0725261834287805,
              51.28196674280336
            ],
            [
              6.072437491943653,
              51.28206154990431
            ],
            [
              6.0722843657436,
              51.28199171647119
            ],
            [
              6.071799096936803,
              51.281813168413024
            ],
            [
              6.071288262499023,
              51.28166530754318
            ],
            [
              6.070756781217606,
              51.28154955754137
            ],
            [
              6.070755589882758,
              51.28154937781398
            ],
            [
              6.070754578081297,
              51.28154915745337
            ],
            [
              6.070207567420381,
              51.28146663280021
            ],
            [
              6.069650294247749,
              51.281418128084425
            ],
            [
              6.069088124184614,
              51.28140411032691
            ],
            [
              6.068526469968615,
              51.281424714497014
            ],
            [
              6.067970739374886,
              51.28147974221398
            ],
            [
              6.067426283184707,
              51.281568663655655
            ],
            [
              6.066898343700961,
              51.28169062265599
            ],
            [
              6.066392004304474,
              51.28184444494306
            ],
            [
              6.066390961103797,
              51.281844845398496
            ],
            [
              6.0663903043852265,
              51.28184504490278
            ],
            [
              6.065910440602937,
              51.282029249390476
            ],
            [
              6.065461673222771,
              51.28224206245167
            ],
            [
              6.065048323777105,
              51.28248143496366
            ],
            [
              6.064674372949621,
              51.28274506203511
            ],
            [
              6.0643434222428825,
              51.28303040518817
            ],
            [
              6.064058659288093,
              51.28333471679004
            ],
            [
              6.063822827131296,
              51.283655066499946
            ],
            [
              6.063638197792402,
              51.28398836947642
            ],
            [
              6.063506550352627,
              51.28433141607443
            ],
            [
              6.063429153782558,
              51.284680902746686
            ],
            [
              6.063406754677704,
              51.28503346385176
            ],
            [
              6.063439570021335,
              51.28538570406272
            ],
            [
              6.063527285046115,
              51.285734231065284
            ],
            [
              6.063669056216949,
              51.286075688229005
            ],
            [
              6.063863519308243,
              51.28640678693875
            ],
            [
              6.064108802499554,
              51.28672433827299
            ],
            [
              6.064402544365114,
              51.28702528372513
            ],
            [
              6.064741916585455,
              51.28730672467044
            ],
            [
              6.065123651163565,
              51.28756595029533
            ],
            [
              6.065544071884266,
              51.287800463718284
            ],
            [
              6.065999129714447,
              51.28800800605194
            ],
            [
              6.066484441803259,
              51.28818657817214
            ],
            [
              6.066995333706573,
              51.2883344599855
            ],
            [
              6.067526884428373,
              51.28845022700787
            ],
            [
              6.068073973844457,
              51.288532764094676
            ],
            [
              6.068631332050473,
              51.28858127618972
            ],
            [
              6.069193590157579,
              51.28859529598877
            ],
            [
              6.069755332044858,
              51.2885746884442
            ],
            [
              6.069756241566661,
              51.28857459838626
            ],
            [
              6.069759235635464,
              51.288574488541286
            ],
            [
              6.070315050151647,
              51.28851945214514
            ],
            [
              6.070859583294728,
              51.28843051707174
            ],
            [
              6.0713875898045675,
              51.28830854001057
            ],
            [
              6.071893983724541,
              51.28815469592745
            ],
            [
              6.072373887419153,
              51.28797046673875
            ],
            [
              6.072822678578538,
              51.28775762702783
            ],
            [
              6.073236034755905,
              51.287518226941
            ],
            [
              6.073609975008249,
              51.28725457242894
            ],
            [
              6.07388361815181,
              51.28701859843991
            ],
            [
              6.074149245278043,
              51.28713971883473
            ],
            [
              6.074634579782962,
              51.28731825693527
            ],
            [
              6.074945355237808,
              51.287408189122935
            ],
            [
              6.075034916970598,
              51.287468991256944
            ],
            [
              6.0754553874157935,
              51.28770346878603
            ],
            [
              6.075910489042185,
              51.28791097228713
            ],
            [
              6.076395838576768,
              51.28808950301014
            ],
            [
              6.076906761214446,
              51.28823734126043
            ],
            [
              6.077160666917512,
              51.288292615931745
            ],
            [
              6.076942310140899,
              51.288480926966315
            ],
            [
              6.0766575973641865,
              51.288785269234886
            ],
            [
              6.076421825612519,
              51.289105644291915
            ],
            [
              6.076237266324693,
              51.28943896705175
            ],
            [
              6.076105697907878,
              51.28978202767877
            ],
            [
              6.076028388572169,
              51.29013152249039
            ],
            [
              6.076006084073437,
              51.290484085766614
            ],
            [
              6.076039000484227,
              51.290836322159585
            ],
            [
              6.0761268220641576,
              51.29118483939133
            ],
            [
              6.0762687042521275,
              51.2915262809256
            ],
            [
              6.076463281753439,
              51.291857358297406
            ],
            [
              6.076708681645755,
              51.29217488279065
            ],
            [
              6.077002541379229,
              51.29247579615699
            ],
            [
              6.077342031498967,
              51.29275720008069
            ],
            [
              6.077723882872124,
              51.2930163841045
            ],
            [
              6.078144418158248,
              51.29325085174757
            ],
            [
              6.078599587220345,
              51.293458344563284
            ],
            [
              6.079085006135758,
              51.29363686390453
            ],
            [
              6.079595999430939,
              51.2937846901862
            ],
            [
              6.080127645132806,
              51.293900399458984
            ],
            [
              6.080674822201854,
              51.29398287713463
            ],
            [
              6.0812322598890445,
              51.29403132872918
            ],
            [
              6.0817945885396165,
              51.29404528752124
            ],
            [
              6.082356391352888,
              51.29402461905098
            ],
            [
              6.082912256597763,
              51.293969522415935
            ],
            [
              6.08345682977922,
              51.293880528351856
            ],
            [
              6.083984865251473,
              51.293758494116595
            ],
            [
              6.084105503769108,
              51.29372183226303
            ],
            [
              6.0842848846777695,
              51.29369251606161
            ],
            [
              6.084812915756427,
              51.293570478077285
            ],
            [
              6.085319322403934,
              51.293416575592836
            ],
            [
              6.085799226862453,
              51.29323229108736
            ],
            [
              6.08624800681508,
              51.29301939967691
            ],
            [
              6.086661339923391,
              51.292779952005915
            ],
            [
              6.08703524546705,
              51.292516254483296
            ],
            [
              6.087366122684035,
              51.2922308470554
            ],
            [
              6.087650785442051,
              51.29192647872958
            ],
            [
              6.087684544075133,
              51.2918805908537
            ],
            [
              6.087717478831994,
              51.291845375834704
            ],
            [
              6.087953185414775,
              51.2915249780561
            ],
            [
              6.088137667613978,
              51.291191636894034
            ],
            [
              6.08826914976603,
              51.290848562850755
            ],
            [
              6.088346366760656,
              51.29049906009557
            ],
            [
              6.08836857618092,
              51.29014649463694
            ],
            [
              6.088335565406059,
              51.289794261902024
            ],
            [
              6.0882476536103916,
              51.28944575403555
            ],
            [
              6.088238776533577,
              51.28942440475561
            ],
            [
              6.0882308313638855,
              51.28933962445167
            ],
            [
              6.088142921255359,
              51.28899111649673
            ],
            [
              6.08800095849327,
              51.28864968955693
            ],
            [
              6.087806311364484,
              51.28831863156404
            ],
            [
              6.08756085539203,
              51.28800113052737
            ],
            [
              6.087266955235711,
              51.287700243841556
            ],
            [
              6.0869274418890225,
              51.2874188688543
            ],
            [
              6.086545585393063,
              51.28715971497699
            ],
            [
              6.086387195107933,
              51.28707141424005
            ],
            [
              6.08643747901379,
              51.28703594753894
            ],
            [
              6.086768320507829,
              51.28675054181553
            ],
            [
              6.0870529533349425,
              51.28644617494213
            ],
            [
              6.087288636949588,
              51.28612577848427
            ],
            [
              6.087473102418014,
              51.28579243833611
            ],
            [
              6.0876045742374965,
              51.28544936499018
            ],
            [
              6.087681787396935,
              51.285099862609044
            ],
            [
              6.087703999515996,
              51.28474729719765
            ],
            [
              6.087670997947573,
              51.28439506418257
            ],
            [
              6.08758310177698,
              51.28404655571131
            ],
            [
              6.087441158700484,
              51.28370512798601
            ],
            [
              6.087246536815098,
              51.283374068945804
            ],
            [
              6.08700111140051,
              51.28305656661028
            ],
            [
              6.086707246822065,
              51.28275567838656
            ],
            [
              6.086367773730495,
              51.282474301637244
            ],
            [
              6.085985961779163,
              51.28221514579062
            ],
            [
              6.085565488122371,
              51.28198070626242
            ],
            [
              6.085110401998679,
              51.28177324043856
            ],
            [
              6.08462508574038,
              51.28159474595061
            ],
            [
              6.0841142125844705,
              51.28144694145199
            ],
            [
              6.083582701690794,
              51.28133125007965
            ],
            [
              6.08303567079966,
              51.28124878576022
            ],
            [
              6.082478386983622,
              51.28120034249134
            ],
            [
              6.081916215966279,
              51.28118638670233
            ],
            [
              6.081354570494436,
              51.28120705276597
            ],
            [
              6.081093248461658,
              51.281232958523546
            ],
            [
              6.080917907954808,
              51.281135180736754
            ]
          ]
        ]
      },
      "properties": {
        "type": "buffer_union_400m",
        "buffer_m": 400
      }
    },
    {
      "type": "Feature",
      "geometry": {
        "type": "Polygon",
        "coordinates": [
          [
            [
              6.0058802,
              51.258683
            ],
            [
              6.0057856,
              51.2588146
            ],
            [
              6.0057107,
              51.2589149
            ],
            [
              6.0055345,
              51.2592259
            ],
            [
              6.005356,
              51.2598151
            ],
            [
              6.0052855,
              51.2602527
            ],
            [
              6.0053227,
              51.260929
            ],
            [
              6.0053667,
              51.2612082
            ],
            [
              6.0054431,
              51.2615278
            ],
            [
              6.0055171,
              51.2617574
            ],
            [
              6.0056436,
              51.2620521
            ],
            [
              6.0057638,
              51.262286
            ],
            [
              6.005872,
              51.2624789
            ],
            [
              6.0063478,
              51.2631941
            ],
            [
              6.0065365,
              51.2634408
            ],
            [
              6.0067366,
              51.2636899
            ],
            [
              6.007199,
              51.2642042
            ],
            [
              6.0073561,
              51.2643612
            ],
            [
              6.0078252,
              51.2647622
            ],
            [
              6.0080959,
              51.2649655
            ],
            [
              6.0084394,
              51.2651929
            ],
            [
              6.0090173,
              51.2655043
            ],
            [
              6.0092426,
              51.2656117
            ],
            [
              6.0096119,
              51.2657591
            ],
            [
              6.0099006,
              51.2659227
            ],
            [
              6.0104103,
              51.2661007
            ],
            [
              6.0110875,
              51.2662538
            ],
            [
              6.0121136,
              51.2664357
            ],
            [
              6.0126544,
              51.2665095
            ],
            [
              6.0131698,
              51.2665558
            ],
            [
              6.0141808,
              51.2665642
            ],
            [
              6.0144243,
              51.266559
            ],
            [
              6.0150549,
              51.266476
            ],
            [
              6.0158308,
              51.2663265
            ],
            [
              6.0166311,
              51.2661565
            ],
            [
              6.0174044,
              51.2660051
            ],
            [
              6.0176365,
              51.2659692
            ],
            [
              6.0185922,
              51.2658719
            ],
            [
              6.0188525,
              51.2658596
            ],
            [
              6.0192944,
              51.2658558
            ],
            [
              6.0206634,
              51.2658713
            ],
            [
              6.0222173,
              51.2659571
            ],
            [
              6.0228123,
              51.266012
            ],
            [
              6.0237707,
              51.2661224
            ],
            [
              6.0246374,
              51.2662847
            ],
            [
              6.0250061,
              51.2663882
            ],
            [
              6.0255907,
              51.2665825
            ],
            [
              6.0272571,
              51.2673404
            ],
            [
              6.0274537,
              51.2674456
            ],
            [
              6.0276757,
              51.2676148
            ],
            [
              6.0281978,
              51.2680563
            ],
            [
              6.0285437,
              51.2686247
            ],
            [
              6.0288661,
              51.2693209
            ],
            [
              6.0290976,
              51.2700359
            ],
            [
              6.0293563,
              51.2709838
            ],
            [
              6.0296875,
              51.2726925
            ],
            [
              6.029853,
              51.2732921
            ],
            [
              6.0305364,
              51.2740269
            ],
            [
              6.0312379,
              51.2745071
            ],
            [
              6.03207,
              51.2749972
            ],
            [
              6.0332107,
              51.2756358
            ],
            [
              6.0342395,
              51.2763545
            ],
            [
              6.037284,
              51.2787285
            ],
            [
              6.0378893,
              51.2791868
            ],
            [
              6.0384988,
              51.2796791
            ],
            [
              6.0399138,
              51.2807326
            ],
            [
              6.0419801,
              51.2820936
            ],
            [
              6.0429989,
              51.2831274
            ],
            [
              6.0437892,
              51.2837683
            ],
            [
              6.0451298,
              51.2847585
            ],
            [
              6.0458154,
              51.2851872
            ],
            [
              6.0464155,
              51.2856022
            ],
            [
              6.048329,
              51.2863915
            ],
            [
              6.0490583,
              51.2869239
            ],
            [
              6.0496286,
              51.2871935
            ],
            [
              6.0505913,
              51.2876486
            ],
            [
              6.0528781,
              51.2886015
            ],
            [
              6.0540736,
              51.2890252
            ],
            [
              6.0552395,
              51.2893923
            ],
            [
              6.0584253,
              51.2902466
            ],
            [
              6.0588802,
              51.2896719
            ],
            [
              6.0591724,
              51.289589
            ],
            [
              6.059427,
              51.2896676
            ],
            [
              6.0603548,
              51.2894222
            ],
            [
              6.0609669,
              51.2892359
            ],
            [
              6.0622415,
              51.2889051
            ],
            [
              6.0632779,
              51.2886977
            ],
            [
              6.0636224,
              51.2887048
            ],
            [
              6.0642721,
              51.2886743
            ],
            [
              6.0648353,
              51.2886727
            ],
            [
              6.0660011,
              51.2887014
            ],
            [
              6.0663806,
              51.2887928
            ],
            [
              6.0668189,
              51.2888814
            ],
            [
              6.0670561,
              51.2890029
            ],
            [
              6.0675889,
              51.2893412
            ],
            [
              6.0683838,
              51.2899123
            ],
            [
              6.0687767,
              51.2902818
            ],
            [
              6.06905,
              51.2905136
            ],
            [
              6.0693277,
              51.2908037
            ],
            [
              6.0699747,
              51.2914309
            ],
            [
              6.0700343,
              51.291523
            ],
            [
              6.0705004,
              51.2924446
            ],
            [
              6.070568,
              51.2926128
            ],
            [
              6.0705925,
              51.2927113
            ],
            [
              6.0705821,
              51.2928054
            ],
            [
              6.0707708,
              51.2928453
            ],
            [
              6.0710508,
              51.2930794
            ],
            [
              6.070891,
              51.2936769
            ],
            [
              6.0775966,
              51.2952584
            ],
            [
              6.0805149,
              51.2961479
            ],
            [
              6.0812274,
              51.2963935
            ],
            [
              6.0836425,
              51.297053
            ],
            [
              6.0847172,
              51.2974544
            ],
            [
              6.0855717,
              51.2966465
            ],
            [
              6.0856457,
              51.2965646
            ],
            [
              6.0856922,
              51.2965386
            ],
            [
              6.0857671,
              51.2965417
            ],
            [
              6.0858433,
              51.2965824
            ],
            [
              6.0859091,
              51.2966588
            ],
            [
              6.0859496,
              51.2966402
            ],
            [
              6.085988,
              51.2965848
            ],
            [
              6.086105,
              51.2965377
            ],
            [
              6.0861435,
              51.2964998
            ],
            [
              6.0861625,
              51.2964421
            ],
            [
              6.0861445,
              51.2964165
            ],
            [
              6.085906,
              51.2962965
            ],
            [
              6.0857676,
              51.2962652
            ],
            [
              6.0857432,
              51.2962334
            ],
            [
              6.0857471,
              51.2962049
            ],
            [
              6.0858368,
              51.2961205
            ],
            [
              6.0859403,
              51.2960796
            ],
            [
              6.0859705,
              51.2960731
            ],
            [
              6.0860224,
              51.2960799
            ],
            [
              6.086116,
              51.296147
            ],
            [
              6.0861496,
              51.296156
            ],
            [
              6.0862231,
              51.2961235
            ],
            [
              6.0862718,
              51.2960735
            ],
            [
              6.086296,
              51.296033
            ],
            [
              6.0862721,
              51.2960065
            ],
            [
              6.086225,
              51.2960116
            ],
            [
              6.0861204,
              51.2960555
            ],
            [
              6.0860877,
              51.2960571
            ],
            [
              6.0861158,
              51.2960003
            ],
            [
              6.0860958,
              51.2959751
            ],
            [
              6.0859932,
              51.2959071
            ],
            [
              6.085977,
              51.2958657
            ],
            [
              6.0860114,
              51.2958114
            ],
            [
              6.0861028,
              51.2958494
            ],
            [
              6.0861544,
              51.2958272
            ],
            [
              6.0861411,
              51.2957588
            ],
            [
              6.0861955,
              51.295657
            ],
            [
              6.0863434,
              51.2954891
            ],
            [
              6.0864725,
              51.2954884
            ],
            [
              6.0865569,
              51.2954603
            ],
            [
              6.0866298,
              51.2953248
            ],
            [
              6.0866654,
              51.295287
            ],
            [
              6.0866972,
              51.2952703
            ],
            [
              6.0867212,
              51.2952657
            ],
            [
              6.0869367,
              51.2952241
            ],
            [
              6.087076,
              51.2951746
            ],
            [
              6.0872356,
              51.2951037
            ],
            [
              6.0874326,
              51.2950418
            ],
            [
              6.0875337,
              51.2950582
            ],
            [
              6.0876768,
              51.2951225
            ],
            [
              6.0877577,
              51.2951472
            ],
            [
              6.087907,
              51.2951641
            ],
            [
              6.0879541,
              51.2951783
            ],
            [
              6.0880204,
              51.2952707
            ],
            [
              6.0880969,
              51.2952928
            ],
            [
              6.0881317,
              51.2952797
            ],
            [
              6.0881613,
              51.2952356
            ],
            [
              6.0881417,
              51.2952103
            ],
            [
              6.0880635,
              51.2951718
            ],
            [
              6.0880351,
              51.2951447
            ],
            [
              6.0880359,
              51.2950932
            ],
            [
              6.0881486,
              51.2950652
            ],
            [
              6.0883187,
              51.2950928
            ],
            [
              6.0884809,
              51.2950763
            ],
            [
              6.0885904,
              51.2951541
            ],
            [
              6.0886183,
              51.2951612
            ],
            [
              6.0887495,
              51.2951481
            ],
            [
              6.0887963,
              51.2951504
            ],
            [
              6.0888302,
              51.2951647
            ],
            [
              6.0888651,
              51.2952182
            ],
            [
              6.0888285,
              51.2952779
            ],
            [
              6.0888391,
              51.2952941
            ],
            [
              6.0888713,
              51.2953002
            ],
            [
              6.0889193,
              51.2952907
            ],
            [
              6.0890088,
              51.2952406
            ],
            [
              6.0891355,
              51.295223
            ],
            [
              6.0891859,
              51.2951939
            ],
            [
              6.0893422,
              51.2951901
            ],
            [
              6.0894375,
              51.2951442
            ],
            [
              6.089578,
              51.2950937
            ],
            [
              6.0895502,
              51.2950301
            ],
            [
              6.0895675,
              51.2950208
            ],
            [
              6.0899446,
              51.2949071
            ],
            [
              6.0903185,
              51.2949083
            ],
            [
              6.0904386,
              51.2949002
            ],
            [
              6.0905199,
              51.2948776
            ],
            [
              6.0905486,
              51.2948564
            ],
            [
              6.0905767,
              51.2947664
            ],
            [
              6.0906039,
              51.2947434
            ],
            [
              6.0906925,
              51.2947001
            ],
            [
              6.090705,
              51.2946735
            ],
            [
              6.0906957,
              51.2946094
            ],
            [
              6.0907047,
              51.2945793
            ],
            [
              6.0907682,
              51.2945239
            ],
            [
              6.0908086,
              51.2945016
            ],
            [
              6.0908392,
              51.2944995
            ],
            [
              6.091018,
              51.2945873
            ],
            [
              6.0912079,
              51.2947116
            ],
            [
              6.0912373,
              51.2947213
            ],
            [
              6.0913961,
              51.2947035
            ],
            [
              6.0916621,
              51.2948316
            ],
            [
              6.0917041,
              51.2948805
            ],
            [
              6.0917137,
              51.2949789
            ],
            [
              6.0917289,
              51.2950025
            ],
            [
              6.0917809,
              51.2950422
            ],
            [
              6.0918919,
              51.2951005
            ],
            [
              6.0919959,
              51.2951789
            ],
            [
              6.0920431,
              51.2951967
            ],
            [
              6.0921386,
              51.2952178
            ],
            [
              6.0922945,
              51.2951977
            ],
            [
              6.0924081,
              51.2952117
            ],
            [
              6.0924659,
              51.295235
            ],
            [
              6.0926732,
              51.295385
            ],
            [
              6.0930095,
              51.2954093
            ],
            [
              6.0932277,
              51.2954406
            ],
            [
              6.0933691,
              51.295442
            ],
            [
              6.0934947,
              51.2955165
            ],
            [
              6.0935535,
              51.2955333
            ],
            [
              6.0935957,
              51.2955265
            ],
            [
              6.0936479,
              51.2954486
            ],
            [
              6.09363,
              51.2954305
            ],
            [
              6.0936525,
              51.2953956
            ],
            [
              6.0937567,
              51.2953819
            ],
            [
              6.0939026,
              51.2953338
            ],
            [
              6.094063,
              51.2951871
            ],
            [
              6.0941979,
              51.2951406
            ],
            [
              6.0942835,
              51.2951706
            ],
            [
              6.0943526,
              51.2951234
            ],
            [
              6.0945823,
              51.2947381
            ],
            [
              6.0947184,
              51.2945645
            ],
            [
              6.0949307,
              51.2945653
            ],
            [
              6.095077,
              51.2945274
            ],
            [
              6.0951844,
              51.2944624
            ],
            [
              6.0953858,
              51.2943035
            ],
            [
              6.0956638,
              51.2941802
            ],
            [
              6.0957509,
              51.2941162
            ],
            [
              6.0957618,
              51.294123
            ],
            [
              6.097316,
              51.2929918
            ],
            [
              6.1012757,
              51.2900706
            ],
            [
              6.1031524,
              51.2887004
            ],
            [
              6.1070086,
              51.2914693
            ],
            [
              6.1090266,
              51.2911827
            ],
            [
              6.1144621,
              51.2891753
            ],
            [
              6.114546,
              51.2888065
            ],
            [
              6.1200712,
              51.2851045
            ],
            [
              6.1201343,
              51.2849991
            ],
            [
              6.1227524,
              51.2806272
            ],
            [
              6.1245596,
              51.2799147
            ],
            [
              6.1245051,
              51.2784369
            ],
            [
              6.1245366,
              51.2775411
            ],
            [
              6.1245005,
              51.277061
            ],
            [
              6.124576,
              51.2772066
            ],
            [
              6.1247564,
              51.2775489
            ],
            [
              6.1246202,
              51.2760535
            ],
            [
              6.1245525,
              51.2753087
            ],
            [
              6.1244995,
              51.2747284
            ],
            [
              6.1243865,
              51.2746485
            ],
            [
              6.1225793,
              51.2733857
            ],
            [
              6.1202162,
              51.2717328
            ],
            [
              6.1198441,
              51.2714719
            ],
            [
              6.1197988,
              51.2714402
            ],
            [
              6.1181735,
              51.2703044
            ],
            [
              6.1176536,
              51.269941
            ],
            [
              6.1168677,
              51.2693918
            ],
            [
              6.1160281,
              51.2688067
            ],
            [
              6.1159059,
              51.2687116
            ],
            [
              6.1157956,
              51.2686428
            ],
            [
              6.1139684,
              51.2673694
            ],
            [
              6.1125289,
              51.2663613
            ],
            [
              6.1124744,
              51.2663232
            ],
            [
              6.1120034,
              51.2659939
            ],
            [
              6.1118628,
              51.2658976
            ],
            [
              6.1118277,
              51.2658739
            ],
            [
              6.1114367,
              51.2655987
            ],
            [
              6.1099347,
              51.2645489
            ],
            [
              6.1094985,
              51.264246
            ],
            [
              6.1079623,
              51.2631731
            ],
            [
              6.1071736,
              51.262622
            ],
            [
              6.1053062,
              51.2613237
            ],
            [
              6.1044906,
              51.2607566
            ],
            [
              6.1039583,
              51.260383
            ],
            [
              6.1034281,
              51.2600125
            ],
            [
              6.1033437,
              51.259958
            ],
            [
              6.1032987,
              51.2599268
            ],
            [
              6.1032095,
              51.2598648
            ],
            [
              6.1031656,
              51.2598342
            ],
            [
              6.1025151,
              51.2593817
            ],
            [
              6.1022137,
              51.259172
            ],
            [
              6.10193,
              51.2589746
            ],
            [
              6.1017801,
              51.2588717
            ],
            [
              6.1007737,
              51.2581701
            ],
            [
              6.100711,
              51.2581264
            ],
            [
              6.0991136,
              51.2570171
            ],
            [
              6.0985575,
              51.256628
            ],
            [
              6.0984997,
              51.2565878
            ],
            [
              6.0976412,
              51.2559904
            ],
            [
              6.0969577,
              51.2555147
            ],
            [
              6.0964361,
              51.2551549
            ],
            [
              6.0963333,
              51.2550823
            ],
            [
              6.0950391,
              51.2541829
            ],
            [
              6.0950309,
              51.2541772
            ],
            [
              6.0947104,
              51.2539546
            ],
            [
              6.0945928,
              51.2538729
            ],
            [
              6.0932407,
              51.2529304
            ],
            [
              6.0926267,
              51.2525047
            ],
            [
              6.0920767,
              51.2521198
            ],
            [
              6.0920174,
              51.2520785
            ],
            [
              6.0913257,
              51.251597
            ],
            [
              6.0912674,
              51.2515564
            ],
            [
              6.0905651,
              51.2510699
            ],
            [
              6.0904785,
              51.2510073
            ],
            [
              6.0904132,
              51.2509619
            ],
            [
              6.0893275,
              51.2502063
            ],
            [
              6.0892517,
              51.2501536
            ],
            [
              6.0886157,
              51.249711
            ],
            [
              6.0881735,
              51.2494032
            ],
            [
              6.0881268,
              51.2493728
            ],
            [
              6.086706,
              51.248382
            ],
            [
              6.0866449,
              51.2483395
            ],
            [
              6.0856437,
              51.2476428
            ],
            [
              6.0856172,
              51.2476261
            ],
            [
              6.0823724,
              51.2463572
            ],
            [
              6.0791037,
              51.2450785
            ],
            [
              6.0758553,
              51.2438079
            ],
            [
              6.0738401,
              51.2430194
            ],
            [
              6.0726534,
              51.2425555
            ],
            [
              6.0725355,
              51.2425981
            ],
            [
              6.0705089,
              51.2433886
            ],
            [
              6.0702756,
              51.2434849
            ],
            [
              6.0701713,
              51.2435453
            ],
            [
              6.0700008,
              51.2435756
            ],
            [
              6.0652815,
              51.2454264
            ],
            [
              6.0632511,
              51.2462848
            ],
            [
              6.0629587,
              51.2464207
            ],
            [
              6.0629611,
              51.2463127
            ],
            [
              6.0627585,
              51.2464171
            ],
            [
              6.0627314,
              51.2464447
            ],
            [
              6.0576615,
              51.2497249
            ],
            [
              6.0544951,
              51.2518282
            ],
            [
              6.0545361,
              51.2518532
            ],
            [
              6.0545021,
              51.2518729
            ],
            [
              6.0541836,
              51.2520445
            ],
            [
              6.0540438,
              51.2520868
            ],
            [
              6.0533687,
              51.2522462
            ],
            [
              6.0524709,
              51.2524276
            ],
            [
              6.0521495,
              51.2524813
            ],
            [
              6.051522,
              51.2525004
            ],
            [
              6.0513982,
              51.2525115
            ],
            [
              6.0513323,
              51.2525275
            ],
            [
              6.0512573,
              51.2524812
            ],
            [
              6.0507918,
              51.2522817
            ],
            [
              6.0504922,
              51.2521279
            ],
            [
              6.0495597,
              51.2516304
            ],
            [
              6.0489848,
              51.2512967
            ],
            [
              6.0468916,
              51.2500018
            ],
            [
              6.0462751,
              51.2495334
            ],
            [
              6.0457395,
              51.2490806
            ],
            [
              6.0443173,
              51.2479381
            ],
            [
              6.0434242,
              51.2472387
            ],
            [
              6.0432665,
              51.2471206
            ],
            [
              6.0431191,
              51.2470501
            ],
            [
              6.0429517,
              51.247002
            ],
            [
              6.0402046,
              51.2464727
            ],
            [
              6.0383626,
              51.2461037
            ],
            [
              6.0379939,
              51.2462296
            ],
            [
              6.0372841,
              51.2464905
            ],
            [
              6.0370078,
              51.2465667
            ],
            [
              6.0365865,
              51.2466526
            ],
            [
              6.0355968,
              51.2467411
            ],
            [
              6.0338943,
              51.2468586
            ],
            [
              6.0325215,
              51.2469903
            ],
            [
              6.032217,
              51.2469427
            ],
            [
              6.0299998,
              51.2463326
            ],
            [
              6.0295366,
              51.2461868
            ],
            [
              6.0279636,
              51.2456043
            ],
            [
              6.0278562,
              51.2455472
            ],
            [
              6.027466,
              51.2455554
            ],
            [
              6.0273741,
              51.245591
            ],
            [
              6.0274011,
              51.2456323
            ],
            [
              6.0274029,
              51.2457567
            ],
            [
              6.0273525,
              51.2458329
            ],
            [
              6.0272475,
              51.2458749
            ],
            [
              6.0271145,
              51.2458993
            ],
            [
              6.027036,
              51.2458677
            ],
            [
              6.026835,
              51.2457516
            ],
            [
              6.0267291,
              51.2457356
            ],
            [
              6.0266378,
              51.2457371
            ],
            [
              6.026546,
              51.245779
            ],
            [
              6.0263758,
              51.245896
            ],
            [
              6.0263358,
              51.2459452
            ],
            [
              6.0263236,
              51.2460116
            ],
            [
              6.0263773,
              51.2460777
            ],
            [
              6.0264974,
              51.24616
            ],
            [
              6.0265513,
              51.2462343
            ],
            [
              6.0265387,
              51.2462759
            ],
            [
              6.0261056,
              51.24642
            ],
            [
              6.0260663,
              51.2464451
            ],
            [
              6.0260526,
              51.2464694
            ],
            [
              6.0260666,
              51.2465274
            ],
            [
              6.0261201,
              51.2465686
            ],
            [
              6.0264257,
              51.2466913
            ],
            [
              6.0263999,
              51.246733
            ],
            [
              6.0263479,
              51.2467504
            ],
            [
              6.0262424,
              51.2467593
            ],
            [
              6.0260315,
              51.2468019
            ],
            [
              6.0259793,
              51.2468436
            ],
            [
              6.0259791,
              51.2468763
            ],
            [
              6.0260062,
              51.2469259
            ],
            [
              6.0261269,
              51.2470579
            ],
            [
              6.0261681,
              51.2471328
            ],
            [
              6.026169,
              51.2472401
            ],
            [
              6.0261561,
              51.2472651
            ],
            [
              6.0260904,
              51.2472904
            ],
            [
              6.0260113,
              51.2472991
            ],
            [
              6.0256943,
              51.2472599
            ],
            [
              6.0255107,
              51.2473604
            ],
            [
              6.0253927,
              51.2474602
            ],
            [
              6.025314,
              51.2474693
            ],
            [
              6.0251165,
              51.2475201
            ],
            [
              6.0249582,
              51.2475376
            ],
            [
              6.024853,
              51.2475714
            ],
            [
              6.0248139,
              51.247613
            ],
            [
              6.0248276,
              51.2476791
            ],
            [
              6.0250272,
              51.2477775
            ],
            [
              6.0250541,
              51.2478105
            ],
            [
              6.0250286,
              51.2478441
            ],
            [
              6.0249758,
              51.2478773
            ],
            [
              6.0249102,
              51.2478862
            ],
            [
              6.0246856,
              51.2478875
            ],
            [
              6.02454,
              51.2478717
            ],
            [
              6.0244874,
              51.2478886
            ],
            [
              6.0244352,
              51.2479303
            ],
            [
              6.0243829,
              51.2480051
            ],
            [
              6.0243059,
              51.2481631
            ],
            [
              6.0242539,
              51.2482215
            ],
            [
              6.0241621,
              51.2482717
            ],
            [
              6.0240301,
              51.2482891
            ],
            [
              6.0239372,
              51.2482564
            ],
            [
              6.023697,
              51.2480918
            ],
            [
              6.0236176,
              51.2480592
            ],
            [
              6.0234987,
              51.2480598
            ],
            [
              6.0234199,
              51.2480934
            ],
            [
              6.0233676,
              51.2481352
            ],
            [
              6.02341,
              51.2483589
            ],
            [
              6.0233972,
              51.2483921
            ],
            [
              6.0233314,
              51.2484091
            ],
            [
              6.0228817,
              51.2483535
            ],
            [
              6.0228159,
              51.2483788
            ],
            [
              6.0228033,
              51.2484203
            ],
            [
              6.0227928,
              51.2486443
            ],
            [
              6.0227673,
              51.2487108
            ],
            [
              6.0225967,
              51.2487947
            ],
            [
              6.0225046,
              51.2488035
            ],
            [
              6.0222269,
              51.2487884
            ],
            [
              6.0221875,
              51.2488052
            ],
            [
              6.022109,
              51.2488886
            ],
            [
              6.0221127,
              51.2491541
            ],
            [
              6.0220999,
              51.2491873
            ],
            [
              6.0220605,
              51.2492041
            ],
            [
              6.0219946,
              51.2492127
            ],
            [
              6.0218095,
              51.2491888
            ],
            [
              6.021717,
              51.2491893
            ],
            [
              6.0216112,
              51.2492066
            ],
            [
              6.0215583,
              51.2492069
            ],
            [
              6.0212536,
              51.2491505
            ],
            [
              6.0211349,
              51.249151
            ],
            [
              6.0210693,
              51.2491845
            ],
            [
              6.0210569,
              51.2492426
            ],
            [
              6.0210583,
              51.2493672
            ],
            [
              6.0210195,
              51.2494255
            ],
            [
              6.0209676,
              51.2494754
            ],
            [
              6.0208623,
              51.2495091
            ],
            [
              6.0207829,
              51.249518
            ],
            [
              6.0206903,
              51.2495103
            ],
            [
              6.0206109,
              51.2494856
            ],
            [
              6.0205049,
              51.2494696
            ],
            [
              6.0203205,
              51.2495121
            ],
            [
              6.0201235,
              51.2496044
            ],
            [
              6.0197283,
              51.2496978
            ],
            [
              6.0196232,
              51.2497481
            ],
            [
              6.0195972,
              51.2497814
            ],
            [
              6.0195982,
              51.2498478
            ],
            [
              6.0196646,
              51.2498891
            ],
            [
              6.0197841,
              51.24993
            ],
            [
              6.0199034,
              51.2499542
            ],
            [
              6.0200753,
              51.2499616
            ],
            [
              6.0202344,
              51.2499939
            ],
            [
              6.0203408,
              51.250043
            ],
            [
              6.0204086,
              51.2501671
            ],
            [
              6.0203964,
              51.2502333
            ],
            [
              6.0203607,
              51.2503163
            ],
            [
              6.0203126,
              51.2503525
            ],
            [
              6.0200962,
              51.2504435
            ],
            [
              6.0199882,
              51.2505088
            ],
            [
              6.0198664,
              51.2506011
            ],
            [
              6.0197924,
              51.2506338
            ],
            [
              6.0197178,
              51.2506253
            ],
            [
              6.0195419,
              51.2505364
            ],
            [
              6.0194326,
              51.2504956
            ],
            [
              6.0193724,
              51.250496
            ],
            [
              6.0191556,
              51.250551
            ],
            [
              6.0190152,
              51.2505446
            ],
            [
              6.0187939,
              51.2504847
            ],
            [
              6.0186532,
              51.2504567
            ],
            [
              6.0184669,
              51.2504505
            ],
            [
              6.0183353,
              51.2504566
            ],
            [
              6.0179911,
              51.25041
            ],
            [
              6.0178537,
              51.2504197
            ],
            [
              6.0177254,
              51.2504563
            ],
            [
              6.0176002,
              51.2505163
            ],
            [
              6.0172806,
              51.2505953
            ],
            [
              6.0171324,
              51.2506482
            ],
            [
              6.0170151,
              51.2506578
            ],
            [
              6.0165896,
              51.2505768
            ],
            [
              6.0166468,
              51.2507809
            ],
            [
              6.0159985,
              51.2509112
            ],
            [
              6.0163421,
              51.2513166
            ],
            [
              6.0164496,
              51.2514656
            ],
            [
              6.0165453,
              51.2516037
            ],
            [
              6.0166601,
              51.251833
            ],
            [
              6.0167621,
              51.2523144
            ],
            [
              6.0167541,
              51.252519
            ],
            [
              6.0167212,
              51.2527878
            ],
            [
              6.0165541,
              51.2532001
            ],
            [
              6.0163859,
              51.2535522
            ],
            [
              6.0162616,
              51.2537486
            ],
            [
              6.0160825,
              51.2539766
            ],
            [
              6.0159027,
              51.2541624
            ],
            [
              6.0154704,
              51.2545401
            ],
            [
              6.014782,
              51.2550767
            ],
            [
              6.0145374,
              51.2552302
            ],
            [
              6.0143302,
              51.2553523
            ],
            [
              6.0140736,
              51.2554857
            ],
            [
              6.0138512,
              51.2555787
            ],
            [
              6.0132962,
              51.2557856
            ],
            [
              6.0123382,
              51.2560815
            ],
            [
              6.0119503,
              51.2561976
            ],
            [
              6.0108986,
              51.2564705
            ],
            [
              6.0101159,
              51.2566478
            ],
            [
              6.0095939,
              51.2567479
            ],
            [
              6.0084603,
              51.2570317
            ],
            [
              6.0078401,
              51.2572472
            ],
            [
              6.0072125,
              51.2575651
            ],
            [
              6.0067718,
              51.2578475
            ],
            [
              6.0065484,
              51.258007
            ],
            [
              6.006348,
              51.2581739
            ],
            [
              6.0060351,
              51.2584826
            ],
            [
              6.0058802,
              51.258683
            ]
          ]
        ]
      },
      "properties": {
        "type": "boundary",
        "gemeente": "Beesel"
      }
    }
  ]
}