{
  "type": "FeatureCollection",
  "metadata": {
    "gemeente": "Mook en Middelaar",
    "slug": "mook-en-middelaar",
    "generated_at": "2026-05-19T20:01:20.823104Z",
    "total_points": 8,
    "providers": [
      "Amazon",
      "DHL",
      "DPD",
      "PostNL",
      "VintedGo"
    ],
    "bounds": [
      5.873153296,
      51.75104598,
      5.885136130508426,
      51.7677792
    ]
  },
  "features": [
    {
      "type": "Feature",
      "geometry": {
        "type": "Point",
        "coordinates": [
          5.873153296,
          51.76726565
        ]
      },
      "properties": {
        "type": "pakketpunt",
        "locatieNaam": "Spar Molenhoek",
        "straatNaam": "Prinsenweg 13",
        "straatNr": "",
        "vervoerder": "Amazon",
        "puntType": "3p",
        "bezettingsgraad": 50,
        "latitude": 51.76726565,
        "longitude": 5.873153296,
        "canPickup": true,
        "canDropoff": false,
        "openingstijden": null
      }
    },
    {
      "type": "Feature",
      "geometry": {
        "type": "Point",
        "coordinates": [
          5.8740627,
          51.756759
        ]
      },
      "properties": {
        "type": "pakketpunt",
        "locatieNaam": "Pakketautomaat Total Mook",
        "straatNaam": "Rijksweg",
        "straatNr": "41-PS/75",
        "vervoerder": "DHL",
        "puntType": "packStation",
        "bezettingsgraad": 50,
        "latitude": 51.756759,
        "longitude": 5.8740627,
        "canPickup": true,
        "canDropoff": true,
        "openingstijden": {
          "ma": "00:00 - 23:59",
          "di": "00:00 - 23:59",
          "wo": "00:00 - 23:59",
          "do": "00:00 - 23:59",
          "vr": "00:00 - 23:59",
          "za": "00:00 - 23:59",
          "zo": "00:00 - 23:59"
        }
      }
    },
    {
      "type": "Feature",
      "geometry": {
        "type": "Point",
        "coordinates": [
          5.885136130508426,
          51.75118864056992
        ]
      },
      "properties": {
        "type": "pakketpunt",
        "locatieNaam": "Pakketautomaat PLUS Mook",
        "straatNaam": "Pr. Beatrixstraat",
        "straatNr": "13-PS/89",
        "vervoerder": "DHL",
        "puntType": "packStation",
        "bezettingsgraad": 50,
        "latitude": 51.75118864056992,
        "longitude": 5.885136130508426,
        "canPickup": true,
        "canDropoff": true,
        "openingstijden": {
          "ma": "08:00 - 20:00",
          "di": "08:00 - 20:00",
          "wo": "08:00 - 20:00",
          "do": "08:00 - 20:00",
          "vr": "08:00 - 20:00",
          "za": "08:00 - 20:00",
          "zo": "10:00 - 19:00"
        }
      }
    },
    {
      "type": "Feature",
      "geometry": {
        "type": "Point",
        "coordinates": [
          5.8740627,
          51.756759
        ]
      },
      "properties": {
        "type": "pakketpunt",
        "locatieNaam": "Pakketautomaat - De Buren - TotalEn",
        "straatNaam": "RIJKSWEG",
        "straatNr": "41",
        "vervoerder": "DPD",
        "puntType": "dpd_box",
        "bezettingsgraad": 50,
        "latitude": 51.756759,
        "longitude": 5.8740627,
        "canPickup": true,
        "canDropoff": true,
        "openingstijden": {
          "ma": "00:00 - 23:59",
          "di": "00:00 - 23:59",
          "wo": "00:00 - 23:59",
          "do": "00:00 - 23:59",
          "vr": "00:00 - 23:59",
          "za": "00:00 - 23:59",
          "zo": "00:00 - 23:59"
        }
      }
    },
    {
      "type": "Feature",
      "geometry": {
        "type": "Point",
        "coordinates": [
          5.884882765,
          51.75104598
        ]
      },
      "properties": {
        "type": "pakketpunt",
        "locatieNaam": "Pakket- en briefautomaat",
        "straatNaam": "Prinses Beatrixstraat",
        "straatNr": "13PBA",
        "vervoerder": "PostNL",
        "puntType": "automaat",
        "bezettingsgraad": 50,
        "latitude": 51.75104598,
        "longitude": 5.884882765,
        "canPickup": true,
        "canDropoff": true,
        "openingstijden": "00:00 - 23:59"
      }
    },
    {
      "type": "Feature",
      "geometry": {
        "type": "Point",
        "coordinates": [
          5.884781396,
          51.75104641
        ]
      },
      "properties": {
        "type": "pakketpunt",
        "locatieNaam": "Plusmarkt",
        "straatNaam": "Prinses Beatrixstraat",
        "straatNr": "13",
        "vervoerder": "PostNL",
        "puntType": "servicepunt",
        "bezettingsgraad": 50,
        "latitude": 51.75104641,
        "longitude": 5.884781396,
        "canPickup": true,
        "canDropoff": true,
        "openingstijden": "08:00 - 20:00 (Na 18:00 open; Zaterdag open; Zondag open)"
      }
    },
    {
      "type": "Feature",
      "geometry": {
        "type": "Point",
        "coordinates": [
          5.873153296,
          51.76726565
        ]
      },
      "properties": {
        "type": "pakketpunt",
        "locatieNaam": "Spar Molenhoek",
        "straatNaam": "Prinsenweg",
        "straatNr": "13",
        "vervoerder": "PostNL",
        "puntType": "servicepunt",
        "bezettingsgraad": 50,
        "latitude": 51.76726565,
        "longitude": 5.873153296,
        "canPickup": true,
        "canDropoff": true,
        "openingstijden": "08:00 - 20:00 (Na 18:00 open; Zaterdag open; Zondag open)"
      }
    },
    {
      "type": "Feature",
      "geometry": {
        "type": "Point",
        "coordinates": [
          5.8732588,
          51.7677792
        ]
      },
      "properties": {
        "type": "pakketpunt",
        "locatieNaam": "Tobacco Molenhoek",
        "straatNaam": "Prinsenweg 31",
        "straatNr": "",
        "vervoerder": "VintedGo",
        "puntType": "parcel_shop",
        "bezettingsgraad": 50,
        "latitude": 51.7677792,
        "longitude": 5.8732588,
        "canPickup": true,
        "canDropoff": true,
        "openingstijden": null
      }
    },
    {
      "type": "Feature",
      "geometry": {
        "type": "MultiPolygon",
        "coordinates": [
          [
            [
              [
                5.883904757275677,
                51.74840537231671
              ],
              [
                5.883491930195845,
                51.74847142127811
              ],
              [
                5.883091519274009,
                51.74856226748757
              ],
              [
                5.882707380127615,
                51.74867703619289
              ],
              [
                5.882343211771092,
                51.748814622286034
              ],
              [
                5.882002521009802,
                51.74897370093902
              ],
              [
                5.88168858868048,
                51.74915274035499
              ],
              [
                5.881404438062718,
                51.749350016511805
              ],
              [
                5.881152805765462,
                51.74956362975692
              ],
              [
                5.880936115368767,
                51.74979152309315
              ],
              [
                5.880756454074837,
                51.750031501980665
              ],
              [
                5.8806155525934605,
                51.75028125546368
              ],
              [
                5.880514768456151,
                51.75053837842007
              ],
              [
                5.880455072920366,
                51.75080039471822
              ],
              [
                5.8804370415907306,
                51.7510647810597
              ],
              [
                5.880460848848613,
                51.751328991277695
              ],
              [
                5.880526266144684,
                51.75159048085725
              ],
              [
                5.880632664172009,
                51.75184673144122
              ],
              [
                5.880779018899824,
                51.75209527508636
              ],
              [
                5.88096392141089,
                51.75233371803486
              ],
              [
                5.881185591448652,
                51.7525597637735
              ],
              [
                5.881441894544579,
                51.75277123515689
              ],
              [
                5.881730362561361,
                51.752966095382426
              ],
              [
                5.88204821745468,
                51.75314246761423
              ],
              [
                5.882392398024962,
                51.75329865306663
              ],
              [
                5.882606551416884,
                51.753377093087344
              ],
              [
                5.882747142750616,
                51.75344089081814
              ],
              [
                5.8831143363382505,
                51.75357538400844
              ],
              [
                5.883501004003517,
                51.75368689054316
              ],
              [
                5.8839034214519295,
                51.75377433638116
              ],
              [
                5.88431771261006,
                51.75383687923093
              ],
              [
                5.884739886976263,
                51.7538739166675
              ],
              [
                5.88516587807644,
                51.75388509193847
              ],
              [
                5.88559158265347,
                51.753870297401654
              ],
              [
                5.886012900211865,
                51.753829675562784
              ],
              [
                5.8864257725357705,
                51.75376361770184
              ],
              [
                5.886826222798604,
                51.75367276010231
              ],
              [
                5.887210393886686,
                51.75355797791922
              ],
              [
                5.88757458556682,
                51.75342037674508
              ],
              [
                5.887915290139081,
                51.753261281955766
              ],
              [
                5.8882292262307585,
                51.753082225938606
              ],
              [
                5.88851337040549,
                51.752884933326456
              ],
              [
                5.888764986282936,
                51.75267130437965
              ],
              [
                5.888981650888398,
                51.75244339667685
              ],
              [
                5.889161277978779,
                51.75220340529139
              ],
              [
                5.8893021381205894,
                51.7519536416437
              ],
              [
                5.889402875327125,
                51.75169651123449
              ],
              [
                5.889462520095316,
                51.75143449047322
              ],
              [
                5.889480498717546,
                51.751170102824766
              ],
              [
                5.889456638779694,
                51.75090589450479
              ],
              [
                5.889391170793544,
                51.75064440995762
              ],
              [
                5.8892847259488645,
                51.75038816735286
              ],
              [
                5.889138330007914,
                51.75013963433671
              ],
              [
                5.888953393402193,
                51.74990120427131
              ],
              [
                5.888731697627756,
                51.749675173191235
              ],
              [
                5.8884753780709325,
                51.749463717698006
              ],
              [
                5.888186903430539,
                51.749268874006106
              ],
              [
                5.887950772700819,
                51.74913786023317
              ],
              [
                5.887933539098321,
                51.74912621999907
              ],
              [
                5.887615689596043,
                51.74894986364195
              ],
              [
                5.887271524208583,
                51.748793693432376
              ],
              [
                5.88690435721311,
                51.74865921315958
              ],
              [
                5.886517724273144,
                51.74854771774474
              ],
              [
                5.886115348401841,
                51.74846028077739
              ],
              [
                5.8857011041255305,
                51.748397744183144
              ],
              [
                5.88527898019194,
                51.748360710120515
              ],
              [
                5.884853041181386,
                51.74834953518601
              ],
              [
                5.884802384875529,
                51.74835129561721
              ],
              [
                5.884751678233443,
                51.748349965152535
              ],
              [
                5.884326025403256,
                51.74836475658076
              ],
              [
                5.883904757275677,
                51.74840537231671
              ]
            ]
          ],
          [
            [
              [
                5.878212004520614,
                51.755958918280314
              ],
              [
                5.878065651317897,
                51.755710371533524
              ],
              [
                5.8778807502097346,
                51.755471924099865
              ],
              [
                5.877659082350647,
                51.75524587218106
              ],
              [
                5.8774027828584545,
                51.755034392579454
              ],
              [
                5.8771143202390395,
                51.754839521741566
              ],
              [
                5.876796472605545,
                51.75466313615475
              ],
              [
                5.876452300921308,
                51.75450693428401
              ],
              [
                5.876085119524313,
                51.75437242022351
              ],
              [
                5.875698464216885,
                51.75426088921962
              ],
              [
                5.875296058227651,
                51.75417341520463
              ],
              [
                5.874881776372978,
                51.754110840460804
              ],
              [
                5.8744596077624145,
                51.754073767513994
              ],
              [
                5.874033617406414,
                51.75406255333507
              ],
              [
                5.873607907095087,
                51.75407730590459
              ],
              [
                5.873186575923784,
                51.754117883173265
              ],
              [
                5.87277368084452,
                51.75418389442925
              ],
              [
                5.8723731976221005,
                51.75427470405816
              ],
              [
                5.871988982569947,
                51.75438943766012
              ],
              [
                5.871624735433167,
                51.754526990465045
              ],
              [
                5.871283963775509,
                51.7546860379656
              ],
              [
                5.870969949212481,
                51.75486504866486
              ],
              [
                5.870685715815369,
                51.75506229881737
              ],
              [
                5.870434000990098,
                51.75527588902098
              ],
              [
                5.870217229111354,
                51.75550376250052
              ],
              [
                5.8700374881659325,
                51.75574372490731
              ],
              [
                5.869896509630661,
                51.755993465444575
              ],
              [
                5.869795651779141,
                51.75625057911482
              ],
              [
                5.869735886578806,
                51.756512589875925
              ],
              [
                5.869717790305337,
                51.756776974483
              ],
              [
                5.869741537965731,
                51.757041186785955
              ],
              [
                5.869806901584857,
                51.75730268224975
              ],
              [
                5.869913252373004,
                51.757558942460854
              ],
              [
                5.870059566754646,
                51.75780749938315
              ],
              [
                5.870244436201429,
                51.758045959131174
              ],
              [
                5.870466080775556,
                51.75827202502981
              ],
              [
                5.8707223662540375,
                51.75848351973963
              ],
              [
                5.871010824669531,
                51.75867840623339
              ],
              [
                5.871328678070447,
                51.75885480742218
              ],
              [
                5.87167286527181,
                51.75901102424136
              ],
              [
                5.872040071339322,
                51.759145552022396
              ],
              [
                5.872426759522575,
                51.75925709499152
              ],
              [
                5.872829205329558,
                51.7593445787567
              ],
              [
                5.873243532413718,
                51.75940716066099
              ],
              [
                5.873665749927367,
                51.759444237903345
              ],
              [
                5.874091790980737,
                51.75945545334775
              ],
              [
                5.874517551835439,
                51.75944069896514
              ],
              [
                5.8749389314537686,
                51.759400116874446
              ],
              [
                5.875351871021926,
                51.75933409797273
              ],
              [
                5.875752393065418,
                51.759243278168285
              ],
              [
                5.8761366397789505,
                51.75912853225202
              ],
              [
                5.876500910200688,
                51.7589909654672
              ],
              [
                5.876841695872056,
                51.75883190285848
              ],
              [
                5.877155714639004,
                51.75865287650334
              ],
              [
                5.877439942268697,
                51.758455610748854
              ],
              [
                5.877691641576843,
                51.75824200559678
              ],
              [
                5.877908388785072,
                51.75801411839676
              ],
              [
                5.878088096854664,
                51.75777414402469
              ],
              [
                5.87822903557219,
                51.75752439373724
              ],
              [
                5.87832984819422,
                51.757267272906546
              ],
              [
                5.878389564491467,
                51.757005257849876
              ],
              [
                5.8784076100675735,
                51.75674087197732
              ],
              [
                5.878383811863806,
                51.75647666148747
              ],
              [
                5.878318399797651,
                51.75621517084571
              ],
              [
                5.878212004520614,
                51.755958918280314
              ]
            ]
          ],
          [
            [
              [
                5.877303581946863,
                51.76646560013676
              ],
              [
                5.877157199483693,
                51.76621705258246
              ],
              [
                5.87697225994656,
                51.76597860404241
              ],
              [
                5.876750544860344,
                51.765752550728955
              ],
              [
                5.876494189797876,
                51.76554106945779
              ],
              [
                5.876205663800348,
                51.76534619669156
              ],
              [
                5.875887745591318,
                51.765169808936044
              ],
              [
                5.875543496813778,
                51.76501360467709
              ],
              [
                5.8751762325480685,
                51.7648790880318
              ],
              [
                5.874789489394412,
                51.76476755427145
              ],
              [
                5.8743869914272,
                51.764680077354846
              ],
              [
                5.873972614348306,
                51.76461749959206
              ],
              [
                5.873550348184003,
                51.76458042353803
              ],
              [
                5.873124258883859,
                51.76456920619356
              ],
              [
                5.872698449190488,
                51.764583955569634
              ],
              [
                5.872277019155953,
                51.764624529647705
              ],
              [
                5.871864026683988,
                51.76469053774676
              ],
              [
                5.871463448476989,
                51.764781344282724
              ],
              [
                5.871079141762824,
                51.7648960748856
              ],
              [
                5.87071480716909,
                51.76503362481428
              ],
              [
                5.870373953101593,
                51.765192669588956
              ],
              [
                5.870059861969371,
                51.765371677739296
              ],
              [
                5.869775558581053,
                51.76556892554422
              ],
              [
                5.86952378101665,
                51.76578251362432
              ],
              [
                5.869306954255148,
                51.76601038522494
              ],
              [
                5.869127166812074,
                51.76625034601556
              ],
              [
                5.868986150612291,
                51.766500085214965
              ],
              [
                5.868885264292427,
                51.76675719783858
              ],
              [
                5.868825480094419,
                51.76701920785446
              ],
              [
                5.868807374477272,
                51.76728359202478
              ],
              [
                5.868831122538369,
                51.767547804203865
              ],
              [
                5.868896496299102,
                51.767809299857745
              ],
              [
                5.8689187378940115,
                51.76786288303782
              ],
              [
                5.868936578042782,
                51.76806135813782
              ],
              [
                5.869001953167891,
                51.76832285371617
              ],
              [
                5.86910832555959,
                51.768579114316736
              ],
              [
                5.869254671434679,
                51.768827671899786
              ],
              [
                5.869439581961822,
                51.76906613257337
              ],
              [
                5.8696612768078715,
                51.769292199653414
              ],
              [
                5.869917621265898,
                51.7695036957891
              ],
              [
                5.870206146800683,
                51.76969858393934
              ],
              [
                5.870524074814292,
                51.769874986999284
              ],
              [
                5.870868343403164,
                51.77003120588622
              ],
              [
                5.871235636849087,
                51.770165735911554
              ],
              [
                5.8716224175599665,
                51.77027728127996
              ],
              [
                5.872024960152443,
                51.77036476757618
              ],
              [
                5.87243938734756,
                51.770427352118915
              ],
              [
                5.872861707333145,
                51.77046443208163
              ],
              [
                5.873287852232177,
                51.77047565030211
              ],
              [
                5.873713717305771,
                51.77046089872455
              ],
              [
                5.8741352005121215,
                51.77042031944083
              ],
              [
                5.87454824203942,
                51.770354303321014
              ],
              [
                5.874948863430883,
                51.7702634862467
              ],
              [
                5.875333205924116,
                51.77014874298238
              ],
              [
                5.875697567634598,
                51.770011178745904
              ],
              [
                5.876038439224391,
                51.76985211855749
              ],
              [
                5.876352537711872,
                51.76967309447121
              ],
              [
                5.876636838096399,
                51.769475830812496
              ],
              [
                5.8768886024930405,
                51.7692622275629
              ],
              [
                5.877105406496699,
                51.76903434205383
              ],
              [
                5.877285162521864,
                51.76879436914489
              ],
              [
                5.877426139893523,
                51.76854462007876
              ],
              [
                5.877526981496303,
                51.76828750021587
              ],
              [
                5.8775867168221625,
                51.76802548586415
              ],
              [
                5.877604771291888,
                51.767761100426895
              ],
              [
                5.877580971761504,
                51.76749689009863
              ],
              [
                5.877515548161685,
                51.76723539934304
              ],
              [
                5.877493296678208,
                51.76718181780295
              ],
              [
                5.87747541926796,
                51.76698334403422
              ],
              [
                5.877409997033732,
                51.76672185320299
              ],
              [
                5.877303581946863,
                51.76646560013676
              ]
            ]
          ]
        ]
      },
      "properties": {
        "type": "buffer_union_300m",
        "buffer_m": 300
      }
    },
    {
      "type": "Feature",
      "geometry": {
        "type": "MultiPolygon",
        "coordinates": [
          [
            [
              [
                5.8836125665301084,
                51.74752502351887
              ],
              [
                5.883062140304026,
                51.74761308710101
              ],
              [
                5.882528267695917,
                51.7477342131186
              ],
              [
                5.882016089197797,
                51.74788723532235
              ],
              [
                5.881530536558738,
                51.74807068034003
              ],
              [
                5.88107628532056,
                51.748282781853646
              ],
              [
                5.880657709812686,
                51.74852149759638
              ],
              [
                5.880278841038727,
                51.74878452900575
              ],
              [
                5.879943327859872,
                51.74906934334485
              ],
              [
                5.879654401848667,
                51.7493731980784
              ],
              [
                5.879414846151972,
                51.74969316727034
              ],
              [
                5.879226968663475,
                51.750026169748566
              ],
              [
                5.879092579765098,
                51.750368998766774
              ],
              [
                5.879012974852885,
                51.750718352877186
              ],
              [
                5.878988921817156,
                51.75107086771872
              ],
              [
                5.879020653599212,
                51.75142314841295
              ],
              [
                5.879107865898132,
                51.75177180225779
              ],
              [
                5.87924972005165,
                51.752113471402616
              ],
              [
                5.879444851065256,
                51.75244486519099
              ],
              [
                5.879691380714105,
                51.75276279185906
              ],
              [
                5.87998693559314,
                51.753064189283975
              ],
              [
                5.880328669943123,
                51.7533461544858
              ],
              [
                5.880713293033964,
                51.753605971598745
              ],
              [
                5.881137100842432,
                51.75384113804123
              ],
              [
                5.881596011719801,
                51.75404938863246
              ],
              [
                5.881810167298127,
                51.754127830098795
              ],
              [
                5.881950759850952,
                51.75419162877794
              ],
              [
                5.88244035678533,
                51.754370956079946
              ],
              [
                5.882955920979517,
                51.75451963411764
              ],
              [
                5.883492486426705,
                51.75463623073395
              ],
              [
                5.884044884688865,
                51.754719622790304
              ],
              [
                5.884607794710811,
                51.754769006992426
              ],
              [
                5.885175794109379,
                51.75478390763353
              ],
              [
                5.885743411442084,
                51.75476418118014
              ],
              [
                5.886305178949961,
                51.754710017655356
              ],
              [
                5.8868556852648295,
                51.754621938807105
              ],
              [
                5.88738962757139,
                51.75450079307879
              ],
              [
                5.887901862719984,
                51.75434774743062
              ],
              [
                5.888387456796132,
                51.75416427609118
              ],
              [
                5.888841732667958,
                51.75395214634779
              ],
              [
                5.889260315052396,
                51.753713401512634
              ],
              [
                5.889639172665335,
                51.753450341229815
              ],
              [
                5.889974657049166,
                51.753165499312985
              ],
              [
                5.8902635377037225,
                51.75286161932817
              ],
              [
                5.890503033182462,
                51.752541628156806
              ],
              [
                5.8906908378550105,
                51.75220860779494
              ],
              [
                5.890825144079255,
                51.7518657656601
              ],
              [
                5.890904659570757,
                51.75151640369255
              ],
              [
                5.890928619803638,
                51.75116388654876
              ],
              [
                5.890896795325264,
                51.750811609193676
              ],
              [
                5.890809493916147,
                51.75046296420412
              ],
              [
                5.890667557576141,
                51.75012130909833
              ],
              [
                5.890472354367899,
                51.74978993400585
              ],
              [
                5.890225765197954,
                51.74947202998932
              ],
              [
                5.8899301656644125,
                51.74917065832294
              ],
              [
                5.889588403147548,
                51.74888872102263
              ],
              [
                5.889203769365137,
                51.74862893291207
              ],
              [
                5.888967639044803,
                51.74849792117801
              ],
              [
                5.8889504054254855,
                51.74848628109263
              ],
              [
                5.888526607375283,
                51.74825114274939
              ],
              [
                5.888067723643508,
                51.748042919124
              ],
              [
                5.887578173133716,
                51.747863615141235
              ],
              [
                5.887062669853178,
                51.74771495724549
              ],
              [
                5.886526177538684,
                51.747598376787494
              ],
              [
                5.885973861885404,
                51.74751499625135
              ],
              [
                5.885411040837536,
                51.74746561845414
              ],
              [
                5.88484313341811,
                51.74745071882131
              ],
              [
                5.884792478119909,
                51.74745247924709
              ],
              [
                5.884741772487369,
                51.7474511487767
              ],
              [
                5.884174246606814,
                51.74747087027681
              ],
              [
                5.8836125665301084,
                51.74752502351887
              ]
            ]
          ],
          [
            [
              [
                5.87959507251891,
                51.75569219051425
              ],
              [
                5.879399926289957,
                51.75536079711349
              ],
              [
                5.87915338444498,
                51.7550428699387
              ],
              [
                5.878857822126906,
                51.75474147048707
              ],
              [
                5.878516086358186,
                51.75445950104228
              ],
              [
                5.878131468599528,
                51.7541996767374
              ],
              [
                5.8777076730375635,
                51.75396449942189
              ],
              [
                5.877248780907401,
                51.753756233582465
              ],
              [
                5.876759211193792,
                51.753576884550434
              ],
              [
                5.876243678089148,
                51.75342817920387
              ],
              [
                5.875707145617588,
                51.75331154935032
              ],
              [
                5.875154779860982,
                51.75322811794951
              ],
              [
                5.874591899245931,
                51.75317868830814
              ],
              [
                5.874023923368876,
                51.75316373635084
              ],
              [
                5.873456320850513,
                51.7531834060406
              ],
              [
                5.872894556719829,
                51.753237507994136
              ],
              [
                5.872344039832582,
                51.7533255213033
              ],
              [
                5.871810070828699,
                51.75344659854761
              ],
              [
                5.8712977911279545,
                51.753599573947355
              ],
              [
                5.870812133453484,
                51.75378297458099
              ],
              [
                5.8703577743580775,
                51.753995034557946
              ],
              [
                5.869939089209359,
                51.754233712011455
              ],
              [
                5.869560110066371,
                51.754496708747816
              ],
              [
                5.869224486852816,
                51.75478149236406
              ],
              [
                5.868935452200632,
                51.755085320620914
              ],
              [
                5.868695790302746,
                51.75540526783743
              ],
              [
                5.868507810075528,
                51.75573825305331
              ],
              [
                5.868373322890359,
                51.75608106968853
              ],
              [
                5.8682936250899695,
                51.756430416414894
              ],
              [
                5.868269485459485,
                51.75678292894246
              ],
              [
                5.868301137774508,
                51.7571352124153
              ],
              [
                5.868388278499857,
                51.757483874104736
              ],
              [
                5.868530069663049,
                51.75782555608469
              ],
              [
                5.868725146876761,
                51.75815696757527
              ],
              [
                5.868971632434839,
                51.75847491664217
              ],
              [
                5.869267153357431,
                51.758776340946895
              ],
              [
                5.86960886421289,
                51.75905833725067
              ],
              [
                5.869993474497911,
                51.759318189388246
              ],
              [
                5.8704172803130685,
                51.7595533944406
              ],
              [
                5.870876200029229,
                51.75976168685509
              ],
              [
                5.871365813601533,
                51.75994106027911
              ],
              [
                5.871881405152094,
                51.76008978689726
              ],
              [
                5.872418008410757,
                51.76020643408447
              ],
              [
                5.872970454575344,
                51.76028987821502
              ],
              [
                5.8735334221292135,
                51.76033931549285
              ],
              [
                5.874101488134922,
                51.760354269700024
              ],
              [
                5.874669180508171,
                51.76033459678693
              ],
              [
                5.8752310307669084,
                51.76028048626086
              ],
              [
                5.8757816267455185,
                51.76019245935932
              ],
              [
                5.876315664764643,
                51.76007136402517
              ],
              [
                5.876828000752285,
                51.75991836673333
              ],
              [
                5.877313699822241,
                51.75973494124657
              ],
              [
                5.877768083830904,
                51.75952285441056
              ],
              [
                5.87818677645326,
                51.759284149124404
              ],
              [
                5.878565745343055,
                51.75902112465123
              ],
              [
                5.878901340970608,
                51.75873631445994
              ],
              [
                5.879190331764097,
                51.7584324618111
              ],
              [
                5.8794299352160655,
                51.75811249332301
              ],
              [
                5.8796178446561775,
                51.75777949077343
              ],
              [
                5.87975225143337,
                51.75743666140848
              ],
              [
                5.879831862294945,
                51.757087307045694
              ],
              [
                5.879855911796779,
                51.75673479226829
              ],
              [
                5.879824169626867,
                51.756382512018725
              ],
              [
                5.879736942773465,
                51.7560338589018
              ],
              [
                5.87959507251891,
                51.75569219051425
              ]
            ]
          ],
          [
            [
              [
                5.878686977071183,
                51.76619888297677
              ],
              [
                5.8784917918234525,
                51.76586748849982
              ],
              [
                5.8782451987358195,
                51.7655495598504
              ],
              [
                5.8779495734451706,
                51.7652481585399
              ],
              [
                5.877607763580774,
                51.764966186869785
              ],
              [
                5.877223061317139,
                51.764706359994584
              ],
              [
                5.876799171654827,
                51.764471179788266
              ],
              [
                5.8763401767351455,
                51.76426291076536
              ],
              [
                5.875850496532577,
                51.76408355828779
              ],
              [
                5.875334846303306,
                51.76393484926665
              ],
              [
                5.874798191198995,
                51.763818215544816
              ],
              [
                5.874245698482009,
                51.763734780119144
              ],
              [
                5.8736826878010495,
                51.76368534633518
              ],
              [
                5.873114580004496,
                51.76367039015726
              ],
              [
                5.87254684498281,
                51.763690055589194
              ],
              [
                5.871984949040358,
                51.76374415328844
              ],
              [
                5.871434302301641,
                51.76383216238806
              ],
              [
                5.8709002066564935,
                51.763953235508
              ],
              [
                5.870387804743763,
                51.764106206908494
              ],
              [
                5.869902030463085,
                51.76428960370632
              ],
              [
                5.869447561489882,
                51.76450166004819
              ],
              [
                5.869028774249727,
                51.76474033410224
              ],
              [
                5.868649701784768,
                51.76500332770767
              ],
              [
                5.868313994917487,
                51.76528810849175
              ],
              [
                5.8680248870856335,
                51.76559193424265
              ],
              [
                5.8677851631872056,
                51.76591187930352
              ],
              [
                5.8675971327360905,
                51.76624486273498
              ],
              [
                5.867462607587875,
                51.76658767797427
              ],
              [
                5.867382884451502,
                51.766937023706625
              ],
              [
                5.867358732356761,
                51.767289535651734
              ],
              [
                5.867390385199984,
                51.76764181895938
              ],
              [
                5.867477539441598,
                51.76799048090238
              ],
              [
                5.8674819665861415,
                51.76800114735476
              ],
              [
                5.867495824538657,
                51.768155374204035
              ],
              [
                5.867582980599162,
                51.76850403604637
              ],
              [
                5.867724800561387,
                51.76884571854599
              ],
              [
                5.867919919761311,
                51.76917713091803
              ],
              [
                5.868166460089021,
                51.76949508121959
              ],
              [
                5.868462048037669,
                51.769796507100224
              ],
              [
                5.86880383753049,
                51.770078505305975
              ],
              [
                5.869188537307086,
                51.77033835965304
              ],
              [
                5.869612442606276,
                51.77057356720112
              ],
              [
                5.870071470840789,
                51.77078186237339
              ],
              [
                5.870561200920478,
                51.770961238790626
              ],
              [
                5.871076915845104,
                51.771109968608535
              ],
              [
                5.871613648155902,
                51.77122661917113
              ],
              [
                5.872166227807294,
                51.771310066820014
              ],
              [
                5.87272933199646,
                51.77135950772535
              ],
              [
                5.8732975364693765,
                51.771374465634096
              ],
              [
                5.87386536780751,
                51.771354796461054
              ],
              [
                5.874427356189759,
                51.77130068967746
              ],
              [
                5.874978088119604,
                51.77121266648483
              ],
              [
                5.875512258607734,
                51.77109157479032
              ],
              [
                5.876024722305828,
                51.77093858103379
              ],
              [
                5.876510543097278,
                51.77075515894419
              ],
              [
                5.876965041665869,
                51.77054307533445
              ],
              [
                5.877383840583076,
                51.77030437307266
              ],
              [
                5.877762906478873,
                51.77004135139291
              ],
              [
                5.878098588889417,
                51.76975654373743
              ],
              [
                5.878387655407304,
                51.76945269334237
              ],
              [
                5.878627322796137,
                51.76913272680445
              ],
              [
                5.878815283770287,
                51.768799725882694
              ],
              [
                5.878949729182941,
                51.76845689780766
              ],
              [
                5.879029365409956,
                51.76810754438442
              ],
              [
                5.879053426763624,
                51.767755030187324
              ],
              [
                5.879021682818534,
                51.76740275015316
              ],
              [
                5.878934440580761,
                51.76705409688469
              ],
              [
                5.878930010824895,
                51.7670434308671
              ],
              [
                5.878916114161022,
                51.7668892054012
              ],
              [
                5.878828873744313,
                51.7665405520319
              ],
              [
                5.878686977071183,
                51.76619888297677
              ]
            ]
          ]
        ]
      },
      "properties": {
        "type": "buffer_union_400m",
        "buffer_m": 400
      }
    },
    {
      "type": "Feature",
      "geometry": {
        "type": "Polygon",
        "coordinates": [
          [
            [
              5.864469,
              51.757682
            ],
            [
              5.864513,
              51.757672
            ],
            [
              5.864949,
              51.75756
            ],
            [
              5.865166,
              51.757503
            ],
            [
              5.86533,
              51.757454
            ],
            [
              5.865746,
              51.757323
            ],
            [
              5.866534,
              51.75708
            ],
            [
              5.866996,
              51.756919
            ],
            [
              5.867307,
              51.756814
            ],
            [
              5.868426,
              51.756405
            ],
            [
              5.869188,
              51.756116
            ],
            [
              5.870183,
              51.755666
            ],
            [
              5.87052,
              51.755485
            ],
            [
              5.871283,
              51.755076
            ],
            [
              5.871495,
              51.754964
            ],
            [
              5.871652,
              51.754877
            ],
            [
              5.872083,
              51.754693
            ],
            [
              5.872274,
              51.754606
            ],
            [
              5.872765,
              51.754356
            ],
            [
              5.873074,
              51.75419
            ],
            [
              5.873334,
              51.75405
            ],
            [
              5.874053,
              51.753659
            ],
            [
              5.874589,
              51.753361
            ],
            [
              5.874975,
              51.753139
            ],
            [
              5.875194,
              51.753011
            ],
            [
              5.875394,
              51.752895
            ],
            [
              5.876222,
              51.752399
            ],
            [
              5.876734,
              51.752093
            ],
            [
              5.877008,
              51.751897
            ],
            [
              5.877574,
              51.751493
            ],
            [
              5.878241,
              51.751019
            ],
            [
              5.879561,
              51.749914
            ],
            [
              5.879568,
              51.749902
            ],
            [
              5.87971,
              51.749668
            ],
            [
              5.87983,
              51.749472
            ],
            [
              5.880026,
              51.749158
            ],
            [
              5.880327,
              51.74855
            ],
            [
              5.880332,
              51.748474
            ],
            [
              5.880493,
              51.746971
            ],
            [
              5.88047,
              51.746113
            ],
            [
              5.880451,
              51.745424
            ],
            [
              5.880486,
              51.74517
            ],
            [
              5.880598,
              51.744357
            ],
            [
              5.881609,
              51.741546
            ],
            [
              5.882058,
              51.740669
            ],
            [
              5.883338,
              51.738164
            ],
            [
              5.883566,
              51.737557
            ],
            [
              5.883724,
              51.736875
            ],
            [
              5.883843,
              51.736168
            ],
            [
              5.883867,
              51.736023
            ],
            [
              5.884003,
              51.735315
            ],
            [
              5.884035,
              51.734685
            ],
            [
              5.884065,
              51.734044
            ],
            [
              5.884069,
              51.733973
            ],
            [
              5.884081,
              51.733919
            ],
            [
              5.884256,
              51.733168
            ],
            [
              5.884508,
              51.732003
            ],
            [
              5.884547,
              51.731707
            ],
            [
              5.884553,
              51.73167
            ],
            [
              5.884618,
              51.731288
            ],
            [
              5.884668,
              51.731085
            ],
            [
              5.884696,
              51.730944
            ],
            [
              5.884826,
              51.730531
            ],
            [
              5.885012,
              51.72993
            ],
            [
              5.885159,
              51.729605
            ],
            [
              5.885259,
              51.729146
            ],
            [
              5.885317,
              51.728744
            ],
            [
              5.885355,
              51.728482
            ],
            [
              5.885404,
              51.728314
            ],
            [
              5.886001,
              51.727212
            ],
            [
              5.886028,
              51.72717
            ],
            [
              5.886335,
              51.726695
            ],
            [
              5.886468,
              51.726505
            ],
            [
              5.886548,
              51.726389
            ],
            [
              5.886635,
              51.726266
            ],
            [
              5.886825,
              51.726089
            ],
            [
              5.887271,
              51.725718
            ],
            [
              5.887647,
              51.725398
            ],
            [
              5.887959,
              51.725192
            ],
            [
              5.88897,
              51.724528
            ],
            [
              5.890033,
              51.723865
            ],
            [
              5.890395,
              51.723663
            ],
            [
              5.891626,
              51.723043
            ],
            [
              5.892057,
              51.722825
            ],
            [
              5.892459,
              51.722648
            ],
            [
              5.893737,
              51.722084
            ],
            [
              5.893783,
              51.722064
            ],
            [
              5.89706,
              51.720887
            ],
            [
              5.898238,
              51.720543
            ],
            [
              5.899567,
              51.72019
            ],
            [
              5.900764,
              51.719939
            ],
            [
              5.902501,
              51.719562
            ],
            [
              5.90469,
              51.719088
            ],
            [
              5.906057,
              51.718764
            ],
            [
              5.906765,
              51.718632
            ],
            [
              5.907437,
              51.718508
            ],
            [
              5.908167,
              51.718407
            ],
            [
              5.909075,
              51.718281
            ],
            [
              5.910572,
              51.718074
            ],
            [
              5.912002,
              51.717877
            ],
            [
              5.913466,
              51.7178
            ],
            [
              5.917368,
              51.717709
            ],
            [
              5.918322,
              51.717692
            ],
            [
              5.91947,
              51.717672
            ],
            [
              5.919521,
              51.718034
            ],
            [
              5.91953,
              51.718102
            ],
            [
              5.919535,
              51.718114
            ],
            [
              5.919583,
              51.718394
            ],
            [
              5.919696,
              51.719021
            ],
            [
              5.9197,
              51.719043
            ],
            [
              5.920164,
              51.719841
            ],
            [
              5.920898,
              51.721091
            ],
            [
              5.920971,
              51.721212
            ],
            [
              5.920973,
              51.721217
            ],
            [
              5.921102,
              51.721439
            ],
            [
              5.92112,
              51.72147
            ],
            [
              5.921122,
              51.721472
            ],
            [
              5.921144,
              51.72151
            ],
            [
              5.921157,
              51.721532
            ],
            [
              5.92116,
              51.721538
            ],
            [
              5.921298,
              51.721774
            ],
            [
              5.921301,
              51.721779
            ],
            [
              5.921325,
              51.721821
            ],
            [
              5.921495,
              51.721931
            ],
            [
              5.921608,
              51.722004
            ],
            [
              5.921612,
              51.722007
            ],
            [
              5.921825,
              51.722144
            ],
            [
              5.922399,
              51.722515
            ],
            [
              5.922412,
              51.722523
            ],
            [
              5.922416,
              51.722526
            ],
            [
              5.922542,
              51.722607
            ],
            [
              5.922689,
              51.722702
            ],
            [
              5.922839,
              51.722798
            ],
            [
              5.922863,
              51.722814
            ],
            [
              5.923029,
              51.722922
            ],
            [
              5.923032,
              51.722924
            ],
            [
              5.923165,
              51.72301
            ],
            [
              5.923183,
              51.723022
            ],
            [
              5.923423,
              51.723179
            ],
            [
              5.924137,
              51.723645
            ],
            [
              5.924627,
              51.723964
            ],
            [
              5.924628,
              51.723965
            ],
            [
              5.925082,
              51.724261
            ],
            [
              5.925086,
              51.724263
            ],
            [
              5.925771,
              51.724709
            ],
            [
              5.925781,
              51.724715
            ],
            [
              5.925787,
              51.724719
            ],
            [
              5.925818,
              51.724745
            ],
            [
              5.92589,
              51.724807
            ],
            [
              5.925891,
              51.724808
            ],
            [
              5.925899,
              51.724815
            ],
            [
              5.926098,
              51.724986
            ],
            [
              5.926114,
              51.725001
            ],
            [
              5.926115,
              51.725001
            ],
            [
              5.926128,
              51.725012
            ],
            [
              5.926131,
              51.725014
            ],
            [
              5.926223,
              51.725094
            ],
            [
              5.926226,
              51.725096
            ],
            [
              5.926275,
              51.725137
            ],
            [
              5.926344,
              51.725196
            ],
            [
              5.926488,
              51.725318
            ],
            [
              5.926984,
              51.725748
            ],
            [
              5.92708,
              51.725815
            ],
            [
              5.927663,
              51.726254
            ],
            [
              5.927739,
              51.726313
            ],
            [
              5.9278,
              51.726369
            ],
            [
              5.927933,
              51.726498
            ],
            [
              5.927954,
              51.726518
            ],
            [
              5.928332,
              51.726883
            ],
            [
              5.928433,
              51.726981
            ],
            [
              5.928442,
              51.72699
            ],
            [
              5.928519,
              51.727067
            ],
            [
              5.928591,
              51.727145
            ],
            [
              5.928623,
              51.727182
            ],
            [
              5.929355,
              51.727999
            ],
            [
              5.929801,
              51.728515
            ],
            [
              5.929879,
              51.728605
            ],
            [
              5.929934,
              51.72867
            ],
            [
              5.930573,
              51.72941
            ],
            [
              5.930634,
              51.729518
            ],
            [
              5.931318,
              51.730297
            ],
            [
              5.9318,
              51.730848
            ],
            [
              5.932186,
              51.731288
            ],
            [
              5.93229,
              51.731398
            ],
            [
              5.932338,
              51.731458
            ],
            [
              5.932651,
              51.731846
            ],
            [
              5.933114,
              51.732421
            ],
            [
              5.933146,
              51.732461
            ],
            [
              5.933626,
              51.733057
            ],
            [
              5.933661,
              51.7331
            ],
            [
              5.933884,
              51.733377
            ],
            [
              5.934195,
              51.73372
            ],
            [
              5.934159,
              51.733857
            ],
            [
              5.934002,
              51.734461
            ],
            [
              5.933562,
              51.735865
            ],
            [
              5.933557,
              51.735946
            ],
            [
              5.933548,
              51.736092
            ],
            [
              5.933518,
              51.736477
            ],
            [
              5.933519,
              51.736588
            ],
            [
              5.933515,
              51.73664
            ],
            [
              5.933515,
              51.736651
            ],
            [
              5.933513,
              51.736672
            ],
            [
              5.933553,
              51.736941
            ],
            [
              5.933559,
              51.736989
            ],
            [
              5.933595,
              51.737248
            ],
            [
              5.9337,
              51.738009
            ],
            [
              5.933677,
              51.738162
            ],
            [
              5.933721,
              51.738166
            ],
            [
              5.933807,
              51.738172
            ],
            [
              5.933845,
              51.738433
            ],
            [
              5.933928,
              51.738603
            ],
            [
              5.934121,
              51.738808
            ],
            [
              5.934286,
              51.739059
            ],
            [
              5.934395,
              51.739242
            ],
            [
              5.934444,
              51.739402
            ],
            [
              5.934433,
              51.739583
            ],
            [
              5.934487,
              51.739699
            ],
            [
              5.934531,
              51.73974
            ],
            [
              5.934568,
              51.739772
            ],
            [
              5.934607,
              51.739787
            ],
            [
              5.934684,
              51.739824
            ],
            [
              5.934761,
              51.739864
            ],
            [
              5.934824,
              51.739894
            ],
            [
              5.934871,
              51.739911
            ],
            [
              5.934922,
              51.739941
            ],
            [
              5.934978,
              51.739963
            ],
            [
              5.93559,
              51.740401
            ],
            [
              5.935658,
              51.740431
            ],
            [
              5.9363,
              51.740716
            ],
            [
              5.936664,
              51.740766
            ],
            [
              5.936818,
              51.740786
            ],
            [
              5.936972,
              51.740822
            ],
            [
              5.93731,
              51.740924
            ],
            [
              5.937384,
              51.740948
            ],
            [
              5.937921,
              51.741122
            ],
            [
              5.938167,
              51.74125
            ],
            [
              5.938299,
              51.741593
            ],
            [
              5.937821,
              51.741578
            ],
            [
              5.937471,
              51.741565
            ],
            [
              5.937286,
              51.741529
            ],
            [
              5.937073,
              51.741485
            ],
            [
              5.9367,
              51.741313
            ],
            [
              5.936134,
              51.741057
            ],
            [
              5.935891,
              51.741029
            ],
            [
              5.935223,
              51.74113
            ],
            [
              5.934959,
              51.741467
            ],
            [
              5.934783,
              51.741712
            ],
            [
              5.934623,
              51.741876
            ],
            [
              5.934602,
              51.741895
            ],
            [
              5.934487,
              51.741958
            ],
            [
              5.934449,
              51.741967
            ],
            [
              5.934367,
              51.741981
            ],
            [
              5.93425,
              51.742003
            ],
            [
              5.933677,
              51.741919
            ],
            [
              5.933144,
              51.741843
            ],
            [
              5.932767,
              51.741938
            ],
            [
              5.932771,
              51.741951
            ],
            [
              5.932751,
              51.742007
            ],
            [
              5.932561,
              51.74245
            ],
            [
              5.932321,
              51.742754
            ],
            [
              5.932198,
              51.743056
            ],
            [
              5.932253,
              51.743069
            ],
            [
              5.932259,
              51.743171
            ],
            [
              5.932308,
              51.743203
            ],
            [
              5.932114,
              51.743172
            ],
            [
              5.931807,
              51.743056
            ],
            [
              5.931773,
              51.743085
            ],
            [
              5.931527,
              51.743406
            ],
            [
              5.931514,
              51.743422
            ],
            [
              5.931851,
              51.743541
            ],
            [
              5.931154,
              51.743831
            ],
            [
              5.930713,
              51.744107
            ],
            [
              5.930324,
              51.74427
            ],
            [
              5.929948,
              51.744428
            ],
            [
              5.930015,
              51.744824
            ],
            [
              5.930065,
              51.745124
            ],
            [
              5.930196,
              51.7459
            ],
            [
              5.930242,
              51.745926
            ],
            [
              5.93025,
              51.745935
            ],
            [
              5.930288,
              51.745982
            ],
            [
              5.930656,
              51.746435
            ],
            [
              5.930738,
              51.746535
            ],
            [
              5.931845,
              51.747206
            ],
            [
              5.932528,
              51.74762
            ],
            [
              5.933143,
              51.747991
            ],
            [
              5.933282,
              51.748074
            ],
            [
              5.933323,
              51.748099
            ],
            [
              5.933267,
              51.748115
            ],
            [
              5.933185,
              51.748139
            ],
            [
              5.930201,
              51.74883
            ],
            [
              5.929457,
              51.749003
            ],
            [
              5.927728,
              51.749403
            ],
            [
              5.927494,
              51.749457
            ],
            [
              5.926994,
              51.749573
            ],
            [
              5.926986,
              51.749575
            ],
            [
              5.926949,
              51.749584
            ],
            [
              5.926933,
              51.749587
            ],
            [
              5.926867,
              51.749602
            ],
            [
              5.924778,
              51.750086
            ],
            [
              5.924036,
              51.750258
            ],
            [
              5.923278,
              51.750433
            ],
            [
              5.92321,
              51.750448
            ],
            [
              5.923019,
              51.750493
            ],
            [
              5.922188,
              51.750684
            ],
            [
              5.922094,
              51.750706
            ],
            [
              5.922038,
              51.750719
            ],
            [
              5.919443,
              51.751319
            ],
            [
              5.9193,
              51.751352
            ],
            [
              5.919227,
              51.751369
            ],
            [
              5.917611,
              51.751742
            ],
            [
              5.916645,
              51.751968
            ],
            [
              5.916598,
              51.751979
            ],
            [
              5.916522,
              51.751997
            ],
            [
              5.916463,
              51.752011
            ],
            [
              5.916396,
              51.752026
            ],
            [
              5.916212,
              51.752069
            ],
            [
              5.915285,
              51.752287
            ],
            [
              5.915282,
              51.752292
            ],
            [
              5.91406,
              51.754308
            ],
            [
              5.913785,
              51.754763
            ],
            [
              5.913762,
              51.754801
            ],
            [
              5.9134,
              51.755398
            ],
            [
              5.913329,
              51.755515
            ],
            [
              5.913332,
              51.755709
            ],
            [
              5.913361,
              51.757399
            ],
            [
              5.913363,
              51.757519
            ],
            [
              5.913371,
              51.758037
            ],
            [
              5.913373,
              51.758109
            ],
            [
              5.913383,
              51.758509
            ],
            [
              5.913383,
              51.75851
            ],
            [
              5.913393,
              51.759001
            ],
            [
              5.913272,
              51.759182
            ],
            [
              5.9131,
              51.759439
            ],
            [
              5.912674,
              51.760075
            ],
            [
              5.912408,
              51.760473
            ],
            [
              5.912229,
              51.760739
            ],
            [
              5.912148,
              51.760858
            ],
            [
              5.912019,
              51.761055
            ],
            [
              5.911491,
              51.761843
            ],
            [
              5.911347,
              51.762058
            ],
            [
              5.91133,
              51.762084
            ],
            [
              5.911115,
              51.762406
            ],
            [
              5.910571,
              51.762685
            ],
            [
              5.909927,
              51.763016
            ],
            [
              5.909864,
              51.763048
            ],
            [
              5.909343,
              51.763316
            ],
            [
              5.90871,
              51.763641
            ],
            [
              5.908062,
              51.763974
            ],
            [
              5.908034,
              51.763988
            ],
            [
              5.907572,
              51.764225
            ],
            [
              5.907527,
              51.764259
            ],
            [
              5.907367,
              51.764364
            ],
            [
              5.907298,
              51.764409
            ],
            [
              5.907285,
              51.764417
            ],
            [
              5.907251,
              51.764439
            ],
            [
              5.907194,
              51.764476
            ],
            [
              5.907152,
              51.764504
            ],
            [
              5.907132,
              51.764518
            ],
            [
              5.906723,
              51.764788
            ],
            [
              5.906276,
              51.765088
            ],
            [
              5.905407,
              51.765673
            ],
            [
              5.905396,
              51.765681
            ],
            [
              5.90539,
              51.765686
            ],
            [
              5.905378,
              51.765695
            ],
            [
              5.905358,
              51.765718
            ],
            [
              5.905194,
              51.765901
            ],
            [
              5.904676,
              51.76648
            ],
            [
              5.903756,
              51.767506
            ],
            [
              5.903724,
              51.767542
            ],
            [
              5.902555,
              51.768844
            ],
            [
              5.901936,
              51.769531
            ],
            [
              5.901815,
              51.769668
            ],
            [
              5.901037,
              51.770543
            ],
            [
              5.900927,
              51.770662
            ],
            [
              5.900794,
              51.770812
            ],
            [
              5.900446,
              51.771204
            ],
            [
              5.900011,
              51.771688
            ],
            [
              5.899933,
              51.771776
            ],
            [
              5.899885,
              51.771823
            ],
            [
              5.898469,
              51.773134
            ],
            [
              5.897419,
              51.774093
            ],
            [
              5.895726,
              51.775679
            ],
            [
              5.894779,
              51.776569
            ],
            [
              5.894353,
              51.77697
            ],
            [
              5.893979,
              51.777321
            ],
            [
              5.893909,
              51.777377
            ],
            [
              5.893708,
              51.777569
            ],
            [
              5.893653,
              51.777626
            ],
            [
              5.893409,
              51.777853
            ],
            [
              5.892753,
              51.77796
            ],
            [
              5.892308,
              51.778037
            ],
            [
              5.891875,
              51.778114
            ],
            [
              5.891635,
              51.778163
            ],
            [
              5.891306,
              51.778222
            ],
            [
              5.89086,
              51.778288
            ],
            [
              5.890375,
              51.77836
            ],
            [
              5.890131,
              51.778399
            ],
            [
              5.889886,
              51.778429
            ],
            [
              5.889483,
              51.778487
            ],
            [
              5.889135,
              51.778514
            ],
            [
              5.888602,
              51.778565
            ],
            [
              5.888362,
              51.778593
            ],
            [
              5.888103,
              51.778596
            ],
            [
              5.887323,
              51.778627
            ],
            [
              5.88683,
              51.778605
            ],
            [
              5.886375,
              51.77859
            ],
            [
              5.886326,
              51.778584
            ],
            [
              5.886157,
              51.778557
            ],
            [
              5.886095,
              51.778557
            ],
            [
              5.885756,
              51.778512
            ],
            [
              5.885704,
              51.778504
            ],
            [
              5.885357,
              51.778464
            ],
            [
              5.885108,
              51.778426
            ],
            [
              5.885013,
              51.778412
            ],
            [
              5.88481,
              51.778376
            ],
            [
              5.884514,
              51.778315
            ],
            [
              5.884395,
              51.778289
            ],
            [
              5.884342,
              51.778281
            ],
            [
              5.884167,
              51.778238
            ],
            [
              5.883622,
              51.77813
            ],
            [
              5.883349,
              51.778054
            ],
            [
              5.882551,
              51.777833
            ],
            [
              5.881316,
              51.777578
            ],
            [
              5.879506,
              51.77716
            ],
            [
              5.878626,
              51.777021
            ],
            [
              5.878443,
              51.776981
            ],
            [
              5.878284,
              51.776947
            ],
            [
              5.875669,
              51.776651
            ],
            [
              5.875082,
              51.776584
            ],
            [
              5.874876,
              51.776561
            ],
            [
              5.87392,
              51.776452
            ],
            [
              5.873439,
              51.776407
            ],
            [
              5.872577,
              51.776339
            ],
            [
              5.870346,
              51.77616
            ],
            [
              5.869465,
              51.776092
            ],
            [
              5.869142,
              51.77587
            ],
            [
              5.868861,
              51.775571
            ],
            [
              5.868223,
              51.775538
            ],
            [
              5.867893,
              51.775521
            ],
            [
              5.867647,
              51.7749
            ],
            [
              5.867455,
              51.774417
            ],
            [
              5.867452,
              51.77431
            ],
            [
              5.867449,
              51.774206
            ],
            [
              5.867447,
              51.774134
            ],
            [
              5.867443,
              51.773981
            ],
            [
              5.867442,
              51.773944
            ],
            [
              5.867442,
              51.773938
            ],
            [
              5.867441,
              51.773908
            ],
            [
              5.867441,
              51.773868
            ],
            [
              5.867441,
              51.773865
            ],
            [
              5.867441,
              51.773837
            ],
            [
              5.867437,
              51.773529
            ],
            [
              5.86744,
              51.773373
            ],
            [
              5.867382,
              51.773373
            ],
            [
              5.867279,
              51.773374
            ],
            [
              5.867291,
              51.773086
            ],
            [
              5.867272,
              51.772954
            ],
            [
              5.867253,
              51.772818
            ],
            [
              5.867173,
              51.772256
            ],
            [
              5.867146,
              51.772065
            ],
            [
              5.867097,
              51.771326
            ],
            [
              5.86708,
              51.771067
            ],
            [
              5.867089,
              51.769861
            ],
            [
              5.867104,
              51.769686
            ],
            [
              5.867179,
              51.769196
            ],
            [
              5.867184,
              51.76917
            ],
            [
              5.867276,
              51.768654
            ],
            [
              5.867308,
              51.768452
            ],
            [
              5.867316,
              51.7684
            ],
            [
              5.867396,
              51.767784
            ],
            [
              5.867402,
              51.767696
            ],
            [
              5.867415,
              51.767507
            ],
            [
              5.867457,
              51.767418
            ],
            [
              5.867517,
              51.76729
            ],
            [
              5.867566,
              51.767176
            ],
            [
              5.867745,
              51.766878
            ],
            [
              5.867844,
              51.766718
            ],
            [
              5.867938,
              51.76655
            ],
            [
              5.868034,
              51.766229
            ],
            [
              5.868037,
              51.76622
            ],
            [
              5.868062,
              51.766099
            ],
            [
              5.868079,
              51.765844
            ],
            [
              5.86808,
              51.765831
            ],
            [
              5.868069,
              51.765746
            ],
            [
              5.868028,
              51.765423
            ],
            [
              5.86808,
              51.765269
            ],
            [
              5.868103,
              51.765205
            ],
            [
              5.868118,
              51.765093
            ],
            [
              5.868148,
              51.76502
            ],
            [
              5.868197,
              51.764888
            ],
            [
              5.868193,
              51.764842
            ],
            [
              5.868362,
              51.76434
            ],
            [
              5.868441,
              51.764173
            ],
            [
              5.868573,
              51.763895
            ],
            [
              5.868592,
              51.763856
            ],
            [
              5.868731,
              51.763638
            ],
            [
              5.86898,
              51.763271
            ],
            [
              5.869116,
              51.763059
            ],
            [
              5.869245,
              51.762861
            ],
            [
              5.869173,
              51.762758
            ],
            [
              5.869173,
              51.762757
            ],
            [
              5.869162,
              51.762746
            ],
            [
              5.868629,
              51.761958
            ],
            [
              5.868527,
              51.761799
            ],
            [
              5.868463,
              51.761715
            ],
            [
              5.868397,
              51.761644
            ],
            [
              5.868298,
              51.761564
            ],
            [
              5.868224,
              51.761515
            ],
            [
              5.86811,
              51.761409
            ],
            [
              5.867868,
              51.761182
            ],
            [
              5.867607,
              51.760935
            ],
            [
              5.867306,
              51.760641
            ],
            [
              5.867185,
              51.760513
            ],
            [
              5.867057,
              51.760363
            ],
            [
              5.866969,
              51.760238
            ],
            [
              5.866895,
              51.760109
            ],
            [
              5.866779,
              51.75994
            ],
            [
              5.866656,
              51.759781
            ],
            [
              5.866448,
              51.759544
            ],
            [
              5.866241,
              51.759313
            ],
            [
              5.866142,
              51.759213
            ],
            [
              5.866099,
              51.759179
            ],
            [
              5.866055,
              51.759147
            ],
            [
              5.86605,
              51.759146
            ],
            [
              5.86597,
              51.759118
            ],
            [
              5.865957,
              51.759116
            ],
            [
              5.865823,
              51.759095
            ],
            [
              5.865685,
              51.759077
            ],
            [
              5.865606,
              51.759066
            ],
            [
              5.865587,
              51.759007
            ],
            [
              5.865593,
              51.758976
            ],
            [
              5.865712,
              51.758918
            ],
            [
              5.865689,
              51.758896
            ],
            [
              5.865509,
              51.758716
            ],
            [
              5.865508,
              51.758715
            ],
            [
              5.865176,
              51.758385
            ],
            [
              5.864469,
              51.757682
            ]
          ]
        ]
      },
      "properties": {
        "type": "boundary",
        "gemeente": "Mook en Middelaar"
      }
    }
  ]
}