{
  "type": "FeatureCollection",
  "metadata": {
    "gemeente": "Reusel-De Mierden",
    "slug": "reusel-de-mierden",
    "generated_at": "2026-05-19T20:04:43.928894Z",
    "total_points": 9,
    "providers": [
      "Amazon",
      "DHL",
      "DPD",
      "PostNL",
      "VintedGo",
      "InPost"
    ],
    "bounds": [
      5.1423152,
      51.3558586,
      5.16160855046502,
      51.40620393842
    ]
  },
  "features": [
    {
      "type": "Feature",
      "geometry": {
        "type": "Point",
        "coordinates": [
          5.14874267281676,
          51.40620393842
        ]
      },
      "properties": {
        "type": "pakketpunt",
        "locatieNaam": "Keurslager Dirk Laureijs",
        "straatNaam": "Dorpsplein 24",
        "straatNr": "",
        "vervoerder": "Amazon",
        "puntType": "3p",
        "bezettingsgraad": 50,
        "latitude": 51.40620393842,
        "longitude": 5.14874267281676,
        "canPickup": true,
        "canDropoff": false,
        "openingstijden": null
      }
    },
    {
      "type": "Feature",
      "geometry": {
        "type": "Point",
        "coordinates": [
          5.157526,
          51.360313
        ]
      },
      "properties": {
        "type": "pakketpunt",
        "locatieNaam": "Esso Station Reusel",
        "straatNaam": "Wilhelminalaan",
        "straatNr": "9",
        "vervoerder": "DHL",
        "puntType": "parcelShop",
        "bezettingsgraad": 50,
        "latitude": 51.360313,
        "longitude": 5.157526,
        "canPickup": true,
        "canDropoff": true,
        "openingstijden": {
          "ma": "06:00 - 20:00",
          "di": "06:00 - 20:00",
          "wo": "06:00 - 20:00",
          "do": "06:00 - 20:00",
          "vr": "06:00 - 20:00",
          "za": "08:30 - 18:00",
          "zo": "10:00 - 18:00"
        }
      }
    },
    {
      "type": "Feature",
      "geometry": {
        "type": "Point",
        "coordinates": [
          5.1470075,
          51.3573967
        ]
      },
      "properties": {
        "type": "pakketpunt",
        "locatieNaam": "Business Point - Yrbrnd",
        "straatNaam": "TURNHOUTSEWEG",
        "straatNr": "22A",
        "vervoerder": "DPD",
        "puntType": "pickup_point",
        "bezettingsgraad": 50,
        "latitude": 51.3573967,
        "longitude": 5.1470075,
        "canPickup": true,
        "canDropoff": true,
        "openingstijden": {
          "ma": "08:30 - 17:00",
          "di": "08:30 - 17:00",
          "wo": "08:30 - 17:00",
          "do": "08:30 - 17:00",
          "vr": "08:30 - 17:00",
          "za": "gesloten",
          "zo": "gesloten"
        }
      }
    },
    {
      "type": "Feature",
      "geometry": {
        "type": "Point",
        "coordinates": [
          5.15624,
          51.360013
        ]
      },
      "properties": {
        "type": "pakketpunt",
        "locatieNaam": "Esso Station Reusel",
        "straatNaam": "WILHELMINALAAN",
        "straatNr": "9",
        "vervoerder": "DPD",
        "puntType": "pickup_point",
        "bezettingsgraad": 50,
        "latitude": 51.360013,
        "longitude": 5.15624,
        "canPickup": true,
        "canDropoff": true,
        "openingstijden": {
          "ma": "07:00 - 20:00",
          "di": "07:00 - 20:00",
          "wo": "07:00 - 20:00",
          "do": "07:00 - 20:00",
          "vr": "07:00 - 20:00",
          "za": "08:00 - 20:00",
          "zo": "10:00 - 18:00"
        }
      }
    },
    {
      "type": "Feature",
      "geometry": {
        "type": "Point",
        "coordinates": [
          5.16160855046502,
          51.3619959589366
        ]
      },
      "properties": {
        "type": "pakketpunt",
        "locatieNaam": "Primera Prins",
        "straatNaam": "Markt",
        "straatNr": "76",
        "vervoerder": "PostNL",
        "puntType": "servicepunt",
        "bezettingsgraad": 50,
        "latitude": 51.3619959589366,
        "longitude": 5.16160855046502,
        "canPickup": true,
        "canDropoff": true,
        "openingstijden": "09:00 - 18:00 (Na 18:00 open; Zaterdag open)"
      }
    },
    {
      "type": "Feature",
      "geometry": {
        "type": "Point",
        "coordinates": [
          5.14874267281676,
          51.40620393842
        ]
      },
      "properties": {
        "type": "pakketpunt",
        "locatieNaam": "Keurslager Dirk Laureijs",
        "straatNaam": "Dorpsplein",
        "straatNr": "24",
        "vervoerder": "PostNL",
        "puntType": "servicepunt",
        "bezettingsgraad": 50,
        "latitude": 51.40620393842,
        "longitude": 5.14874267281676,
        "canPickup": true,
        "canDropoff": true,
        "openingstijden": "08:00 - 18:00 (Na 18:00 open; Zaterdag open)"
      }
    },
    {
      "type": "Feature",
      "geometry": {
        "type": "Point",
        "coordinates": [
          5.15625,
          51.36001
        ]
      },
      "properties": {
        "type": "pakketpunt",
        "locatieNaam": "Esso Station Reusel bv",
        "straatNaam": "Wilhelminalaan 9",
        "straatNr": "",
        "vervoerder": "VintedGo",
        "puntType": "parcel_shop",
        "bezettingsgraad": 50,
        "latitude": 51.36001,
        "longitude": 5.15625,
        "canPickup": true,
        "canDropoff": true,
        "openingstijden": null
      }
    },
    {
      "type": "Feature",
      "geometry": {
        "type": "Point",
        "coordinates": [
          5.1423152,
          51.3558586
        ]
      },
      "properties": {
        "type": "pakketpunt",
        "locatieNaam": "Tamoil Tankstation Den Hoek Bv",
        "straatNaam": "Turnhoutseweg 32A",
        "straatNr": "",
        "vervoerder": "VintedGo",
        "puntType": "locker",
        "bezettingsgraad": 50,
        "latitude": 51.3558586,
        "longitude": 5.1423152,
        "canPickup": true,
        "canDropoff": true,
        "openingstijden": null
      }
    },
    {
      "type": "Feature",
      "geometry": {
        "type": "Point",
        "coordinates": [
          5.1565,
          51.36009
        ]
      },
      "properties": {
        "type": "pakketpunt",
        "locatieNaam": "ESSO STATION REUSEL",
        "straatNaam": "WILHELMINALAAN 9",
        "straatNr": "",
        "vervoerder": "InPost",
        "puntType": "servicepunt",
        "bezettingsgraad": 50,
        "latitude": 51.36009,
        "longitude": 5.1565,
        "canPickup": true,
        "canDropoff": true,
        "openingstijden": "L/Ma/Me/J/V 7-20,S 8-20,D 9-20"
      }
    },
    {
      "type": "Feature",
      "geometry": {
        "type": "MultiPolygon",
        "coordinates": [
          [
            [
              [
                5.145653456396916,
                51.354154846068504
              ],
              [
                5.145370669320935,
                51.35395817873403
              ],
              [
                5.145058460079823,
                51.35377981315472
              ],
              [
                5.144719835354345,
                51.35362146686533
              ],
              [
                5.144358056082663,
                51.35348466461208
              ],
              [
                5.1439766060635,
                51.353370723676925
              ],
              [
                5.143579158418078,
                51.353280741198745
              ],
              [
                5.143169540233281,
                51.35321558361435
              ],
              [
                5.142751695725898,
                51.35317587831949
              ],
              [
                5.142329648281865,
                51.35316200763084
              ],
              [
                5.141907461735201,
                51.35317410510693
              ],
              [
                5.1414892012584525,
                51.35321205426233
              ],
              [
                5.141078894240348,
                51.353275489689146
              ],
              [
                5.140680491526268,
                51.353363800573405
              ],
              [
                5.14029782939387,
                51.35347613657376
              ],
              [
                5.139934592629091,
                51.353611416005116
              ],
              [
                5.139594279057295,
                51.353768336249296
              ],
              [
                5.139280165870498,
                51.353945386292494
              ],
              [
                5.138995278074442,
                51.354140861268895
              ],
              [
                5.1387423593590436,
                51.35435287887092
              ],
              [
                5.138523845672683,
                51.35457939746822
              ],
              [
                5.138341841754909,
                51.354818235761485
              ],
              [
                5.138198100853828,
                51.355067093781955
              ],
              [
                5.138094007824057,
                51.35532357503462
              ],
              [
                5.138030565768632,
                51.355585209572276
              ],
              [
                5.138008386354374,
                51.35584947777824
              ],
              [
                5.1380276838948635,
                51.356113834629234
              ],
              [
                5.138088273259062,
                51.35637573420428
              ],
              [
                5.138189571626755,
                51.356632654204155
              ],
              [
                5.1383306040749686,
                51.356882120244876
              ],
              [
                5.138510012942577,
                51.35712172969143
              ],
              [
                5.138726070883851,
                51.35734917480184
              ],
              [
                5.138976697486078,
                51.35756226495862
              ],
              [
                5.139259479291867,
                51.357758947773064
              ],
              [
                5.139571693033835,
                51.35793732885922
              ],
              [
                5.139910331858237,
                51.35809569008644
              ],
              [
                5.140272134285112,
                51.35823250613439
              ],
              [
                5.1406536156258875,
                51.35834645919112
              ],
              [
                5.1410511015556715,
                51.35843645165173
              ],
              [
                5.141460763516335,
                51.358501616695904
              ],
              [
                5.141878655608805,
                51.35854132664121
              ],
              [
                5.1423007526184765,
                51.35855519899221
              ],
              [
                5.142722988806554,
                51.35854310012664
              ],
              [
                5.143089851923279,
                51.35850981434096
              ],
              [
                5.143202314247305,
                51.35865998284041
              ],
              [
                5.143418402834148,
                51.35888741925168
              ],
              [
                5.1436690597747665,
                51.359100499318004
              ],
              [
                5.143951871319505,
                51.35929717074784
              ],
              [
                5.144264113914485,
                51.35947553926488
              ],
              [
                5.1446027804279755,
                51.35963388685952
              ],
              [
                5.144964609113237,
                51.35977068834269
              ],
              [
                5.145346115028698,
                51.35988462604273
              ],
              [
                5.145743623612673,
                51.35997460250265
              ],
              [
                5.146153306088754,
                51.36003975105629
              ],
              [
                5.146571216360195,
                51.36007944418005
              ],
              [
                5.1469933290372305,
                51.36009329954048
              ],
              [
                5.147415578230115,
                51.36008118367895
              ],
              [
                5.147833896733308,
                51.36004321329795
              ],
              [
                5.148244255222385,
                51.35997975413621
              ],
              [
                5.148642701085075,
                51.35989141744414
              ],
              [
                5.149025396511526,
                51.35977905409313
              ],
              [
                5.149388655475976,
                51.359643746375774
              ],
              [
                5.149728979252851,
                51.359486797576174
              ],
              [
                5.150043090124597,
                51.35930971941106
              ],
              [
                5.1503279629561,
                51.359114217462945
              ],
              [
                5.150580854331286,
                51.35890217474576
              ],
              [
                5.15079932897123,
                51.35867563356187
              ],
              [
                5.150981283179385,
                51.35843677582539
              ],
              [
                5.1511249650885205,
                51.358187902041294
              ],
              [
                5.151228991514804,
                51.357931409144044
              ],
              [
                5.151292361257422,
                51.357669767407664
              ],
              [
                5.151314464716451,
                51.35740549665213
              ],
              [
                5.151295089737304,
                51.35714114197305
              ],
              [
                5.151234423626455,
                51.35687924923047
              ],
              [
                5.151133051320118,
                51.35662234053138
              ],
              [
                5.150991949724529,
                51.356372889943025
              ],
              [
                5.1508124782833855,
                51.35613329967021
              ],
              [
                5.1505963658642235,
                51.35590587692614
              ],
              [
                5.150345694090819,
                51.355692811719344
              ],
              [
                5.150062877282848,
                51.3554961557703
              ],
              [
                5.149750639196451,
                51.355317802760375
              ],
              [
                5.149411986790092,
                51.35515947010335
              ],
              [
                5.149050181268385,
                51.355022682414095
              ],
              [
                5.1486687066827415,
                51.35490875683436
              ],
              [
                5.148271236390855,
                51.35481879035518
              ],
              [
                5.147861597697588,
                51.354753649259294
              ],
              [
                5.147443735017148,
                51.354713960783634
              ],
              [
                5.147021671910396,
                51.35470010708305
              ],
              [
                5.146599472362125,
                51.35471222155236
              ],
              [
                5.1462326422908165,
                51.35474551841602
              ],
              [
                5.146120179616091,
                51.35459535281195
              ],
              [
                5.145904097837845,
                51.35436792136701
              ],
              [
                5.145653456396916,
                51.354154846068504
              ]
            ]
          ],
          [
            [
              [
                5.158292318203846,
                51.3576358204812
              ],
              [
                5.157910798705354,
                51.357521925149804
              ],
              [
                5.157513287429344,
                51.357431990186896
              ],
              [
                5.157103612075186,
                51.35736688157165
              ],
              [
                5.156685717409944,
                51.3573272262283
              ],
              [
                5.156263627302377,
                51.35731340599264
              ],
              [
                5.155841405997183,
                51.35732555393724
              ],
              [
                5.15542311900154,
                51.35736355309096
              ],
              [
                5.155012793959506,
                51.35742703756438
              ],
              [
                5.154614381890056,
                51.35751539607134
              ],
              [
                5.154231719161032,
                51.35762777781194
              ],
              [
                5.154230918791705,
                51.357628075996104
              ],
              [
                5.154221719550558,
                51.357630777639336
              ],
              [
                5.153858490900333,
                51.357766100456814
              ],
              [
                5.153518194126033,
                51.35792306134813
              ],
              [
                5.153204106258159,
                51.35810014890811
              ],
              [
                5.152919252058919,
                51.35829565790967
              ],
              [
                5.152666374895,
                51.35850770571751
              ],
              [
                5.15244791031497,
                51.35873425041036
              ],
              [
                5.1522659625857985,
                51.35897311043768
              ],
              [
                5.152122284414818,
                51.35922198562128
              ],
              [
                5.152018260052828,
                51.35947847930072
              ],
              [
                5.151954891941848,
                51.35974012140903
              ],
              [
                5.15193279103681,
                51.36000439225667
              ],
              [
                5.151952170895388,
                51.36026874679466
              ],
              [
                5.1520128455939,
                51.360530639124256
              ],
              [
                5.152114231490371,
                51.36078754701583
              ],
              [
                5.152255352818863,
                51.36103699620199
              ],
              [
                5.152434851062202,
                51.36127658420986
              ],
              [
                5.1526509980137805,
                51.36150400350395
              ],
              [
                5.152901712403455,
                51.361717063715176
              ],
              [
                5.153184579928137,
                51.36191371274329
              ],
              [
                5.1534968764946285,
                51.36209205652767
              ],
              [
                5.153835594451211,
                51.36225037729685
              ],
              [
                5.154197471555484,
                51.36238715012017
              ],
              [
                5.154579022399348,
                51.36250105760195
              ],
              [
                5.154587579664385,
                51.36250299368781
              ],
              [
                5.154839033751799,
                51.36257806130558
              ],
              [
                5.155236584524283,
                51.362668005393246
              ],
              [
                5.1556273521892155,
                51.36273010856498
              ],
              [
                5.155865081498686,
                51.36280107593243
              ],
              [
                5.156262636238276,
                51.362891016520855
              ],
              [
                5.1566723599325055,
                51.362956128104614
              ],
              [
                5.157090306087465,
                51.362995783516176
              ],
              [
                5.157512448967641,
                51.36300960078543
              ],
              [
                5.157616197301495,
                51.36300661482096
              ],
              [
                5.157623850291331,
                51.36302013859145
              ],
              [
                5.157803384491414,
                51.36325971832667
              ],
              [
                5.158019567564509,
                51.3634871276608
              ],
              [
                5.158270317892531,
                51.363700176320776
              ],
              [
                5.158553220826185,
                51.36389681231746
              ],
              [
                5.158865551931156,
                51.36407514171577
              ],
              [
                5.159204303222969,
                51.36423344688276
              ],
              [
                5.1595662121380546,
                51.36437020303804
              ],
              [
                5.1599477929618125,
                51.36448409294645
              ],
              [
                5.160345370410789,
                51.36457401961143
              ],
              [
                5.160755115045023,
                51.36463911684635
              ],
              [
                5.161173080168848,
                51.36467875762195
              ],
              [
                5.161595239863979,
                51.36469256010903
              ],
              [
                5.162017527787664,
                51.364680391358334
              ],
              [
                5.162435876361228,
                51.36464236858172
              ],
              [
                5.16284625597058,
                51.36457885802268
              ],
              [
                5.163244713800061,
                51.36449047142673
              ],
              [
                5.1636274119246455,
                51.36437806014598
              ],
              [
                5.16399066429274,
                51.36424270693465
              ],
              [
                5.1643309722425075,
                51.36408571551515
              ],
              [
                5.164645058209084,
                51.36390859801468
              ],
              [
                5.164929897297521,
                51.363713060394524
              ],
              [
                5.165182746417051,
                51.363500986012255
              ],
              [
                5.165401170696063,
                51.363274417475154
              ],
              [
                5.165583066923385,
                51.363035536960666
              ],
              [
                5.1657266837905365,
                51.36278664519328
              ],
              [
                5.165830638740418,
                51.36253013928033
              ],
              [
                5.165893931260869,
                51.3622684896212
              ],
              [
                5.165915952495928,
                51.362004216112055
              ],
              [
                5.165896491083063,
                51.36173986387491
              ],
              [
                5.165835735161292,
                51.361477978746166
              ],
              [
                5.165734270531823,
                51.361221082759386
              ],
              [
                5.165593074990006,
                51.360971649859266
              ],
              [
                5.165413508884216,
                51.36073208208014
              ],
              [
                5.165197301993509,
                51.360504686418466
              ],
              [
                5.164946536851269,
                51.36029165262196
              ],
              [
                5.164663628676088,
                51.36009503210849
              ],
              [
                5.164351302103721,
                51.359916718218166
              ],
              [
                5.164012564944442,
                51.35975842798795
              ],
              [
                5.163650679218726,
                51.3596216856242
              ],
              [
                5.1632691297500175,
                51.35950780783209
              ],
              [
                5.162871590616811,
                51.35941789114263
              ],
              [
                5.162461889786615,
                51.359352801359016
              ],
              [
                5.1620439722717295,
                51.35931316522418
              ],
              [
                5.161621862160858,
                51.35929936438895
              ],
              [
                5.161518122505476,
                51.359302353925735
              ],
              [
                5.161510468983381,
                51.35928883040813
              ],
              [
                5.161330930905493,
                51.35904925633421
              ],
              [
                5.161114752307095,
                51.35882185309521
              ],
              [
                5.160864015449152,
                51.35860881051176
              ],
              [
                5.160581135277937,
                51.35841218008644
              ],
              [
                5.160268836159588,
                51.3582338552548
              ],
              [
                5.159930125640094,
                51.358075553159175
              ],
              [
                5.159568265483472,
                51.35793879812018
              ],
              [
                5.159186740267035,
                51.35782490696513
              ],
              [
                5.1587892238358215,
                51.35773497635354
              ],
              [
                5.158398494582003,
                51.35767288379319
              ],
              [
                5.1583598971928355,
                51.35766136141786
              ],
              [
                5.158292318203846,
                51.3576358204812
              ]
            ]
          ],
          [
            [
              [
                5.15273134841683,
                51.405180074338226
              ],
              [
                5.152551676233698,
                51.4049404872461
              ],
              [
                5.152335324315957,
                51.40471306817267
              ],
              [
                5.152084376594698,
                51.404500007090896
              ],
              [
                5.15180125004761,
                51.404303355681236
              ],
              [
                5.151488671413948,
                51.40412500758122
              ],
              [
                5.151149650931628,
                51.403966680156955
              ],
              [
                5.150787453349496,
                51.40382989797285
              ],
              [
                5.150405566493863,
                51.40371597811728
              ],
              [
                5.150007667691657,
                51.40362601752611
              ],
              [
                5.1495975883731475,
                51.403560882425126
              ],
              [
                5.149179277194415,
                51.40352119999353
              ],
              [
                5.14875676203391,
                51.403507352327786
              ],
              [
                5.148334111228166,
                51.40351947276467
              ],
              [
                5.147915394419002,
                51.40355744459777
              ],
              [
                5.147504643388153,
                51.40362090220085
              ],
              [
                5.147105813255534,
                51.40370923454663
              ],
              [
                5.1467227444137436,
                51.40382159108718
              ],
              [
                5.146359125564488,
                51.403956889939785
              ],
              [
                5.146018458212068,
                51.404113828299565
              ],
              [
                5.145704022955198,
                51.40429089497846
              ],
              [
                5.145418847901277,
                51.404486384950715
              ],
              [
                5.145165679506983,
                51.404698415764514
              ],
              [
                5.144946956125903,
                51.40492494566257
              ],
              [
                5.144764784518033,
                51.405163793236916
              ],
              [
                5.144620919547695,
                51.40541265842954
              ],
              [
                5.144516747265859,
                51.40566914467651
              ],
              [
                5.144453271540486,
                51.40593078198253
              ],
              [
                5.14443110436444,
                51.406195050704376
              ],
              [
                5.144450459935286,
                51.4064594058137
              ],
              [
                5.144511152564929,
                51.4067213014063
              ],
              [
                5.144612598440367,
                51.4069782152211
              ],
              [
                5.144753821219604,
                51.40722767293357
              ],
              [
                5.1449334614098525,
                51.40746727198875
              ],
              [
                5.145149789438686,
                51.40769470474444
              ],
              [
                5.145400722293045,
                51.40790778070188
              ],
              [
                5.14568384356657,
                51.408104447608935
              ],
              [
                5.14599642672267,
                51.40828281123258
              ],
              [
                5.146335461349628,
                51.40844115361009
              ],
              [
                5.14669768215503,
                51.40857794960241
              ],
              [
                5.147079600420109,
                51.40869188159055
              ],
              [
                5.147477537610888,
                51.408781852172424
              ],
              [
                5.147887660821845,
                51.40884699473822
              ],
              [
                5.148306019710141,
                51.408886681821976
              ],
              [
                5.148728584563873,
                51.4089005311483
              ],
              [
                5.149151285136821,
                51.4088884093168
              ],
              [
                5.149570049874643,
                51.40885043308732
              ],
              [
                5.149980845153732,
                51.4087869682551
              ],
              [
                5.15037971415374,
                51.40869862612523
              ],
              [
                5.150762814988411,
                51.40858625762164
              ],
              [
                5.151126457726576,
                51.4084509450868
              ],
              [
                5.151467139945894,
                51.408293991851366
              ],
              [
                5.151781580476325,
                51.40811690967504
              ],
              [
                5.152066751007808,
                51.40792140417919
              ],
              [
                5.152319905257464,
                51.407709358412106
              ],
              [
                5.152538605415276,
                51.407482814705865
              ],
              [
                5.152720745613699,
                51.40724395499895
              ],
              [
                5.152864572195464,
                51.40699507981562
              ],
              [
                5.152968700584851,
                51.40673858610386
              ],
              [
                5.153032128600662,
                51.40647694414568
              ],
              [
                5.153054246083481,
                51.406212673763186
              ],
              [
                5.153034840745432,
                51.40594832004853
              ],
              [
                5.152974100187133,
                51.40568642885232
              ],
              [
                5.1528726100634525,
                51.40542952226663
              ],
              [
                5.15273134841683,
                51.405180074338226
              ]
            ]
          ]
        ]
      },
      "properties": {
        "type": "buffer_union_300m",
        "buffer_m": 300
      }
    },
    {
      "type": "Feature",
      "geometry": {
        "type": "MultiPolygon",
        "coordinates": [
          [
            [
              [
                5.145972824131128,
                51.353086868604805
              ],
              [
                5.145521327630866,
                51.35287574353814
              ],
              [
                5.145038960414325,
                51.35269334359901
              ],
              [
                5.144530367348725,
                51.35254142504544
              ],
              [
                5.144000445661577,
                51.35242145062589
              ],
              [
                5.143454297808528,
                51.35233457550419
              ],
              [
                5.142897182371564,
                51.35228163614427
              ],
              [
                5.14233446345904,
                51.352263142262174
              ],
              [
                5.141771559093167,
                51.35227927192151
              ],
              [
                5.141213889080239,
                51.352329869820416
              ],
              [
                5.140666822863732,
                51.35241444878573
              ],
              [
                5.140135627860657,
                51.35253219446053
              ],
              [
                5.139625418776837,
                51.35268197313967
              ],
              [
                5.1391411083876335,
                51.35286234267833
              ],
              [
                5.138687360256634,
                51.35307156636904
              ],
              [
                5.138268543846426,
                51.35330762965352
              ],
              [
                5.137888692452895,
                51.35356825950954
              ],
              [
                5.137551464367584,
                51.353850946326055
              ],
              [
                5.1372601076419295,
                51.35415296805678
              ],
              [
                5.137017428792917,
                51.354471416420495
              ],
              [
                5.136825765752024,
                51.354803224895775
              ],
              [
                5.136686965318889,
                51.35514519824112
              ],
              [
                5.136602365337967,
                51.35549404325731
              ],
              [
                5.136572781771314,
                51.355846400495224
              ],
              [
                5.136598500793635,
                51.356198876604715
              ],
              [
                5.1366792759875,
                51.356548077012654
              ],
              [
                5.13681433066764,
                51.35689063861599
              ],
              [
                5.137002365313807,
                51.357223262174394
              ],
              [
                5.137241570042425,
                51.357542744091205
              ],
              [
                5.137529641998595,
                51.35784600727509
              ],
              [
                5.137863807502415,
                51.35813013078592
              ],
              [
                5.138240848737552,
                51.358392377978596
              ],
              [
                5.138657134725966,
                51.35863022287303
              ],
              [
                5.139108656290986,
                51.35884137449577
              ],
              [
                5.13959106467231,
                51.35902379895889
              ],
              [
                5.140099713420779,
                51.35917573906178
              ],
              [
                5.140629703169015,
                51.35929573122791
              ],
              [
                5.141175928845823,
                51.359382619611466
              ],
              [
                5.141733128878498,
                51.35943556723883
              ],
              [
                5.142295935907716,
                51.359454064076296
              ],
              [
                5.1423037849774635,
                51.359453839185875
              ],
              [
                5.142556190546374,
                51.35966840993324
              ],
              [
                5.142933271434997,
                51.35993064194662
              ],
              [
                5.143349595895809,
                51.36016847008232
              ],
              [
                5.14380115438144,
                51.36037960352825
              ],
              [
                5.144283597775805,
                51.36056200857146
              ],
              [
                5.144792279292342,
                51.360713928198535
              ],
              [
                5.145322299247885,
                51.36083389903004
              ],
              [
                5.145868552280133,
                51.360920765425746
              ],
              [
                5.146425776552748,
                51.36097369062382
              ],
              [
                5.146988604472815,
                51.360992164806596
              ],
              [
                5.147551614430539,
                51.360976010015165
              ],
              [
                5.148109383061094,
                51.36092538186461
              ],
              [
                5.148656537523462,
                51.36084076804416
              ],
              [
                5.149187807290894,
                51.36072298361601
              ],
              [
                5.149698074952385,
                51.360573163158826
              ],
              [
                5.1501824255343225,
                51.36039274983153
              ],
              [
                5.150514503477144,
                51.36023960286148
              ],
              [
                5.150522883429523,
                51.3603539594885
              ],
              [
                5.15060377240162,
                51.36070315023755
              ],
              [
                5.150738943787005,
                51.3610456956982
              ],
              [
                5.150927096941467,
                51.3613782967854
              ],
              [
                5.1511664208399885,
                51.36169775011868
              ],
              [
                5.151454611479739,
                51.36200097888186
              ],
              [
                5.15178889403746,
                51.362285062466114
              ],
              [
                5.152166049569072,
                51.36254726461087
              ],
              [
                5.152582445995262,
                51.3627850597697
              ],
              [
                5.153034073075203,
                51.3629961574482
              ],
              [
                5.153516581031803,
                51.36317852427793
              ],
              [
                5.15402532245632,
                51.36333040361349
              ],
              [
                5.154033879853171,
                51.36333233974004
              ],
              [
                5.154285337593004,
                51.363407408551744
              ],
              [
                5.154815413803182,
                51.36352733621945
              ],
              [
                5.155137569867808,
                51.36357853560357
              ],
              [
                5.155311401256002,
                51.36363042805453
              ],
              [
                5.155841482755986,
                51.36375035105652
              ],
              [
                5.156387790748966,
                51.36383716815798
              ],
              [
                5.156712768944049,
                51.36386800297333
              ],
              [
                5.156823187381561,
                51.36398415811332
              ],
              [
                5.1571575178585425,
                51.36426822629623
              ],
              [
                5.157534720603875,
                51.36453041106596
              ],
              [
                5.157951163083349,
                51.36476818704346
              ],
              [
                5.158402834612389,
                51.36497926391904
              ],
              [
                5.15888538498559,
                51.36516160852452
              ],
              [
                5.159394166385463,
                51.36531346442861
              ],
              [
                5.159924278166271,
                51.36543336886563
              ],
              [
                5.160470614080771,
                51.365520166834976
              ],
              [
                5.161027911493887,
                51.36557302223383
              ],
              [
                5.161590802107859,
                51.36559142591711
              ],
              [
                5.162153863708755,
                51.36557520060488
              ],
              [
                5.162711672434158,
                51.3655245025917
              ],
              [
                5.1632588550568,
                51.36543982023974
              ],
              [
                5.163790140778733,
                51.36532196927145
              ],
              [
                5.164300412035449,
                51.365172084906526
              ],
              [
                5.164784753818976,
                51.36499161091947
              ],
              [
                5.165238501043471,
                51.3647822857235
              ],
              [
                5.1656572834959915,
                51.36454612561524
              ],
              [
                5.166037067938591,
                51.36428540534209
              ],
              [
                5.166374196955753,
                51.36400263617974
              ],
              [
                5.166665424172816,
                51.36370054173231
              ],
              [
                5.16690794550641,
                51.36338203168746
              ],
              [
                5.167099426146478,
                51.36305017378117
              ],
              [
                5.16723802301089,
                51.36270816424188
              ],
              [
                5.167322402457629,
                51.36235929699904
              ],
              [
                5.167351753085372,
                51.362006931953694
              ],
              [
                5.167325793500884,
                51.36165446261603
              ],
              [
                5.16724477498021,
                51.36130528342253
              ],
              [
                5.1671094789999,
                51.360962757046984
              ],
              [
                5.166921209663936,
                51.36063018202066
              ],
              [
                5.166681781101095,
                51.360310760972304
              ],
              [
                5.166393499955778,
                51.360007569795236
              ],
              [
                5.166059143142407,
                51.35972352803622
              ],
              [
                5.165681931078808,
                51.35946137079224
              ],
              [
                5.165265496657289,
                51.359223622384455
              ],
              [
                5.164813850252759,
                51.35901257206315
              ],
              [
                5.164331341105104,
                51.35883025197595
              ],
              [
                5.16382261544754,
                51.35867841761205
              ],
              [
                5.1632925717836535,
                51.358558530909164
              ],
              [
                5.162746313742997,
                51.35847174618663
              ],
              [
                5.162421369840917,
                51.35844092821056
              ],
              [
                5.162310950537583,
                51.3583247783424
              ],
              [
                5.161976631435518,
                51.358040724867244
              ],
              [
                5.161599456709212,
                51.35777855440722
              ],
              [
                5.161183058891546,
                51.35754079141093
              ],
              [
                5.160731448005084,
                51.35732972526909
              ],
              [
                5.160248972947844,
                51.357147388281696
              ],
              [
                5.159740279624933,
                51.356995536100676
              ],
              [
                5.159210266228734,
                51.35687563083537
              ],
              [
                5.158926592777665,
                51.356830551390495
              ],
              [
                5.158464357542141,
                51.35669256034653
              ],
              [
                5.157934351019132,
                51.356572649279556
              ],
              [
                5.157388126944646,
                51.35648583944866
              ],
              [
                5.156830944634216,
                51.356432966689255
              ],
              [
                5.1562681688398095,
                51.35641454007602
              ],
              [
                5.155705218131109,
                51.356430737025015
              ],
              [
                5.155147512760498,
                51.356481401586564
              ],
              [
                5.154600422511878,
                51.35656604594565
              ],
              [
                5.154069215033715,
                51.35668385511582
              ],
              [
                5.1535590051521245,
                51.35683369478057
              ],
              [
                5.153558204792336,
                51.35683399296019
              ],
              [
                5.153549005671494,
                51.356836694550445
              ],
              [
                5.153064706098521,
                51.35701712193618
              ],
              [
                5.152732660142099,
                51.35717027621911
              ],
              [
                5.152724275228023,
                51.3570559197296
              ],
              [
                5.152643376456266,
                51.35670673038251
              ],
              [
                5.152508203573369,
                51.356364187055476
              ],
              [
                5.152320059497824,
                51.3560315884432
              ],
              [
                5.152080757152225,
                51.35571213740186
              ],
              [
                5.151792601965698,
                51.35540891011372
              ],
              [
                5.151458369639984,
                51.355124826473464
              ],
              [
                5.151081279394505,
                51.354862621981475
              ],
              [
                5.150664962948947,
                51.35462482141407
              ],
              [
                5.150213429542663,
                51.354413714523844
              ],
              [
                5.149731027327952,
                51.35423133400322
              ],
              [
                5.149222401508867,
                51.35407943592327
              ],
              [
                5.148692449628147,
                51.35395948283533
              ],
              [
                5.148146274432021,
                51.35387262969783
              ],
              [
                5.147589134765626,
                51.35381971276304
              ],
              [
                5.1470263949705055,
                51.35380124153105
              ],
              [
                5.147018546894864,
                51.35380146674029
              ],
              [
                5.146766152722395,
                51.35358690560414
              ],
              [
                5.146389102118028,
                51.35332468593146
              ],
              [
                5.145972824131128,
                51.353086868604805
              ]
            ]
          ],
          [
            [
              [
                5.154060866713729,
                51.40483875477577
              ],
              [
                5.153821296695066,
                51.404519307978354
              ],
              [
                5.153532822164528,
                51.404216085587734
              ],
              [
                5.153198221900763,
                51.40393200745105
              ],
              [
                5.152820718667506,
                51.4036698090153
              ],
              [
                5.1524039481620125,
                51.403432014998046
              ],
              [
                5.151951923996116,
                51.403220915088376
              ],
              [
                5.151468999047443,
                51.403038541911066
              ],
              [
                5.150959823552732,
                51.40288665146613
              ],
              [
                5.150429300346359,
                51.402766706231056
              ],
              [
                5.149882537674264,
                51.40267986108835
              ],
              [
                5.149324800036492,
                51.40262695221321
              ],
              [
                5.148761457530343,
                51.402608489027855
              ],
              [
                5.148197934180316,
                51.402624649300485
              ],
              [
                5.147639655750638,
                51.40267527743445
              ],
              [
                5.147091997541125,
                51.40275988596567
              ],
              [
                5.14656023266724,
                51.40287766025276
              ],
              [
                5.146049481320599,
                51.403027466315386
              ],
              [
                5.145564661496972,
                51.40320786174539
              ],
              [
                5.145110441664744,
                51.403417109586314
              ],
              [
                5.144691195828526,
                51.403653195047895
              ],
              [
                5.144310961419719,
                51.40391384489464
              ],
              [
                5.143973400419062,
                51.40419654932345
              ],
              [
                5.143681764085324,
                51.40449858611886
              ],
              [
                5.143438861630005,
                51.4048170468549
              ],
              [
                5.143247033140284,
                51.40514886489118
              ],
              [
                5.1431081270118275,
                51.40549084489447
              ],
              [
                5.143023482109977,
                51.40583969360148
              ],
              [
                5.142993914832593,
                51.406192051527604
              ],
              [
                5.143019711200768,
                51.40654452531602
              ],
              [
                5.143100624055407,
                51.40689372041586
              ],
              [
                5.143235875388545,
                51.40723627377488
              ],
              [
                5.143424163788824,
                51.40756888623201
              ],
              [
                5.143663676931249,
                51.407888354297036
              ],
              [
                5.143952108992616,
                51.40819160101165
              ],
              [
                5.144286682826339,
                51.40847570559397
              ],
              [
                5.144664176684374,
                51.40873793158067
              ],
              [
                5.145080955229756,
                51.40897575319544
              ],
              [
                5.145533004541676,
                51.409186879688654
              ],
              [
                5.146015970776161,
                51.40936927741393
              ],
              [
                5.1465252021098875,
                51.40952118942789
              ],
              [
                5.14705579356261,
                51.40964115242417
              ],
              [
                5.147602634265728,
                51.409728010837675
              ],
              [
                5.148160456720502,
                51.40978092798329
              ],
              [
                5.148723887570162,
                51.40979939412086
              ],
              [
                5.14928749939522,
                51.40978323136884
              ],
              [
                5.1498458630314,
                51.40973259541913
              ],
              [
                5.150393599904451,
                51.40964797403608
              ],
              [
                5.1509254338759165,
                51.409530182355056
              ],
              [
                5.15143624209879,
                51.40938035502484
              ],
              [
                5.15192110439159,
                51.40919993527088
              ],
              [
                5.152375350653856,
                51.40899066098428
              ],
              [
                5.152794605865298,
                51.408754547971775
              ],
              [
                5.153174832234218,
                51.40849387052748
              ],
              [
                5.153512368088849,
                51.40821113951513
              ],
              [
                5.153803963136773,
                51.407909078171755
              ],
              [
                5.154046809753077,
                51.407590595866715
              ],
              [
                5.154238569996444,
                51.40725876006918
              ],
              [
                5.1543773980938825,
                51.40691676679513
              ],
              [
                5.154461958178732,
                51.40656790981768
              ],
              [
                5.154491437112607,
                51.40621554893927
              ],
              [
                5.154465552269404,
                51.40586307763029
              ],
              [
                5.154384554208261,
                51.40551389034623
              ],
              [
                5.154249224211586,
                51.405171349838994
              ],
              [
                5.154060866713729,
                51.40483875477577
              ]
            ]
          ]
        ]
      },
      "properties": {
        "type": "buffer_union_400m",
        "buffer_m": 400
      }
    },
    {
      "type": "Feature",
      "geometry": {
        "type": "Polygon",
        "coordinates": [
          [
            [
              5.07118,
              51.393486
            ],
            [
              5.072719,
              51.392395
            ],
            [
              5.074503,
              51.391126
            ],
            [
              5.075042,
              51.390742
            ],
            [
              5.081339,
              51.386265
            ],
            [
              5.08172,
              51.385991
            ],
            [
              5.082671,
              51.385307
            ],
            [
              5.082899,
              51.385143
            ],
            [
              5.083842,
              51.384471
            ],
            [
              5.084376,
              51.384091
            ],
            [
              5.085307,
              51.383428
            ],
            [
              5.08554,
              51.383262
            ],
            [
              5.085947,
              51.382971
            ],
            [
              5.087241,
              51.382048
            ],
            [
              5.087608,
              51.381787
            ],
            [
              5.089496,
              51.380439
            ],
            [
              5.090605,
              51.379648
            ],
            [
              5.093882,
              51.377308
            ],
            [
              5.094176,
              51.377098
            ],
            [
              5.094318,
              51.376997
            ],
            [
              5.095793,
              51.375944
            ],
            [
              5.099799,
              51.373084
            ],
            [
              5.09997,
              51.372962
            ],
            [
              5.100155,
              51.372829
            ],
            [
              5.100248,
              51.372763
            ],
            [
              5.100253,
              51.372759
            ],
            [
              5.100347,
              51.372692
            ],
            [
              5.101329,
              51.371994
            ],
            [
              5.102323,
              51.371285
            ],
            [
              5.106108,
              51.368585
            ],
            [
              5.106151,
              51.368555
            ],
            [
              5.106438,
              51.36835
            ],
            [
              5.107753,
              51.367411
            ],
            [
              5.109361,
              51.366269
            ],
            [
              5.110405,
              51.365528
            ],
            [
              5.11048,
              51.365474
            ],
            [
              5.111827,
              51.364518
            ],
            [
              5.112732,
              51.363871
            ],
            [
              5.11323,
              51.363515
            ],
            [
              5.114393,
              51.362684
            ],
            [
              5.115289,
              51.362043
            ],
            [
              5.11587,
              51.361627
            ],
            [
              5.116151,
              51.361413
            ],
            [
              5.116351,
              51.361283
            ],
            [
              5.116564,
              51.361131
            ],
            [
              5.116596,
              51.361068
            ],
            [
              5.116619,
              51.361026
            ],
            [
              5.116677,
              51.360911
            ],
            [
              5.116686,
              51.360897
            ],
            [
              5.116718,
              51.360833
            ],
            [
              5.116745,
              51.360787
            ],
            [
              5.116768,
              51.360737
            ],
            [
              5.116842,
              51.360597
            ],
            [
              5.117094,
              51.360112
            ],
            [
              5.117133,
              51.360034
            ],
            [
              5.117271,
              51.359769
            ],
            [
              5.11734,
              51.359635
            ],
            [
              5.117431,
              51.359454
            ],
            [
              5.117465,
              51.359388
            ],
            [
              5.117566,
              51.359189
            ],
            [
              5.117609,
              51.359113
            ],
            [
              5.118095,
              51.358171
            ],
            [
              5.118318,
              51.357735
            ],
            [
              5.118336,
              51.357703
            ],
            [
              5.118701,
              51.356997
            ],
            [
              5.118733,
              51.356934
            ],
            [
              5.119127,
              51.35617
            ],
            [
              5.119402,
              51.35564
            ],
            [
              5.120003,
              51.355127
            ],
            [
              5.120052,
              51.355086
            ],
            [
              5.120094,
              51.355051
            ],
            [
              5.120169,
              51.35499
            ],
            [
              5.120274,
              51.3549
            ],
            [
              5.121042,
              51.354244
            ],
            [
              5.121095,
              51.354196
            ],
            [
              5.121175,
              51.354126
            ],
            [
              5.12119,
              51.354115
            ],
            [
              5.12124,
              51.354075
            ],
            [
              5.12213,
              51.353317
            ],
            [
              5.12238,
              51.353101
            ],
            [
              5.122437,
              51.353056
            ],
            [
              5.122794,
              51.35275
            ],
            [
              5.122846,
              51.352708
            ],
            [
              5.123052,
              51.352529
            ],
            [
              5.123107,
              51.352484
            ],
            [
              5.123169,
              51.352428
            ],
            [
              5.123224,
              51.352383
            ],
            [
              5.123964,
              51.351754
            ],
            [
              5.124553,
              51.351254
            ],
            [
              5.125147,
              51.350899
            ],
            [
              5.125964,
              51.350418
            ],
            [
              5.125975,
              51.350412
            ],
            [
              5.126628,
              51.350022
            ],
            [
              5.12674,
              51.349958
            ],
            [
              5.12726,
              51.349649
            ],
            [
              5.127274,
              51.349641
            ],
            [
              5.127388,
              51.349577
            ],
            [
              5.127405,
              51.349567
            ],
            [
              5.127967,
              51.349235
            ],
            [
              5.12883,
              51.348725
            ],
            [
              5.129625,
              51.348255
            ],
            [
              5.130026,
              51.348018
            ],
            [
              5.130135,
              51.347953
            ],
            [
              5.131687,
              51.347045
            ],
            [
              5.131759,
              51.34617
            ],
            [
              5.131889,
              51.344752
            ],
            [
              5.131939,
              51.344193
            ],
            [
              5.131981,
              51.343709
            ],
            [
              5.131988,
              51.34363
            ],
            [
              5.132182,
              51.341443
            ],
            [
              5.132199,
              51.341249
            ],
            [
              5.132273,
              51.340418
            ],
            [
              5.13233,
              51.339766
            ],
            [
              5.132428,
              51.338642
            ],
            [
              5.132486,
              51.337978
            ],
            [
              5.132543,
              51.337329
            ],
            [
              5.132576,
              51.33695
            ],
            [
              5.13297,
              51.332456
            ],
            [
              5.132985,
              51.332278
            ],
            [
              5.133117,
              51.330668
            ],
            [
              5.133328,
              51.328106
            ],
            [
              5.133339,
              51.327963
            ],
            [
              5.133627,
              51.324417
            ],
            [
              5.133668,
              51.323916
            ],
            [
              5.133704,
              51.323469
            ],
            [
              5.133982,
              51.320025
            ],
            [
              5.133992,
              51.319907
            ],
            [
              5.133996,
              51.319851
            ],
            [
              5.134006,
              51.319721
            ],
            [
              5.134068,
              51.318975
            ],
            [
              5.134162,
              51.317832
            ],
            [
              5.134353,
              51.3155
            ],
            [
              5.135438,
              51.315304
            ],
            [
              5.136326,
              51.315144
            ],
            [
              5.13712,
              51.315
            ],
            [
              5.139621,
              51.314552
            ],
            [
              5.140247,
              51.314446
            ],
            [
              5.140542,
              51.314393
            ],
            [
              5.142014,
              51.314117
            ],
            [
              5.144415,
              51.313679
            ],
            [
              5.148528,
              51.312935
            ],
            [
              5.155588,
              51.311642
            ],
            [
              5.157129,
              51.311353
            ],
            [
              5.157726,
              51.311241
            ],
            [
              5.16264,
              51.310317
            ],
            [
              5.167862,
              51.313044
            ],
            [
              5.170743,
              51.314555
            ],
            [
              5.171079,
              51.314731
            ],
            [
              5.171099,
              51.314742
            ],
            [
              5.172049,
              51.31524
            ],
            [
              5.173063,
              51.315772
            ],
            [
              5.175299,
              51.316412
            ],
            [
              5.175318,
              51.316418
            ],
            [
              5.175561,
              51.316488
            ],
            [
              5.177126,
              51.316936
            ],
            [
              5.177381,
              51.317009
            ],
            [
              5.181063,
              51.317867
            ],
            [
              5.186277,
              51.319077
            ],
            [
              5.186376,
              51.3191
            ],
            [
              5.190556,
              51.32007
            ],
            [
              5.193545,
              51.320209
            ],
            [
              5.196565,
              51.320359
            ],
            [
              5.200256,
              51.322662
            ],
            [
              5.200796,
              51.323002
            ],
            [
              5.202262,
              51.323913
            ],
            [
              5.204644,
              51.325381
            ],
            [
              5.204527,
              51.32558
            ],
            [
              5.203679,
              51.327108
            ],
            [
              5.202735,
              51.328747
            ],
            [
              5.200149,
              51.333495
            ],
            [
              5.198233,
              51.337062
            ],
            [
              5.194334,
              51.344211
            ],
            [
              5.193828,
              51.345152
            ],
            [
              5.193878,
              51.345225
            ],
            [
              5.196089,
              51.347999
            ],
            [
              5.196292,
              51.349846
            ],
            [
              5.196243,
              51.34984
            ],
            [
              5.196106,
              51.349821
            ],
            [
              5.196066,
              51.349816
            ],
            [
              5.195991,
              51.349807
            ],
            [
              5.195233,
              51.349704
            ],
            [
              5.195114,
              51.349688
            ],
            [
              5.194728,
              51.350552
            ],
            [
              5.194495,
              51.351076
            ],
            [
              5.193896,
              51.350984
            ],
            [
              5.19234,
              51.350737
            ],
            [
              5.192322,
              51.350781
            ],
            [
              5.192283,
              51.350877
            ],
            [
              5.192113,
              51.353343
            ],
            [
              5.192113,
              51.353345
            ],
            [
              5.19207,
              51.35395
            ],
            [
              5.191992,
              51.355042
            ],
            [
              5.191988,
              51.355092
            ],
            [
              5.191943,
              51.355765
            ],
            [
              5.191914,
              51.356187
            ],
            [
              5.191914,
              51.356223
            ],
            [
              5.191911,
              51.356655
            ],
            [
              5.191895,
              51.357962
            ],
            [
              5.191892,
              51.358273
            ],
            [
              5.191888,
              51.358379
            ],
            [
              5.191963,
              51.35839
            ],
            [
              5.191962,
              51.358513
            ],
            [
              5.191962,
              51.358514
            ],
            [
              5.191957,
              51.359536
            ],
            [
              5.191955,
              51.360048
            ],
            [
              5.19195,
              51.36134
            ],
            [
              5.19195,
              51.361341
            ],
            [
              5.191948,
              51.361376
            ],
            [
              5.191948,
              51.361377
            ],
            [
              5.191934,
              51.361633
            ],
            [
              5.194349,
              51.361633
            ],
            [
              5.196287,
              51.361635
            ],
            [
              5.196332,
              51.361636
            ],
            [
              5.195736,
              51.362051
            ],
            [
              5.195392,
              51.362291
            ],
            [
              5.196357,
              51.362482
            ],
            [
              5.197372,
              51.362681
            ],
            [
              5.197471,
              51.362701
            ],
            [
              5.196523,
              51.363176
            ],
            [
              5.196356,
              51.363255
            ],
            [
              5.196186,
              51.363318
            ],
            [
              5.195883,
              51.363428
            ],
            [
              5.195152,
              51.363694
            ],
            [
              5.194214,
              51.364034
            ],
            [
              5.192901,
              51.364511
            ],
            [
              5.192138,
              51.364797
            ],
            [
              5.191853,
              51.364953
            ],
            [
              5.191731,
              51.365046
            ],
            [
              5.191701,
              51.365067
            ],
            [
              5.191436,
              51.365337
            ],
            [
              5.190605,
              51.366227
            ],
            [
              5.190691,
              51.366258
            ],
            [
              5.192102,
              51.366769
            ],
            [
              5.192155,
              51.366788
            ],
            [
              5.192064,
              51.366821
            ],
            [
              5.191896,
              51.366881
            ],
            [
              5.191787,
              51.366938
            ],
            [
              5.191721,
              51.366994
            ],
            [
              5.191672,
              51.367066
            ],
            [
              5.191653,
              51.367138
            ],
            [
              5.191588,
              51.367616
            ],
            [
              5.191528,
              51.368056
            ],
            [
              5.191466,
              51.368524
            ],
            [
              5.191418,
              51.368882
            ],
            [
              5.191407,
              51.368969
            ],
            [
              5.191283,
              51.369886
            ],
            [
              5.19125,
              51.370126
            ],
            [
              5.191204,
              51.37033
            ],
            [
              5.191093,
              51.370709
            ],
            [
              5.19079,
              51.371713
            ],
            [
              5.19074,
              51.371814
            ],
            [
              5.190659,
              51.371905
            ],
            [
              5.190551,
              51.371987
            ],
            [
              5.190437,
              51.372054
            ],
            [
              5.188517,
              51.372906
            ],
            [
              5.188276,
              51.373013
            ],
            [
              5.187567,
              51.373328
            ],
            [
              5.187133,
              51.373521
            ],
            [
              5.186135,
              51.373963
            ],
            [
              5.18535,
              51.37431
            ],
            [
              5.185216,
              51.37437
            ],
            [
              5.184465,
              51.374703
            ],
            [
              5.184347,
              51.374763
            ],
            [
              5.184222,
              51.374844
            ],
            [
              5.18418,
              51.374876
            ],
            [
              5.183642,
              51.375377
            ],
            [
              5.183204,
              51.375785
            ],
            [
              5.183274,
              51.375792
            ],
            [
              5.183321,
              51.375797
            ],
            [
              5.184561,
              51.375928
            ],
            [
              5.184972,
              51.3759
            ],
            [
              5.185206,
              51.375864
            ],
            [
              5.185415,
              51.375841
            ],
            [
              5.185567,
              51.375809
            ],
            [
              5.185855,
              51.375691
            ],
            [
              5.185848,
              51.375579
            ],
            [
              5.186128,
              51.375443
            ],
            [
              5.186128,
              51.375443
            ],
            [
              5.186143,
              51.375436
            ],
            [
              5.186374,
              51.375336
            ],
            [
              5.187976,
              51.374519
            ],
            [
              5.187988,
              51.374513
            ],
            [
              5.188136,
              51.375377
            ],
            [
              5.188156,
              51.375512
            ],
            [
              5.188157,
              51.375518
            ],
            [
              5.188143,
              51.375903
            ],
            [
              5.188143,
              51.376171
            ],
            [
              5.188142,
              51.376252
            ],
            [
              5.18814,
              51.376348
            ],
            [
              5.18814,
              51.37642
            ],
            [
              5.18814,
              51.37648
            ],
            [
              5.188112,
              51.376589
            ],
            [
              5.188135,
              51.376675
            ],
            [
              5.188211,
              51.376838
            ],
            [
              5.188374,
              51.37712
            ],
            [
              5.188431,
              51.377218
            ],
            [
              5.188414,
              51.377267
            ],
            [
              5.188327,
              51.377508
            ],
            [
              5.188317,
              51.377534
            ],
            [
              5.188508,
              51.37762
            ],
            [
              5.190215,
              51.377869
            ],
            [
              5.190851,
              51.377962
            ],
            [
              5.190871,
              51.377965
            ],
            [
              5.192571,
              51.378212
            ],
            [
              5.192963,
              51.378272
            ],
            [
              5.193014,
              51.378264
            ],
            [
              5.193028,
              51.378175
            ],
            [
              5.193057,
              51.378171
            ],
            [
              5.193609,
              51.378379
            ],
            [
              5.193978,
              51.378518
            ],
            [
              5.194871,
              51.378863
            ],
            [
              5.195023,
              51.378922
            ],
            [
              5.195024,
              51.378927
            ],
            [
              5.195225,
              51.378839
            ],
            [
              5.196979,
              51.379464
            ],
            [
              5.195949,
              51.380284
            ],
            [
              5.196906,
              51.380867
            ],
            [
              5.197477,
              51.381216
            ],
            [
              5.198795,
              51.382019
            ],
            [
              5.199269,
              51.382308
            ],
            [
              5.197612,
              51.383339
            ],
            [
              5.197626,
              51.383405
            ],
            [
              5.197684,
              51.383694
            ],
            [
              5.197711,
              51.383827
            ],
            [
              5.197485,
              51.383971
            ],
            [
              5.197403,
              51.384018
            ],
            [
              5.197431,
              51.384066
            ],
            [
              5.19768,
              51.38449
            ],
            [
              5.197748,
              51.384606
            ],
            [
              5.19784,
              51.384762
            ],
            [
              5.197941,
              51.384934
            ],
            [
              5.198518,
              51.385916
            ],
            [
              5.19887,
              51.386514
            ],
            [
              5.199906,
              51.388276
            ],
            [
              5.199937,
              51.388327
            ],
            [
              5.200434,
              51.389173
            ],
            [
              5.200901,
              51.389967
            ],
            [
              5.200959,
              51.390066
            ],
            [
              5.200939,
              51.390098
            ],
            [
              5.200427,
              51.390907
            ],
            [
              5.200362,
              51.391011
            ],
            [
              5.200219,
              51.391236
            ],
            [
              5.199921,
              51.391707
            ],
            [
              5.199026,
              51.393122
            ],
            [
              5.199011,
              51.393146
            ],
            [
              5.198999,
              51.393166
            ],
            [
              5.198472,
              51.394001
            ],
            [
              5.198173,
              51.394476
            ],
            [
              5.198038,
              51.394689
            ],
            [
              5.197524,
              51.3955
            ],
            [
              5.196802,
              51.396639
            ],
            [
              5.196711,
              51.396784
            ],
            [
              5.195352,
              51.398936
            ],
            [
              5.195082,
              51.399363
            ],
            [
              5.194771,
              51.399856
            ],
            [
              5.194754,
              51.399932
            ],
            [
              5.194742,
              51.39999
            ],
            [
              5.194731,
              51.400039
            ],
            [
              5.194684,
              51.400261
            ],
            [
              5.194669,
              51.400334
            ],
            [
              5.194557,
              51.400859
            ],
            [
              5.194348,
              51.401835
            ],
            [
              5.194139,
              51.402816
            ],
            [
              5.19413,
              51.402855
            ],
            [
              5.194032,
              51.403317
            ],
            [
              5.193927,
              51.403809
            ],
            [
              5.193787,
              51.404466
            ],
            [
              5.193783,
              51.404483
            ],
            [
              5.193783,
              51.404484
            ],
            [
              5.193777,
              51.404509
            ],
            [
              5.193774,
              51.404525
            ],
            [
              5.193749,
              51.404643
            ],
            [
              5.193739,
              51.404689
            ],
            [
              5.193143,
              51.407479
            ],
            [
              5.193132,
              51.407533
            ],
            [
              5.192824,
              51.408976
            ],
            [
              5.192643,
              51.409823
            ],
            [
              5.192596,
              51.410041
            ],
            [
              5.19209,
              51.412411
            ],
            [
              5.192048,
              51.412609
            ],
            [
              5.191865,
              51.413468
            ],
            [
              5.191773,
              51.413898
            ],
            [
              5.191755,
              51.41398
            ],
            [
              5.191694,
              51.414266
            ],
            [
              5.191491,
              51.415216
            ],
            [
              5.191476,
              51.41529
            ],
            [
              5.191157,
              51.416783
            ],
            [
              5.191115,
              51.416976
            ],
            [
              5.19109,
              51.417094
            ],
            [
              5.190905,
              51.417961
            ],
            [
              5.190896,
              51.418002
            ],
            [
              5.190852,
              51.418211
            ],
            [
              5.190848,
              51.418642
            ],
            [
              5.190846,
              51.41881
            ],
            [
              5.190839,
              51.419606
            ],
            [
              5.190837,
              51.419796
            ],
            [
              5.190823,
              51.421394
            ],
            [
              5.190819,
              51.421817
            ],
            [
              5.190816,
              51.422455
            ],
            [
              5.190792,
              51.42695
            ],
            [
              5.190782,
              51.428845
            ],
            [
              5.190777,
              51.429746
            ],
            [
              5.190769,
              51.429745
            ],
            [
              5.190824,
              51.429848
            ],
            [
              5.19102,
              51.430216
            ],
            [
              5.190694,
              51.430175
            ],
            [
              5.190227,
              51.430116
            ],
            [
              5.190204,
              51.430117
            ],
            [
              5.190113,
              51.430099
            ],
            [
              5.189554,
              51.429999
            ],
            [
              5.187813,
              51.429697
            ],
            [
              5.187543,
              51.429655
            ],
            [
              5.187144,
              51.429594
            ],
            [
              5.186704,
              51.429448
            ],
            [
              5.185964,
              51.429161
            ],
            [
              5.185892,
              51.42913
            ],
            [
              5.185216,
              51.428844
            ],
            [
              5.184981,
              51.428764
            ],
            [
              5.184049,
              51.428978
            ],
            [
              5.183203,
              51.429141
            ],
            [
              5.181697,
              51.429421
            ],
            [
              5.181378,
              51.429479
            ],
            [
              5.180903,
              51.429565
            ],
            [
              5.179466,
              51.429924
            ],
            [
              5.178154,
              51.430261
            ],
            [
              5.177948,
              51.430119
            ],
            [
              5.177678,
              51.430004
            ],
            [
              5.177138,
              51.429787
            ],
            [
              5.176649,
              51.42975
            ],
            [
              5.17572,
              51.429312
            ],
            [
              5.175668,
              51.429288
            ],
            [
              5.173573,
              51.42838
            ],
            [
              5.173372,
              51.428287
            ],
            [
              5.171729,
              51.429193
            ],
            [
              5.170766,
              51.429733
            ],
            [
              5.16931,
              51.430022
            ],
            [
              5.166906,
              51.430504
            ],
            [
              5.165205,
              51.430844
            ],
            [
              5.162459,
              51.431393
            ],
            [
              5.159865,
              51.431911
            ],
            [
              5.158553,
              51.432174
            ],
            [
              5.15841,
              51.431385
            ],
            [
              5.157994,
              51.429085
            ],
            [
              5.157948,
              51.428831
            ],
            [
              5.157837,
              51.428825
            ],
            [
              5.157748,
              51.428821
            ],
            [
              5.157135,
              51.428813
            ],
            [
              5.154896,
              51.428782
            ],
            [
              5.154872,
              51.428914
            ],
            [
              5.15488,
              51.428925
            ],
            [
              5.154888,
              51.428943
            ],
            [
              5.154896,
              51.428972
            ],
            [
              5.154904,
              51.428998
            ],
            [
              5.154903,
              51.429017
            ],
            [
              5.154894,
              51.429039
            ],
            [
              5.154866,
              51.429032
            ],
            [
              5.154846,
              51.428923
            ],
            [
              5.154767,
              51.428867
            ],
            [
              5.154623,
              51.428859
            ],
            [
              5.154437,
              51.428843
            ],
            [
              5.154317,
              51.428814
            ],
            [
              5.154278,
              51.428745
            ],
            [
              5.154286,
              51.428615
            ],
            [
              5.154187,
              51.428595
            ],
            [
              5.154052,
              51.428675
            ],
            [
              5.153786,
              51.42877
            ],
            [
              5.153615,
              51.428802
            ],
            [
              5.153454,
              51.42878
            ],
            [
              5.1534,
              51.428729
            ],
            [
              5.153446,
              51.42869
            ],
            [
              5.153551,
              51.428596
            ],
            [
              5.153544,
              51.428496
            ],
            [
              5.153465,
              51.42843
            ],
            [
              5.153212,
              51.428354
            ],
            [
              5.153151,
              51.428295
            ],
            [
              5.153135,
              51.428312
            ],
            [
              5.1525,
              51.428969
            ],
            [
              5.152444,
              51.429026
            ],
            [
              5.150978,
              51.428918
            ],
            [
              5.150841,
              51.428909
            ],
            [
              5.149056,
              51.428775
            ],
            [
              5.148405,
              51.428727
            ],
            [
              5.144348,
              51.428764
            ],
            [
              5.143122,
              51.428761
            ],
            [
              5.143116,
              51.428761
            ],
            [
              5.142756,
              51.428763
            ],
            [
              5.141904,
              51.428766
            ],
            [
              5.141855,
              51.428773
            ],
            [
              5.141829,
              51.428771
            ],
            [
              5.141803,
              51.42877
            ],
            [
              5.141686,
              51.428766
            ],
            [
              5.141686,
              51.428728
            ],
            [
              5.141305,
              51.428719
            ],
            [
              5.137425,
              51.428636
            ],
            [
              5.129679,
              51.428471
            ],
            [
              5.128378,
              51.428445
            ],
            [
              5.127124,
              51.428421
            ],
            [
              5.122723,
              51.428335
            ],
            [
              5.120846,
              51.428297
            ],
            [
              5.119459,
              51.428275
            ],
            [
              5.116292,
              51.428393
            ],
            [
              5.116163,
              51.428393
            ],
            [
              5.115304,
              51.428425
            ],
            [
              5.113999,
              51.428474
            ],
            [
              5.112896,
              51.428515
            ],
            [
              5.102021,
              51.428923
            ],
            [
              5.099769,
              51.426761
            ],
            [
              5.099632,
              51.426628
            ],
            [
              5.098841,
              51.42587
            ],
            [
              5.096809,
              51.423855
            ],
            [
              5.095861,
              51.422902
            ],
            [
              5.095237,
              51.422283
            ],
            [
              5.095209,
              51.422255
            ],
            [
              5.095164,
              51.422212
            ],
            [
              5.095124,
              51.422167
            ],
            [
              5.092738,
              51.419461
            ],
            [
              5.091592,
              51.418087
            ],
            [
              5.091312,
              51.417751
            ],
            [
              5.088318,
              51.414161
            ],
            [
              5.088214,
              51.414036
            ],
            [
              5.08756,
              51.413247
            ],
            [
              5.085359,
              51.410593
            ],
            [
              5.083954,
              51.408899
            ],
            [
              5.083874,
              51.408802
            ],
            [
              5.083825,
              51.408743
            ],
            [
              5.083762,
              51.408667
            ],
            [
              5.08021,
              51.404382
            ],
            [
              5.080091,
              51.404239
            ],
            [
              5.0798,
              51.403888
            ],
            [
              5.079717,
              51.403787
            ],
            [
              5.078036,
              51.401759
            ],
            [
              5.076358,
              51.399735
            ],
            [
              5.075956,
              51.39925
            ],
            [
              5.07293,
              51.395598
            ],
            [
              5.072626,
              51.39523
            ],
            [
              5.07118,
              51.393486
            ]
          ]
        ]
      },
      "properties": {
        "type": "boundary",
        "gemeente": "Reusel-De Mierden"
      }
    }
  ]
}