{
  "type": "FeatureCollection",
  "metadata": {
    "gemeente": "Schiermonnikoog",
    "slug": "schiermonnikoog",
    "generated_at": "2026-05-19T20:05:44.721300Z",
    "total_points": 3,
    "providers": [
      "DHL",
      "DPD",
      "PostNL"
    ],
    "bounds": [
      6.156630516052246,
      53.4774116,
      6.161531775,
      53.4782568
    ]
  },
  "features": [
    {
      "type": "Feature",
      "geometry": {
        "type": "Point",
        "coordinates": [
          6.156630516052246,
          53.478092193603516
        ]
      },
      "properties": {
        "type": "pakketpunt",
        "locatieNaam": "Kolstein lifestyle & boeken",
        "straatNaam": "Middenstreek",
        "straatNr": "38",
        "vervoerder": "DHL",
        "puntType": "parcelShop",
        "bezettingsgraad": 50,
        "latitude": 53.478092193603516,
        "longitude": 6.156630516052246,
        "canPickup": true,
        "canDropoff": true,
        "openingstijden": {
          "ma": "09:00 - 17:00",
          "di": "09:00 - 17:00",
          "wo": "09:00 - 17:00",
          "do": "09:00 - 17:00",
          "vr": "09:00 - 17:00",
          "za": "09:00 - 17:00",
          "zo": "gesloten"
        }
      }
    },
    {
      "type": "Feature",
      "geometry": {
        "type": "Point",
        "coordinates": [
          6.1575832,
          53.4782568
        ]
      },
      "properties": {
        "type": "pakketpunt",
        "locatieNaam": "Boekhandel Kolstein",
        "straatNaam": "MIDDENSTREEK",
        "straatNr": "38",
        "vervoerder": "DPD",
        "puntType": "pickup_point",
        "bezettingsgraad": 50,
        "latitude": 53.4782568,
        "longitude": 6.1575832,
        "canPickup": true,
        "canDropoff": true,
        "openingstijden": {
          "ma": "09:00 - 17:00",
          "di": "09:00 - 17:00",
          "wo": "09:00 - 17:00",
          "do": "09:00 - 17:00",
          "vr": "09:00 - 17:00",
          "za": "09:00 - 17:00",
          "zo": "gesloten"
        }
      }
    },
    {
      "type": "Feature",
      "geometry": {
        "type": "Point",
        "coordinates": [
          6.161531775,
          53.4774116
        ]
      },
      "properties": {
        "type": "pakketpunt",
        "locatieNaam": "VVV",
        "straatNaam": "Reeweg",
        "straatNr": "9",
        "vervoerder": "PostNL",
        "puntType": "servicepunt",
        "bezettingsgraad": 50,
        "latitude": 53.4774116,
        "longitude": 6.161531775,
        "canPickup": true,
        "canDropoff": true,
        "openingstijden": "09:30 - 17:00 (Zaterdag open)"
      }
    },
    {
      "type": "Feature",
      "geometry": {
        "type": "Polygon",
        "coordinates": [
          [
            [
              6.166023148419701,
              53.47711845423204
            ],
            [
              6.165953342666788,
              53.47685724166895
            ],
            [
              6.1658409564818015,
              53.47660136860625
            ],
            [
              6.165687072902241,
              53.47635329912463
            ],
            [
              6.165493174517702,
              53.4761154221147
            ],
            [
              6.165261129168429,
              53.475890028276055
            ],
            [
              6.164993171938053,
              53.475679288064114
            ],
            [
              6.164691883614698,
              53.4754852307954
            ],
            [
              6.164360165828365,
              53.475309725112865
            ],
            [
              6.164001213104417,
              53.47515446099881
            ],
            [
              6.163618482102308,
              53.47502093350843
            ],
            [
              6.163215658335761,
              53.47491042838015
            ],
            [
              6.162796620694407,
              53.47482400966122
            ],
            [
              6.162365404108097,
              53.474762509467
            ],
            [
              6.16192616071257,
              53.47472651997298
            ],
            [
              6.16148311988964,
              53.474716387715645
            ],
            [
              6.161040547565588,
              53.47473221025767
            ],
            [
              6.160602705158661,
              53.47477383524883
            ],
            [
              6.160173808569843,
              53.47484086189235
            ],
            [
              6.1597579876106465,
              53.4749326448015
            ],
            [
              6.159359246257553,
              53.47504830021093
            ],
            [
              6.158981424114847,
              53.475186714481715
            ],
            [
              6.158628159456063,
              53.475346554819275
            ],
            [
              6.158302854199274,
              53.47552628210068
            ],
            [
              6.158231895918693,
              53.475574007883175
            ],
            [
              6.157895677485347,
              53.47550465476601
            ],
            [
              6.157464460988199,
              53.475443137053695
            ],
            [
              6.157025214640846,
              53.47540712971433
            ],
            [
              6.156582167853531,
              53.475396979456264
            ],
            [
              6.15613958660995,
              53.475412784015454
            ],
            [
              6.155701732414215,
              53.475454391214846
            ],
            [
              6.155272821280767,
              53.475521400428924
            ],
            [
              6.154856983161112,
              53.475613166438855
            ],
            [
              6.1544582221968875,
              53.47572880564193
            ],
            [
              6.15408037818113,
              53.47586720455537
            ],
            [
              6.1537270895979,
              53.47602703053234
            ],
            [
              6.153401758595538,
              53.47620674458833
            ],
            [
              6.153107518230358,
              53.47640461621323
            ],
            [
              6.1528472022958445,
              53.47661874002867
            ],
            [
              6.152623318027948,
              53.476847054128164
            ],
            [
              6.15243802194936,
              53.47708735992665
            ],
            [
              6.152293099085874,
              53.47733734332554
            ],
            [
              6.152189945755498,
              53.47759459699216
            ],
            [
              6.152129556096891,
              53.47785664353832
            ],
            [
              6.152112512467755,
              53.478120959374486
            ],
            [
              6.152138979806745,
              53.47838499901135
            ],
            [
              6.152208704014306,
              53.47864621957335
            ],
            [
              6.152321014369224,
              53.47890210528922
            ],
            [
              6.152474829958783,
              53.47915019172306
            ],
            [
              6.1526686700617494,
              53.47938808951265
            ],
            [
              6.152900668385187,
              53.47961350738644
            ],
            [
              6.1531685910189164,
              53.479824274236485
            ],
            [
              6.1534698579354385,
              53.480018360035935
            ],
            [
              6.153801567828772,
              53.48019389539769
            ],
            [
              6.154160526053348,
              53.48034918958688
            ],
            [
              6.154543275393943,
              53.48048274681239
            ],
            [
              6.1549461293702175,
              53.48059328064074
            ],
            [
              6.1553652077547065,
              53.48067972639308
            ],
            [
              6.155796473961656,
              53.480741251405355
            ],
            [
              6.155855953141533,
              53.480746127312656
            ],
            [
              6.155898862522509,
              53.48075790010733
            ],
            [
              6.156317944419993,
              53.48084434253572
            ],
            [
              6.156749213632159,
              53.48090586413019
            ],
            [
              6.157188516084813,
              53.480941872298956
            ],
            [
              6.157631620282695,
              53.48095202020169
            ],
            [
              6.158074258090784,
              53.48093621009196
            ],
            [
              6.158512165869507,
              53.48089459425929
            ],
            [
              6.158941125566484,
              53.48082757356139
            ],
            [
              6.159357005367946,
              53.48073579356089
            ],
            [
              6.159755799517156,
              53.48062013830362
            ],
            [
              6.160133666915369,
              53.48048172179886
            ],
            [
              6.160486968132657,
              53.480321877283735
            ],
            [
              6.160812300471464,
              53.480142144375286
            ],
            [
              6.160907848611799,
              53.48007788194438
            ],
            [
              6.161137345824489,
              53.48009668558956
            ],
            [
              6.161580442148634,
              53.48010681899486
            ],
            [
              6.162023069705063,
              53.4800909943994
            ],
            [
              6.162460964952975,
              53.480049364232144
            ],
            [
              6.162889909960738,
              53.47998232948899
            ],
            [
              6.163305773056128,
              53.47989053586778
            ],
            [
              6.16370454864339,
              53.47977486754554
            ],
            [
              6.164082395802644,
              53.479636438657444
            ],
            [
              6.164435675298978,
              53.47947658255987
            ],
            [
              6.164760984644128,
              53.47929683898137
            ],
            [
              6.165055190872487,
              53.47909893918554
            ],
            [
              6.165315460715557,
              53.47888478928911
            ],
            [
              6.165539287884056,
              53.47865645189565
            ],
            [
              6.165724517195204,
              53.478416126223465
            ],
            [
              6.165869365313112,
              53.47816612691777
            ],
            [
              6.165972437903139,
              53.477908861752624
            ],
            [
              6.166032743035823,
              53.47764680843723
            ],
            [
              6.166049700712173,
              53.47738249075029
            ],
            [
              6.166023148419701,
              53.47711845423204
            ]
          ]
        ]
      },
      "properties": {
        "type": "buffer_union_300m",
        "buffer_m": 300
      }
    },
    {
      "type": "Feature",
      "geometry": {
        "type": "Polygon",
        "coordinates": [
          [
            [
              6.167520258217373,
              53.4770207002357
            ],
            [
              6.167427172138665,
              53.476672417969134
            ],
            [
              6.167277313133696,
              53.47633125568597
            ],
            [
              6.1670721256658325,
              53.47600049875805
            ],
            [
              6.16681358688088,
              53.47568333228126
            ],
            [
              6.166504187524676,
              53.47538281041145
            ],
            [
              6.1661469079222,
              53.47510182696444
            ],
            [
              6.165745189250816,
              53.47484308756094
            ],
            [
              6.165302900385314,
              53.474609083585754
            ],
            [
              6.164824300634505,
              53.47440206821021
            ],
            [
              6.1643139987284945,
              53.47422403470894
            ],
            [
              6.163776908451271,
              53.474076697278775
            ],
            [
              6.163218201345274,
              53.47396147454401
            ],
            [
              6.162643256942362,
              53.473879475906436
            ],
            [
              6.162057610999132,
              53.473831490871
            ],
            [
              6.16146690223344,
              53.4738179814496
            ],
            [
              6.160876818073197,
              53.47383907771602
            ],
            [
              6.160293039937894,
              53.47389457655426
            ],
            [
              6.159721188577752,
              53.4739839436126
            ],
            [
              6.159166769994756,
              53.474106318444626
            ],
            [
              6.158635122464462,
              53.47426052278809
            ],
            [
              6.1581313651669305,
              53.47444507190127
            ],
            [
              6.157844819217277,
              53.4745747235244
            ],
            [
              6.157742419089996,
              53.47456011481932
            ],
            [
              6.157156769210916,
              53.474512105990755
            ],
            [
              6.156566052493015,
              53.47449857256903
            ],
            [
              6.155975956440754,
              53.47451964485897
            ],
            [
              6.155392162588073,
              53.474575119975384
            ],
            [
              6.154820291836437,
              53.474664463795015
            ],
            [
              6.1542658503744265,
              53.474786816095225
            ],
            [
              6.153734176697756,
              53.47494099883059
            ],
            [
              6.153230390238081,
              53.47512552746747
            ],
            [
              6.152759342093752,
              53.47533862526835
            ],
            [
              6.152325568335709,
              53.47557824038823
            ],
            [
              6.151933246337268,
              53.47584206561969
            ],
            [
              6.151586154547749,
              53.47612756059639
            ],
            [
              6.151287636097305,
              53.47643197624227
            ],
            [
              6.1510405665835926,
              53.47675238123153
            ],
            [
              6.150847326351243,
              53.47708569020489
            ],
            [
              6.150709777532122,
              53.47742869347094
            ],
            [
              6.150629246068836,
              53.47777808790781
            ],
            [
              6.1506065088963044,
              53.478130508766256
            ],
            [
              6.150641786406702,
              53.47848256207044
            ],
            [
              6.150734740272357,
              53.47883085730211
            ],
            [
              6.150884476649696,
              53.47917204005544
            ],
            [
              6.151089554735432,
              53.47950282434682
            ],
            [
              6.151348000594635,
              53.47982002426852
            ],
            [
              6.151657326129329,
              53.48012058468142
            ],
            [
              6.152014553006501,
              53.48040161065027
            ],
            [
              6.15241624131643,
              53.480660395337914
            ],
            [
              6.152858522686277,
              53.48089444608913
            ],
            [
              6.153337137530558,
              53.4811015084522
            ],
            [
              6.153847476079975,
              53.48127958790658
            ],
            [
              6.154384622793173,
              53.48142696908645
            ],
            [
              6.154943403723056,
              53.481542232314574
            ],
            [
              6.155444964967512,
              53.48161378592166
            ],
            [
              6.155896157961861,
              53.48170685170625
            ],
            [
              6.1564711946265565,
              53.48178888212122
            ],
            [
              6.1570569431514945,
              53.48183689397036
            ],
            [
              6.157647761084776,
              53.48185042476304
            ],
            [
              6.158237957105536,
              53.481829344160815
            ],
            [
              6.158821845889129,
              53.48177385523393
            ],
            [
              6.159393802914267,
              53.48168449250363
            ],
            [
              6.159948318682252,
              53.48156211678915
            ],
            [
              6.160480051824123,
              53.48140790690986
            ],
            [
              6.160983880582436,
              53.48122334832168
            ],
            [
              6.161454952170268,
              53.48101021879907
            ],
            [
              6.161469267928567,
              53.48100230988869
            ],
            [
              6.161596665245942,
              53.48100522315424
            ],
            [
              6.162186847597079,
              53.48098412323714
            ],
            [
              6.162770719671906,
              53.48092861519708
            ],
            [
              6.163342657110173,
              53.48083923373937
            ],
            [
              6.163897150601958,
              53.48071683986361
            ],
            [
              6.164428858992997,
              53.4805626125641
            ],
            [
              6.16493266076439,
              53.480378037464625
            ],
            [
              6.165403703389302,
              53.48016489249863
            ],
            [
              6.165837450090061,
              53.47992523077217
            ],
            [
              6.166229723544403,
              53.47966136077587
            ],
            [
              6.166576746119356,
              53.47937582413707
            ],
            [
              6.1668751762451794,
              53.47907137112634
            ],
            [
              6.1671221405793055,
              53.47875093415585
            ],
            [
              6.1673152616511775,
              53.478417599524526
            ],
            [
              6.1674526807227945,
              53.47807457768329
            ],
            [
              6.1675330756461815,
              53.477725172306705
            ],
            [
              6.167555673547485,
              53.47737274846965
            ],
            [
              6.167520258217373,
              53.4770207002357
            ]
          ]
        ]
      },
      "properties": {
        "type": "buffer_union_400m",
        "buffer_m": 400
      }
    },
    {
      "type": "Feature",
      "geometry": {
        "type": "Polygon",
        "coordinates": [
          [
            [
              6.050125,
              53.492337
            ],
            [
              6.065211,
              53.493377
            ],
            [
              6.080298,
              53.494414
            ],
            [
              6.095373,
              53.495449
            ],
            [
              6.110461,
              53.496483
            ],
            [
              6.115636,
              53.505436
            ],
            [
              6.120814,
              53.514391
            ],
            [
              6.125992,
              53.523344
            ],
            [
              6.139385,
              53.52126
            ],
            [
              6.152936,
              53.51915
            ],
            [
              6.169533,
              53.516564
            ],
            [
              6.186128,
              53.513975
            ],
            [
              6.199775,
              53.515237
            ],
            [
              6.21336,
              53.516492
            ],
            [
              6.226946,
              53.517745
            ],
            [
              6.240533,
              53.518997
            ],
            [
              6.254121,
              53.520248
            ],
            [
              6.26771,
              53.521496
            ],
            [
              6.281299,
              53.522743
            ],
            [
              6.294889,
              53.523989
            ],
            [
              6.30848,
              53.525233
            ],
            [
              6.322072,
              53.526476
            ],
            [
              6.337298,
              53.533096
            ],
            [
              6.352528,
              53.539713
            ],
            [
              6.352339,
              53.531336
            ],
            [
              6.352265,
              53.528048
            ],
            [
              6.352224,
              53.526238
            ],
            [
              6.352123,
              53.521746
            ],
            [
              6.367249,
              53.523871
            ],
            [
              6.382272,
              53.521501
            ],
            [
              6.387199,
              53.52172
            ],
            [
              6.393253,
              53.521722
            ],
            [
              6.395189,
              53.52163
            ],
            [
              6.40001,
              53.5214
            ],
            [
              6.404449,
              53.520886
            ],
            [
              6.411133,
              53.517487
            ],
            [
              6.41601,
              53.512989
            ],
            [
              6.418681,
              53.505645
            ],
            [
              6.417751,
              53.500295
            ],
            [
              6.415015,
              53.497507
            ],
            [
              6.408991,
              53.494853
            ],
            [
              6.404121,
              53.494246
            ],
            [
              6.40221,
              53.494008
            ],
            [
              6.393862,
              53.494609
            ],
            [
              6.383923,
              53.495429
            ],
            [
              6.381647,
              53.494551
            ],
            [
              6.366633,
              53.49692
            ],
            [
              6.351567,
              53.497042
            ],
            [
              6.351415,
              53.490304
            ],
            [
              6.351328,
              53.486435
            ],
            [
              6.351257,
              53.483257
            ],
            [
              6.350426,
              53.446269
            ],
            [
              6.311237,
              53.438029
            ],
            [
              6.309585,
              53.437681
            ],
            [
              6.273988,
              53.430183
            ],
            [
              6.266675,
              53.42864
            ],
            [
              6.210851,
              53.41685
            ],
            [
              6.19402,
              53.413289
            ],
            [
              6.184281,
              53.41465
            ],
            [
              6.180521,
              53.415176
            ],
            [
              6.176416,
              53.415749
            ],
            [
              6.169279,
              53.416746
            ],
            [
              6.157315,
              53.418415
            ],
            [
              6.154276,
              53.418839
            ],
            [
              6.146768,
              53.419886
            ],
            [
              6.110531,
              53.424931
            ],
            [
              6.101788,
              53.426147
            ],
            [
              6.101755,
              53.426151
            ],
            [
              6.07924,
              53.429278
            ],
            [
              6.068852,
              53.4518
            ],
            [
              6.058452,
              53.474321
            ],
            [
              6.050125,
              53.492337
            ]
          ]
        ]
      },
      "properties": {
        "type": "boundary",
        "gemeente": "Schiermonnikoog"
      }
    }
  ]
}