{
  "type": "FeatureCollection",
  "metadata": {
    "gemeente": "Vlieland",
    "slug": "vlieland",
    "generated_at": "2026-05-19T20:09:21.913576Z",
    "total_points": 4,
    "providers": [
      "Amazon",
      "DHL",
      "DPD",
      "PostNL"
    ],
    "bounds": [
      5.069592262,
      53.2960334,
      5.0734083,
      53.2964407
    ]
  },
  "features": [
    {
      "type": "Feature",
      "geometry": {
        "type": "Point",
        "coordinates": [
          5.069592262,
          53.2960334
        ]
      },
      "properties": {
        "type": "pakketpunt",
        "locatieNaam": "Primera",
        "straatNaam": "Dorpsstraat 74",
        "straatNr": "",
        "vervoerder": "Amazon",
        "puntType": "3p",
        "bezettingsgraad": 50,
        "latitude": 53.2960334,
        "longitude": 5.069592262,
        "canPickup": true,
        "canDropoff": false,
        "openingstijden": null
      }
    },
    {
      "type": "Feature",
      "geometry": {
        "type": "Point",
        "coordinates": [
          5.072669506072998,
          53.29629898071289
        ]
      },
      "properties": {
        "type": "pakketpunt",
        "locatieNaam": "Winkel de Coupure",
        "straatNaam": "Dorpsstraat",
        "straatNr": "2",
        "vervoerder": "DHL",
        "puntType": "parcelShop",
        "bezettingsgraad": 50,
        "latitude": 53.29629898071289,
        "longitude": 5.072669506072998,
        "canPickup": true,
        "canDropoff": true,
        "openingstijden": {
          "ma": "09:00 - 17:00",
          "di": "09:00 - 17:00",
          "wo": "09:00 - 17:00",
          "do": "09:00 - 17:00",
          "vr": "09:00 - 17:00",
          "za": "09:00 - 17:00",
          "zo": "09:00 - 17:00"
        }
      }
    },
    {
      "type": "Feature",
      "geometry": {
        "type": "Point",
        "coordinates": [
          5.0734083,
          53.2964407
        ]
      },
      "properties": {
        "type": "pakketpunt",
        "locatieNaam": "Winkel de Coupure",
        "straatNaam": "DORPSSTRAAT",
        "straatNr": "2",
        "vervoerder": "DPD",
        "puntType": "pickup_point",
        "bezettingsgraad": 50,
        "latitude": 53.2964407,
        "longitude": 5.0734083,
        "canPickup": true,
        "canDropoff": true,
        "openingstijden": {
          "ma": "09:00 - 17:00",
          "di": "09:00 - 17:00",
          "wo": "09:00 - 17:00",
          "do": "09:00 - 17:00",
          "vr": "09:00 - 17:00",
          "za": "09:00 - 17:00",
          "zo": "09:00 - 17:00"
        }
      }
    },
    {
      "type": "Feature",
      "geometry": {
        "type": "Point",
        "coordinates": [
          5.069592262,
          53.2960334
        ]
      },
      "properties": {
        "type": "pakketpunt",
        "locatieNaam": "Primera",
        "straatNaam": "Dorpsstraat",
        "straatNr": "74",
        "vervoerder": "PostNL",
        "puntType": "servicepunt",
        "bezettingsgraad": 50,
        "latitude": 53.2960334,
        "longitude": 5.069592262,
        "canPickup": true,
        "canDropoff": true,
        "openingstijden": "09:00 - 12:30, 13:30 - 17:00 (Zaterdag open)"
      }
    },
    {
      "type": "Feature",
      "geometry": {
        "type": "Polygon",
        "coordinates": [
          [
            [
              5.071730547782023,
              53.29366171817464
            ],
            [
              5.071332258762709,
              53.293547569253725
            ],
            [
              5.070917215528416,
              53.29345735903976
            ],
            [
              5.070489414564063,
              53.293391956155816
            ],
            [
              5.070052975130769,
              53.2933519903547
            ],
            [
              5.069612099621872,
              53.29333784645834
            ],
            [
              5.069171033120665,
              53.29334966065452
            ],
            [
              5.068734022548233,
              53.29338731918648
            ],
            [
              5.06830527579364,
              53.29345045944732
            ],
            [
              5.067888921218934,
              53.29353847346985
            ],
            [
              5.0674889679277895,
              53.293650513777465
            ],
            [
              5.067109267179411,
              53.29378550154002
            ],
            [
              5.066753475318387,
              53.29394213695686
            ],
            [
              5.066425018576739,
              53.2941189117667
            ],
            [
              5.066127060086589,
              53.29431412376423
            ],
            [
              5.065862469420774,
              53.2945258931846
            ],
            [
              5.065633794954605,
              53.294752180797346
            ],
            [
              5.065443239315092,
              53.29499080753695
            ],
            [
              5.06529263815434,
              53.295239475480166
            ],
            [
              5.065183442452115,
              53.29549578996958
            ],
            [
              5.065116704518747,
              53.29575728266923
            ],
            [
              5.06509306783408,
              53.29602143533208
            ],
            [
              5.065112760821295,
              53.296285704049225
            ],
            [
              5.0651755946167665,
              53.29654754374828
            ],
            [
              5.065280964858531,
              53.29680443270429
            ],
            [
              5.065427857477351,
              53.2970538968282
            ],
            [
              5.065614858435694,
              53.29729353349764
            ],
            [
              5.06584016732192,
              53.29752103470109
            ],
            [
              5.066101614669618,
              53.297734209272264
            ],
            [
              5.066396682836092,
              53.297931004000176
            ],
            [
              5.06672253023949,
              53.29810952341117
            ],
            [
              5.067076018721469,
              53.29826804803228
            ],
            [
              5.067453743772057,
              53.298405050959836
            ],
            [
              5.067852067325501,
              53.29851921257285
            ],
            [
              5.068267152810927,
              53.29860943324983
            ],
            [
              5.068695002119734,
              53.298674843965635
            ],
            [
              5.069131494132947,
              53.298714814666475
            ],
            [
              5.069572424436614,
              53.29872896034211
            ],
            [
              5.070013545841708,
              53.298717144736344
            ],
            [
              5.070450609317224,
              53.29867948166016
            ],
            [
              5.070525133783322,
              53.29866850673326
            ],
            [
              5.070531143735955,
              53.29867068633574
            ],
            [
              5.07092947790772,
              53.29878483774651
            ],
            [
              5.071344572407688,
              53.298875047792976
            ],
            [
              5.0716530875187535,
              53.29892220585152
            ],
            [
              5.071668308657356,
              53.29892656763839
            ],
            [
              5.072083406071345,
              53.299016775130774
            ],
            [
              5.072511265235321,
              53.29908217225854
            ],
            [
              5.072947764935336,
              53.299122129098826
            ],
            [
              5.0733887006833625,
              53.299136260774844
            ],
            [
              5.0738298252379135,
              53.29912443116523
            ],
            [
              5.074266889537645,
              53.29908675421601
            ],
            [
              5.0746956836525285,
              53.29902359284217
            ],
            [
              5.075112077357056,
              53.29893555543051
            ],
            [
              5.0755120599336365,
              53.29882348997583
            ],
            [
              5.075891778821764,
              53.298688475909344
            ],
            [
              5.076247576739872,
              53.29853181369551
            ],
            [
              5.076576026921603,
              53.298355012300604
            ],
            [
              5.07687396612657,
              53.298159774651566
            ],
            [
              5.077138525107391,
              53.29794798122704
            ],
            [
              5.0773671562394025,
              53.297721671938426
            ],
            [
              5.077557658047103,
              53.297483026475746
            ],
            [
              5.077708196391454,
              53.2972343433079
            ],
            [
              5.077817322114501,
              53.29697801754046
            ],
            [
              5.0778839849721775,
              53.29671651784336
            ],
            [
              5.077907543721958,
              53.29645236267213
            ],
            [
              5.077887772269265,
              53.296188096010994
            ],
            [
              5.077824861814572,
              53.29592626287206
            ],
            [
              5.077719418981652,
              53.295669384786095
            ],
            [
              5.077572459946184,
              53.295419935521316
            ],
            [
              5.077385400622407,
              53.29518031726396
            ],
            [
              5.07716004300332,
              53.29495283748944
            ],
            [
              5.076898557786941,
              53.29473968674705
            ],
            [
              5.076603463456662,
              53.29454291757148
            ],
            [
              5.076277602017749,
              53.29436442472473
            ],
            [
              5.0759241116239915,
              53.29420592695717
            ],
            [
              5.075546396358262,
              53.29406895046398
            ],
            [
              5.075148093457904,
              53.293954814195914
            ],
            [
              5.07473303830026,
              53.29386461716495
            ],
            [
              5.074424555965328,
              53.29381746695639
            ],
            [
              5.074409336348962,
              53.29381310551215
            ],
            [
              5.073994284104189,
              53.293722905927424
            ],
            [
              5.073566475819225,
              53.293657513998326
            ],
            [
              5.0731300308256415,
              53.29361755937225
            ],
            [
              5.072689151570295,
              53.29360342676354
            ],
            [
              5.072248083172537,
              53.29361525225132
            ],
            [
              5.071811072571708,
              53.293652921970015
            ],
            [
              5.071736557098682,
              53.29366389772004
            ],
            [
              5.071730547782023,
              53.29366171817464
            ]
          ]
        ]
      },
      "properties": {
        "type": "buffer_union_300m",
        "buffer_m": 300
      }
    },
    {
      "type": "Feature",
      "geometry": {
        "type": "Polygon",
        "coordinates": [
          [
            [
              5.0719122125827045,
              53.29271895135567
            ],
            [
              5.071358830991767,
              53.2925986733952
            ],
            [
              5.0707884404476795,
              53.292511471290055
            ],
            [
              5.070206532885882,
              53.29245818464384
            ],
            [
              5.069618711048625,
              53.29243932651065
            ],
            [
              5.06903063457919,
              53.29245507845907
            ],
            [
              5.068447965570328,
              53.29250528882537
            ],
            [
              5.067876314089166,
              53.29258947417251
            ],
            [
              5.067321184201235,
              53.29270682394156
            ],
            [
              5.066787921011335,
              53.29285620825065
            ],
            [
              5.0662816592295234,
              53.29303618876592
            ],
            [
              5.065807273755842,
              53.29324503254158
            ],
            [
              5.065369332758425,
              53.293480728694874
            ],
            [
              5.064972053695795,
              53.29374100775697
            ],
            [
              5.0646192627063265,
              53.29402336351294
            ],
            [
              5.064314357755698,
              53.29432507712232
            ],
            [
              5.064060275897419,
              53.29464324328775
            ],
            [
              5.063859464962373,
              53.29497479821987
            ],
            [
              5.0637138599509175,
              53.295316549131456
            ],
            [
              5.063624864356237,
              53.295665204974846
            ],
            [
              5.063593336600395,
              53.29601740812929
            ],
            [
              5.063619581715549,
              53.29636976673135
            ],
            [
              5.063703348352423,
              53.29671888733923
            ],
            [
              5.063843831146932,
              53.297061407614315
            ],
            [
              5.064039678424207,
              53.29739402870705
            ],
            [
              5.064289005167875,
              53.29771354703406
            ],
            [
              5.06458941113151,
              53.298016885140335
            ],
            [
              5.0649380039194805,
              53.29830112134911
            ],
            [
              5.065331426816205,
              53.298563517913124
            ],
            [
              5.06576589109688,
              53.298801547396096
            ],
            [
              5.066237212509092,
              53.299012917029046
            ],
            [
              5.066740851574189,
              53.29919559080693
            ],
            [
              5.067271957320163,
              53.299347809111815
            ],
            [
              5.067825414024228,
              53.29946810567322
            ],
            [
              5.068395890514008,
              53.299555321701625
            ],
            [
              5.06897789155122,
              53.29960861705843
            ],
            [
              5.0695658108014054,
              53.29962747835473
            ],
            [
              5.070153984877752,
              53.2996117239004
            ],
            [
              5.070299613096171,
              53.299599174954935
            ],
            [
              5.0703494234081,
              53.29961344910706
            ],
            [
              5.070902892132456,
              53.299733731494115
            ],
            [
              5.071195063514105,
              53.299778391601585
            ],
            [
              5.071641739042369,
              53.29987546151573
            ],
            [
              5.07221222867332,
              53.29996265942635
            ],
            [
              5.072794239960296,
              53.30001593630189
            ],
            [
              5.0733821664700525,
              53.3000347789316
            ],
            [
              5.073970344745811,
              53.30001900580501
            ],
            [
              5.074553108903391,
              53.2999687688622
            ],
            [
              5.07512484525081,
              53.299884552028765
            ],
            [
              5.0756800464032805,
              53.29976716655113
            ],
            [
              5.07621336437043,
              53.29961774317615
            ],
            [
              5.076719662102644,
              53.29943772125163
            ],
            [
              5.077194062998485,
              53.29922883485221
            ],
            [
              5.077631997895067,
              53.298993096065345
            ],
            [
              5.078029249087847,
              53.29873277559835
            ],
            [
              5.078381990955238,
              53.29845038089461
            ],
            [
              5.078686826796663,
              53.2981486319694
            ],
            [
              5.078940821529368,
              53.29783043519923
            ],
            [
              5.079141529929772,
              53.29749885531783
            ],
            [
              5.0792870201482865,
              53.29715708588844
            ],
            [
              5.0793758922724965,
              53.29680841853788
            ],
            [
              5.0794072917615,
              53.296456211248696
            ],
            [
              5.079380917623849,
              53.29610385601496
            ],
            [
              5.07929702526236,
              53.29575474617401
            ],
            [
              5.079156423960435,
              53.29541224372795
            ],
            [
              5.078960469036186,
              53.295079646970414
            ],
            [
              5.07871104874194,
              53.29476015872937
            ],
            [
              5.078410566037082,
              53.29445685553233
            ],
            [
              5.078061915411489,
              53.294172657989755
            ],
            [
              5.077668454983971,
              53.29391030268238
            ],
            [
              5.0772339741455506,
              53.293672315821304
            ],
            [
              5.076762657059709,
              53.293460988935195
            ],
            [
              5.07625904237142,
              53.29327835681783
            ],
            [
              5.07572797951272,
              53.293126177946895
            ],
            [
              5.075174582025137,
              53.293005917563335
            ],
            [
              5.074882452357857,
              53.29296126705877
            ],
            [
              5.074435841072007,
              53.29286420900877
            ],
            [
              5.073865440767834,
              53.29277702150983
            ],
            [
              5.073283525792843,
              53.2927237497633
            ],
            [
              5.07269569896062,
              53.29270490667992
            ],
            [
              5.072107619962518,
              53.292720673683434
            ],
            [
              5.0719620154901985,
              53.29273322486732
            ],
            [
              5.0719122125827045,
              53.29271895135567
            ]
          ]
        ]
      },
      "properties": {
        "type": "buffer_union_400m",
        "buffer_m": 400
      }
    },
    {
      "type": "Feature",
      "geometry": {
        "type": "Polygon",
        "coordinates": [
          [
            [
              4.818376,
              53.214275
            ],
            [
              4.833404,
              53.209707
            ],
            [
              4.84749,
              53.205424
            ],
            [
              4.86345,
              53.200567
            ],
            [
              4.876591,
              53.196565
            ],
            [
              4.891138,
              53.192133
            ],
            [
              4.893484,
              53.191418
            ],
            [
              4.905681,
              53.1877
            ],
            [
              4.911498,
              53.185926
            ],
            [
              4.917956,
              53.183956
            ],
            [
              4.920219,
              53.183264
            ],
            [
              4.923505,
              53.18226
            ],
            [
              4.924559,
              53.181938
            ],
            [
              4.930816,
              53.180031
            ],
            [
              4.937872,
              53.177877
            ],
            [
              4.943783,
              53.176071
            ],
            [
              4.950976,
              53.173874
            ],
            [
              4.957263,
              53.171953
            ],
            [
              4.963826,
              53.169947
            ],
            [
              4.964694,
              53.169682
            ],
            [
              4.971666,
              53.16755
            ],
            [
              4.979473,
              53.165163
            ],
            [
              4.983509,
              53.163928
            ],
            [
              4.985243,
              53.163398
            ],
            [
              4.992078,
              53.161306
            ],
            [
              4.998172,
              53.159441
            ],
            [
              5.00595,
              53.157059
            ],
            [
              5.012922,
              53.154924
            ],
            [
              5.019919,
              53.15278
            ],
            [
              5.021922,
              53.152167
            ],
            [
              5.026813,
              53.150668
            ],
            [
              5.033163,
              53.148721
            ],
            [
              5.041832,
              53.146063
            ],
            [
              5.043462,
              53.145563
            ],
            [
              5.050953,
              53.143266
            ],
            [
              5.054536,
              53.138783
            ],
            [
              5.055265,
              53.13787
            ],
            [
              5.058118,
              53.1343
            ],
            [
              5.058497,
              53.133826
            ],
            [
              5.058923,
              53.133292
            ],
            [
              5.061699,
              53.129817
            ],
            [
              5.063061,
              53.128112
            ],
            [
              5.06373,
              53.127274
            ],
            [
              5.065091,
              53.12557
            ],
            [
              5.06528,
              53.125333
            ],
            [
              5.067189,
              53.122943
            ],
            [
              5.06886,
              53.12085
            ],
            [
              5.071015,
              53.11815
            ],
            [
              5.071837,
              53.11712
            ],
            [
              5.072439,
              53.116366
            ],
            [
              5.073575,
              53.114944
            ],
            [
              5.075592,
              53.112416
            ],
            [
              5.076017,
              53.111883
            ],
            [
              5.079595,
              53.107399
            ],
            [
              5.079968,
              53.106932
            ],
            [
              5.083172,
              53.102915
            ],
            [
              5.083492,
              53.102515
            ],
            [
              5.086748,
              53.098431
            ],
            [
              5.086791,
              53.098378
            ],
            [
              5.086972,
              53.098151
            ],
            [
              5.088639,
              53.09606
            ],
            [
              5.090324,
              53.093947
            ],
            [
              5.093633,
              53.089797
            ],
            [
              5.093899,
              53.089463
            ],
            [
              5.095778,
              53.087105
            ],
            [
              5.13341,
              53.098539
            ],
            [
              5.136967,
              53.099619
            ],
            [
              5.163222,
              53.107585
            ],
            [
              5.151932,
              53.140987
            ],
            [
              5.142519,
              53.168796
            ],
            [
              5.132831,
              53.197382
            ],
            [
              5.147496,
              53.251325
            ],
            [
              5.152945,
              53.270878
            ],
            [
              5.154943,
              53.278296
            ],
            [
              5.157365,
              53.287286
            ],
            [
              5.162217,
              53.305281
            ],
            [
              5.132891,
              53.31402
            ],
            [
              5.132297,
              53.314192
            ],
            [
              5.125132,
              53.316269
            ],
            [
              5.102077,
              53.322949
            ],
            [
              5.102073,
              53.32295
            ],
            [
              5.087069,
              53.323073
            ],
            [
              5.042103,
              53.316213
            ],
            [
              5.027117,
              53.313923
            ],
            [
              5.012172,
              53.307138
            ],
            [
              5.007192,
              53.304876
            ],
            [
              4.987275,
              53.295826
            ],
            [
              4.98398,
              53.294328
            ],
            [
              4.982297,
              53.293563
            ],
            [
              4.967366,
              53.286773
            ],
            [
              4.957415,
              53.282245
            ],
            [
              4.95244,
              53.279981
            ],
            [
              4.947466,
              53.277716
            ],
            [
              4.937519,
              53.273187
            ],
            [
              4.927574,
              53.268656
            ],
            [
              4.922602,
              53.266391
            ],
            [
              4.90769,
              53.259593
            ],
            [
              4.892774,
              53.253542
            ],
            [
              4.885318,
              53.250516
            ],
            [
              4.877862,
              53.247489
            ],
            [
              4.874135,
              53.245976
            ],
            [
              4.862955,
              53.241435
            ],
            [
              4.840602,
              53.232349
            ],
            [
              4.833191,
              53.226325
            ],
            [
              4.818376,
              53.214275
            ]
          ]
        ]
      },
      "properties": {
        "type": "boundary",
        "gemeente": "Vlieland"
      }
    }
  ]
}