{
  "type": "FeatureCollection",
  "metadata": {
    "gemeente": "Zandvoort",
    "slug": "zandvoort",
    "generated_at": "2026-05-19T20:11:40.708168Z",
    "total_points": 6,
    "providers": [
      "DHL",
      "DPD",
      "PostNL",
      "VintedGo",
      "ViaTim"
    ],
    "bounds": [
      4.52837,
      52.37161553,
      4.55097211,
      52.37896
    ]
  },
  "features": [
    {
      "type": "Feature",
      "geometry": {
        "type": "Point",
        "coordinates": [
          4.549354,
          52.37896
        ]
      },
      "properties": {
        "type": "pakketpunt",
        "locatieNaam": "Bloemenhuis W Bluijs",
        "straatNaam": "Pasteurstraat",
        "straatNr": "6",
        "vervoerder": "DHL",
        "puntType": "parcelShop",
        "bezettingsgraad": 50,
        "latitude": 52.37896,
        "longitude": 4.549354,
        "canPickup": true,
        "canDropoff": true,
        "openingstijden": {
          "ma": "gesloten",
          "di": "08:30 - 18:00",
          "wo": "08:30 - 18:00",
          "do": "08:30 - 18:00",
          "vr": "08:30 - 18:00",
          "za": "08:30 - 17:00",
          "zo": "gesloten"
        }
      }
    },
    {
      "type": "Feature",
      "geometry": {
        "type": "Point",
        "coordinates": [
          4.529939,
          52.372629
        ]
      },
      "properties": {
        "type": "pakketpunt",
        "locatieNaam": "Primera Zandvoort",
        "straatNaam": "Haltestraat",
        "straatNr": "9",
        "vervoerder": "DHL",
        "puntType": "parcelShop",
        "bezettingsgraad": 50,
        "latitude": 52.372629,
        "longitude": 4.529939,
        "canPickup": true,
        "canDropoff": true,
        "openingstijden": {
          "ma": "09:00 - 18:00",
          "di": "09:00 - 18:00",
          "wo": "09:00 - 18:00",
          "do": "09:00 - 18:00",
          "vr": "09:00 - 18:00",
          "za": "09:00 - 17:00",
          "zo": "gesloten"
        }
      }
    },
    {
      "type": "Feature",
      "geometry": {
        "type": "Point",
        "coordinates": [
          4.52837,
          52.37176
        ]
      },
      "properties": {
        "type": "pakketpunt",
        "locatieNaam": "Parcels by Syllie",
        "straatNaam": "KERKSTRAAT",
        "straatNr": "38C",
        "vervoerder": "DPD",
        "puntType": "pickup_point",
        "bezettingsgraad": 50,
        "latitude": 52.37176,
        "longitude": 4.52837,
        "canPickup": true,
        "canDropoff": true,
        "openingstijden": {
          "ma": "gesloten",
          "di": "09:00 - 13:00",
          "wo": "09:00 - 13:00",
          "do": "09:00 - 13:00",
          "vr": "09:00 - 13:00",
          "za": "10:00 - 14:00",
          "zo": "11:00 - 17:00"
        }
      }
    },
    {
      "type": "Feature",
      "geometry": {
        "type": "Point",
        "coordinates": [
          4.530625015,
          52.37161553
        ]
      },
      "properties": {
        "type": "pakketpunt",
        "locatieNaam": "Bruna Zandvoort",
        "straatNaam": "Grote Krocht",
        "straatNr": "18",
        "vervoerder": "PostNL",
        "puntType": "servicepunt",
        "bezettingsgraad": 50,
        "latitude": 52.37161553,
        "longitude": 4.530625015,
        "canPickup": true,
        "canDropoff": true,
        "openingstijden": "08:00 - 18:00 (Na 18:00 open; Zaterdag open; Zondag open)"
      }
    },
    {
      "type": "Feature",
      "geometry": {
        "type": "Point",
        "coordinates": [
          4.53063,
          52.37384
        ]
      },
      "properties": {
        "type": "pakketpunt",
        "locatieNaam": "Leonidas Zandvoort",
        "straatNaam": "Haltestraat 39a",
        "straatNr": "",
        "vervoerder": "VintedGo",
        "puntType": "parcel_shop",
        "bezettingsgraad": 50,
        "latitude": 52.37384,
        "longitude": 4.53063,
        "canPickup": true,
        "canDropoff": true,
        "openingstijden": null
      }
    },
    {
      "type": "Feature",
      "geometry": {
        "type": "Point",
        "coordinates": [
          4.55097211,
          52.37818135
        ]
      },
      "properties": {
        "type": "pakketpunt",
        "locatieNaam": "ViaTim en Samantha",
        "straatNaam": "Flemingstraat",
        "straatNr": "248",
        "vervoerder": "ViaTim",
        "puntType": "servicepunt",
        "bezettingsgraad": 50,
        "latitude": 52.37818135,
        "longitude": 4.55097211,
        "canPickup": true,
        "canDropoff": true,
        "openingstijden": {
          "ma": "16:00 - 20:00",
          "di": "16:00 - 20:00",
          "wo": "16:00 - 20:00",
          "do": "16:00 - 20:00",
          "vr": "16:00 - 20:00",
          "za": "gesloten",
          "zo": "gesloten"
        }
      }
    },
    {
      "type": "Feature",
      "geometry": {
        "type": "MultiPolygon",
        "coordinates": [
          [
            [
              [
                4.534955245425825,
                52.37112074536072
              ],
              [
                4.53485514768064,
                52.37086334262375
              ],
              [
                4.5347143135087515,
                52.3706131844961
              ],
              [
                4.534534099817381,
                52.37037267999736
              ],
              [
                4.534316242658118,
                52.370144145144614
              ],
              [
                4.534062840488759,
                52.36992978065457
              ],
              [
                4.533776333949653,
                52.36973165075725
              ],
              [
                4.533459482349813,
                52.36955166332445
              ],
              [
                4.533115337089646,
                52.369391551504755
              ],
              [
                4.53274721227636,
                52.36925285704118
              ],
              [
                4.532358652814982,
                52.369136915431774
              ],
              [
                4.531953400281983,
                52.369044843076004
              ],
              [
                4.531535356909668,
                52.368977526530166
              ],
              [
                4.531108548027476,
                52.36893561397515
              ],
              [
                4.530677083321106,
                52.368919508978436
              ],
              [
                4.53024511728155,
                52.368929366610516
              ],
              [
                4.529816809223871,
                52.36896509195241
              ],
              [
                4.529396283259724,
                52.3690263410093
              ],
              [
                4.529049955279854,
                52.369099372634444
              ],
              [
                4.5288536708729366,
                52.369080093566524
              ],
              [
                4.5284222056280266,
                52.369063980349125
              ],
              [
                4.527990237727844,
                52.369073829747315
              ],
              [
                4.5275619265053635,
                52.36910954692139
              ],
              [
                4.527141396102695,
                52.36917078795517
              ],
              [
                4.5267326957813445,
                52.369256963165874
              ],
              [
                4.526339760951591,
                52.36936724277894
              ],
              [
                4.525966375295273,
                52.36950056491409
              ],
              [
                4.525616134345927,
                52.36965564580508
              ],
              [
                4.525292410876189,
                52.36983099215538
              ],
              [
                4.524998322425372,
                52.370024915511124
              ],
              [
                4.524736701279481,
                52.37023554851319
              ],
              [
                4.524510067192707,
                52.370460862872065
              ],
              [
                4.524320603113163,
                52.37069868889264
              ],
              [
                4.524170134146905,
                52.37094673636211
              ],
              [
                4.524060109963376,
                52.37120261659859
              ],
              [
                4.523991590812342,
                52.37146386544988
              ],
              [
                4.523965237287887,
                52.37172796702008
              ],
              [
                4.523981303938967,
                52.37199237789622
              ],
              [
                4.524039636789135,
                52.37225455164159
              ],
              [
                4.524139674790452,
                52.37251196332003
              ],
              [
                4.524280455198628,
                52.37276213381457
              ],
              [
                4.524460622818806,
                52.373002653706706
              ],
              [
                4.524678443033851,
                52.37323120648569
              ],
              [
                4.5249318184906135,
                52.3734455908645
              ],
              [
                4.5252183092841936,
                52.373643741987124
              ],
              [
                4.525535156446342,
                52.37382375132249
              ],
              [
                4.525879308512196,
                52.3739838850535
              ],
              [
                4.526247450909614,
                52.3741226007833
              ],
              [
                4.526252611047055,
                52.37412414067706
              ],
              [
                4.5262994582410485,
                52.37433463372514
              ],
              [
                4.5263995139953765,
                52.37459204342397
              ],
              [
                4.526540313705589,
                52.37484221116747
              ],
              [
                4.526720501990971,
                52.37508272756354
              ],
              [
                4.526938344035377,
                52.37531127613509
              ],
              [
                4.527191742275432,
                52.37552565563569
              ],
              [
                4.5274782565867815,
                52.37572380125619
              ],
              [
                4.527795127774652,
                52.37590380451852
              ],
              [
                4.528139304142743,
                52.37606393166405
              ],
              [
                4.528507470884789,
                52.37620264035939
              ],
              [
                4.5288960820156285,
                52.37631859455851
              ],
              [
                4.529301394533977,
                52.37641067737731
              ],
              [
                4.52971950448739,
                52.37647800185706
              ],
              [
                4.530146384591417,
                52.376519919511914
              ],
              [
                4.530577923039821,
                52.3765360265786
              ],
              [
                4.5310099631310745,
                52.37652616790779
              ],
              [
                4.531438343328534,
                52.376490438459264
              ],
              [
                4.531858937367292,
                52.37642918238698
              ],
              [
                4.532267694020414,
                52.37634298972225
              ],
              [
                4.532660676140457,
                52.3762326906875
              ],
              [
                4.533034098599331,
                52.37609934769549
              ],
              [
                4.53338436476017,
                52.37594424511094
              ],
              [
                4.533708101129324,
                52.375768876873934
              ],
              [
                4.534002189854112,
                52.37557493210384
              ],
              [
                4.534263798753087,
                52.37536427882365
              ],
              [
                4.534490408589422,
                52.375138945961005
              ],
              [
                4.534679837324843,
                52.37490110380009
              ],
              [
                4.534830261120838,
                52.37465304307254
              ],
              [
                4.5349402318854075,
                52.37439715288964
              ],
              [
                4.535008691197005,
                52.37413589772796
              ],
              [
                4.535034980472459,
                52.37387179369085
              ],
              [
                4.535018847281929,
                52.373607384274
              ],
              [
                4.534960447751092,
                52.37334521586913
              ],
              [
                4.5348603450286005,
                52.373087813241575
              ],
              [
                4.5347195038346175,
                52.372837655217396
              ],
              [
                4.534635591875413,
                52.37272567636009
              ],
              [
                4.534674649344864,
                52.372676634010425
              ],
              [
                4.534825065551757,
                52.372428573161386
              ],
              [
                4.534935030755376,
                52.37217268285616
              ],
              [
                4.5350034865876525,
                52.371911427572385
              ],
              [
                4.5350297744988435,
                52.37164732341465
              ],
              [
                4.535013642072154,
                52.37138291387984
              ],
              [
                4.534955245425825,
                52.37112074536072
              ]
            ]
          ],
          [
            [
              [
                4.555202528539151,
                52.37742843706691
              ],
              [
                4.555061558787394,
                52.3771783032031
              ],
              [
                4.554881208071806,
                52.376937829721506
              ],
              [
                4.5546632137633845,
                52.376709332340376
              ],
              [
                4.554409675640458,
                52.37649501141545
              ],
              [
                4.554123035652301,
                52.376296930757086
              ],
              [
                4.553806054392661,
                52.3761169977628
              ],
              [
                4.553461784510134,
                52.37595694505696
              ],
              [
                4.553093541311564,
                52.375818313813205
              ],
              [
                4.552704870841549,
                52.375702438920854
              ],
              [
                4.55229951574509,
                52.37561043613691
              ],
              [
                4.551881379241714,
                52.37554319134777
              ],
              [
                4.551454487557305,
                52.37550135204334
              ],
              [
                4.55102295117459,
                52.37548532108584
              ],
              [
                4.550590925274521,
                52.37549525283293
              ],
              [
                4.550162569748437,
                52.37553105165194
              ],
              [
                4.549742009165015,
                52.37559237284073
              ],
              [
                4.549333293076428,
                52.375678625944595
              ],
              [
                4.54894035704494,
                52.375788980439104
              ],
              [
                4.548566984764212,
                52.37592237372294
              ],
              [
                4.548216771639304,
                52.37607752134475
              ],
              [
                4.547893090175327,
                52.37625292936543
              ],
              [
                4.547599057507561,
                52.376446908737385
              ],
              [
                4.5475171534860985,
                52.37651288351697
              ],
              [
                4.54732229907079,
                52.37656760315596
              ],
              [
                4.5469489153806535,
                52.37670099129063
              ],
              [
                4.546598690455101,
                52.376856134075524
              ],
              [
                4.546274996912845,
                52.37703153761818
              ],
              [
                4.545980952005443,
                52.37722551291401
              ],
              [
                4.545719387600072,
                52.377436192103715
              ],
              [
                4.5454928229050475,
                52.37766154645284
              ],
              [
                4.545303440200777,
                52.37789940588131
              ],
              [
                4.545153063810196,
                52.37814747985432
              ],
              [
                4.54504314251174,
                52.37840337943477
              ],
              [
                4.544974735564828,
                52.37866464028395
              ],
              [
                4.544948502483388,
                52.37892874639025
              ],
              [
                4.544964696656783,
                52.37919315429687
              ],
              [
                4.545023162880712,
                52.379455317595614
              ],
              [
                4.545123338822899,
                52.37971271145066
              ],
              [
                4.54526426041065,
                52.3799628569165
              ],
              [
                4.545444571089379,
                52.380203344815556
              ],
              [
                4.545662534864027,
                52.380431858945016
              ],
              [
                4.545916052998589,
                52.38064619838999
              ],
              [
                4.546202684213709,
                52.38084429872714
              ],
              [
                4.546519668188339,
                52.38102425191432
              ],
              [
                4.5468639521395176,
                52.381184324675225
              ],
              [
                4.547232220224411,
                52.38132297520016
              ],
              [
                4.547620925481378,
                52.381438868003436
              ],
              [
                4.54802632400217,
                52.38153088679225
              ],
              [
                4.548444511005641,
                52.3815981452246
              ],
              [
                4.5488714584649195,
                52.38163999545087
              ],
              [
                4.5493030539247545,
                52.381656034357285
              ],
              [
                4.549735140134318,
                52.381646107451104
              ],
              [
                4.550163555112651,
                52.38161031034937
              ],
              [
                4.550584172259816,
                52.38154898785777
              ],
              [
                4.550992940126351,
                52.3814627306474
              ],
              [
                4.551385921456937,
                52.38135236956245
              ],
              [
                4.551759331131292,
                52.38121896761337
              ],
              [
                4.55210957263597,
                52.38106380973279
              ],
              [
                4.552433272715128,
                52.38088839039333
              ],
              [
                4.552727313866004,
                52.380694399206625
              ],
              [
                4.552809217914612,
                52.38062842087821
              ],
              [
                4.553004083485064,
                52.380573692275966
              ],
              [
                4.553377481746616,
                52.38044028517751
              ],
              [
                4.553727711447418,
                52.38028512246003
              ],
              [
                4.554051399445354,
                52.38010969864262
              ],
              [
                4.5543454283540505,
                52.37991570338017
              ],
              [
                4.5546069665686275,
                52.3797050051819
              ],
              [
                4.554833495533493,
                52.379479633407975
              ],
              [
                4.555022833989727,
                52.37924175871724
              ],
              [
                4.55517315896875,
                52.3789936721546
              ],
              [
                4.555283023330667,
                52.37873776307997
              ],
              [
                4.555351369679039,
                52.37847649615179
              ],
              [
                4.555377540518908,
                52.37821238758653
              ],
              [
                4.555361284561264,
                52.3779479809233
              ],
              [
                4.5553027591142365,
                52.3776858225272
              ],
              [
                4.555202528539151,
                52.37742843706691
              ]
            ]
          ]
        ]
      },
      "properties": {
        "type": "buffer_union_300m",
        "buffer_m": 300
      }
    },
    {
      "type": "Feature",
      "geometry": {
        "type": "MultiPolygon",
        "coordinates": [
          [
            [
              [
                4.536398633998482,
                52.370955780506414
              ],
              [
                4.536265159903286,
                52.370612578428926
              ],
              [
                4.536077371791475,
                52.37027903641893
              ],
              [
                4.5358370792267575,
                52.36995836641941
              ],
              [
                4.535546597238213,
                52.36965365635076
              ],
              [
                4.535208723991459,
                52.369367840384044
              ],
              [
                4.534826713815249,
                52.36910367069703
              ],
              [
                4.534404245844208,
                52.36886369098392
              ],
              [
                4.533945388580296,
                52.368650211973964
              ],
              [
                4.533454560714615,
                52.36846528919309
              ],
              [
                4.532936488586645,
                52.368310703183674
              ],
              [
                4.532396160690116,
                52.36818794237059
              ],
              [
                4.531838779662746,
                52.368098188739424
              ],
              [
                4.531269712221017,
                52.36804230646362
              ],
              [
                4.530694437520612,
                52.368020833589846
              ],
              [
                4.530118494438117,
                52.36803397686107
              ],
              [
                4.529547428279858,
                52.36808160972793
              ],
              [
                4.528986737429034,
                52.36816327356607
              ],
              [
                4.528896233910053,
                52.368182358570444
              ],
              [
                4.52843960559298,
                52.368165305417335
              ],
              [
                4.527863660029797,
                52.36817843771032
              ],
              [
                4.527292589652104,
                52.368226059687004
              ],
              [
                4.526731892883705,
                52.368307712827956
              ],
              [
                4.526186968338996,
                52.36842261094966
              ],
              [
                4.525663062877519,
                52.3685696477691
              ],
              [
                4.525165221114643,
                52.3687474075483
              ],
              [
                4.524698236872991,
                52.368954178716734
              ],
              [
                4.524266607040887,
                52.36918797034116
              ],
              [
                4.523874488281221,
                52.36944653128473
              ],
              [
                4.523525657006975,
                52.36972737187088
              ],
              [
                4.52322347300868,
                52.370027787844755
              ],
              [
                4.5229708470841645,
                52.37034488640164
              ],
              [
                4.522770212982929,
                52.37067561403205
              ],
              [
                4.522623503936152,
                52.37101678591639
              ],
              [
                4.522532133999624,
                52.37136511658612
              ],
              [
                4.522496984390774,
                52.371717251556916
              ],
              [
                4.522518394953058,
                52.37206979962903
              ],
              [
                4.522596160831849,
                52.37241936554449
              ],
              [
                4.522729534395768,
                52.3727625826863
              ],
              [
                4.522917232386946,
                52.373096145504746
              ],
              [
                4.523157448233292,
                52.373416841358946
              ],
              [
                4.523447869405926,
                52.373721581465446
              ],
              [
                4.523785699656221,
                52.37400743065706
              ],
              [
                4.524167685919614,
                52.37427163566349
              ],
              [
                4.524590149628006,
                52.37451165164178
              ],
              [
                4.524920376820847,
                52.37466530795292
              ],
              [
                4.524989319994512,
                52.37484268948982
              ],
              [
                4.525177043721257,
                52.37517624864055
              ],
              [
                4.525417287121014,
                52.375496939833624
              ],
              [
                4.525707737399563,
                52.375801674330546
              ],
              [
                4.526045598027975,
                52.37608751701811
              ],
              [
                4.526427615649066,
                52.37635171468853
              ],
              [
                4.526850111392679,
                52.37659172256961
              ],
              [
                4.527309016298709,
                52.37680522884733
              ],
              [
                4.527799910507071,
                52.376990176945895
              ],
              [
                4.528318065836994,
                52.37714478534867
              ],
              [
                4.528858491345097,
                52.37726756476912
              ],
              [
                4.5294159814225825,
                52.37735733250603
              ],
              [
                4.529985165967127,
                52.37741322384388
              ],
              [
                4.530560562144817,
                52.37743470038807
              ],
              [
                4.531136627241862,
                52.37742155525536
              ],
              [
                4.531707812095243,
                52.377373915067956
              ],
              [
                4.532268614585749,
                52.3772922387333
              ],
              [
                4.532813632676235,
                52.37717731302011
              ],
              [
                4.5333376164824255,
                52.3770302449748
              ],
              [
                4.533835518872998,
                52.37685245125012
              ],
              [
                4.534302544110065,
                52.37664564445033
              ],
              [
                4.534734194060336,
                52.376411816624326
              ],
              [
                4.535126311530928,
                52.37615322006634
              ],
              [
                4.535475120311846,
                52.37587234560936
              ],
              [
                4.5357772615392635,
                52.375571898621544
              ],
              [
                4.536029826029545,
                52.37525477293698
              ],
              [
                4.536230382273145,
                52.37492402297225
              ],
              [
                4.53637699981966,
                52.3745828342986
              ],
              [
                4.536468267830085,
                52.37423449295247
              ],
              [
                4.536503308619053,
                52.37388235378178
              ],
              [
                4.536481786058399,
                52.37352980813152
              ],
              [
                4.536403908763007,
                52.37318025118155
              ],
              [
                4.536270428030201,
                52.37283704925002
              ],
              [
                4.5362084698840075,
                52.37272700769716
              ],
              [
                4.536225116510441,
                52.37269955309338
              ],
              [
                4.536371726643528,
                52.372358364256655
              ],
              [
                4.536462990016139,
                52.372010022747816
              ],
              [
                4.536498028987421,
                52.37165788341632
              ],
              [
                4.536476507446566,
                52.37130533760873
              ],
              [
                4.536398633998482,
                52.370955780506414
              ]
            ]
          ],
          [
            [
              [
                4.556612635997735,
                52.37717743101893
              ],
              [
                4.556424667114244,
                52.37684392136304
              ],
              [
                4.556184191853652,
                52.37652329272184
              ],
              [
                4.555893527004142,
                52.37621863261709
              ],
              [
                4.555555472491857,
                52.37593287473849
              ],
              [
                4.555173284390559,
                52.37566877070423
              ],
              [
                4.554750643547578,
                52.37542886357624
              ],
              [
                4.5542916201288355,
                52.375215463384535
              ],
              [
                4.5538006344246345,
                52.37503062489611
              ],
              [
                4.553282414293541,
                52.374876127841596
              ],
              [
                4.552741949653673,
                52.37475345978933
              ],
              [
                4.5521844444587485,
                52.374663801831765
              ],
              [
                4.551615266620217,
                52.37460801722116
              ],
              [
                4.551039896356239,
                52.374586643063815
              ],
              [
                4.550463873463165,
                52.374599885152435
              ],
              [
                4.549892744015543,
                52.37464761598613
              ],
              [
                4.54933200700588,
                52.37472937599755
              ],
              [
                4.548787061436133,
                52.374844377974256
              ],
              [
                4.548263154368577,
                52.37499151463336
              ],
              [
                4.547765330434474,
                52.375169369275554
              ],
              [
                4.547298383285362,
                52.37537622941702
              ],
              [
                4.546866809453127,
                52.375610103267874
              ],
              [
                4.546599589421201,
                52.375786391484034
              ],
              [
                4.546147274591201,
                52.37594797603294
              ],
              [
                4.545680311708616,
                52.37615482972515
              ],
              [
                4.54524872177266,
                52.37638869760522
              ],
              [
                4.544856661062818,
                52.37664732780183
              ],
              [
                4.544507905433956,
                52.3769282299716
              ],
              [
                4.54420581394909,
                52.37722869926655
              ],
              [
                4.543953296516123,
                52.377545842368455
              ],
              [
                4.5437527858407325,
                52.37787660533854
              ],
              [
                4.5436062139664095,
                52.378217803016824
              ],
              [
                4.543514993628779,
                52.3785661496861
              ],
              [
                4.543480004605311,
                52.378918290707595
              ],
              [
                4.543501585193545,
                52.37927083482314
              ],
              [
                4.543579528901852,
                52.37962038681247
              ],
              [
                4.543713086386504,
                52.37996358019231
              ],
              [
                4.543900972618432,
                52.38029710964168
              ],
              [
                4.544141379212523,
                52.380617762840636
              ],
              [
                4.544431991802548,
                52.38092245141625
              ],
              [
                4.544770012295901,
                52.381208240697475
              ],
              [
                4.54515218579518,
                52.3814723779908
              ],
              [
                4.545574831928277,
                52.38171231910527
              ],
              [
                4.546033880285938,
                52.38192575286992
              ],
              [
                4.546524909625692,
                52.38211062340729
              ],
              [
                4.547043190464501,
                52.38226514994778
              ],
              [
                4.5475837306494205,
                52.38238784399336
              ],
              [
                4.548141323466453,
                52.38247752366525
              ],
              [
                4.548710597823136,
                52.38253332509614
              ],
              [
                4.549286070020017,
                52.38255471075765
              ],
              [
                4.549862196610749,
                52.38254147464203
              ],
              [
                4.550433427839793,
                52.38249374424799
              ],
              [
                4.5509942611411836,
                52.38241197935194
              ],
              [
                4.551539294181083,
                52.38229696757578
              ],
              [
                4.552063276931457,
                52.38214981679504
              ],
              [
                4.552561162271517,
                52.381971944459316
              ],
              [
                4.553028154628098,
                52.38176506393031
              ],
              [
                4.553459756185216,
                52.38153116796704
              ],
              [
                4.553726983781311,
                52.381354864486454
              ],
              [
                4.554179326423808,
                52.38119325121107
              ],
              [
                4.554646303041172,
                52.38098636423281
              ],
              [
                4.555077888489339,
                52.38075246229903
              ],
              [
                4.55546992619744,
                52.38049379841774
              ],
              [
                4.5558186407245245,
                52.38021286407028
              ],
              [
                4.556120674115397,
                52.37991236520162
              ],
              [
                4.556373118225864,
                52.379595196145274
              ],
              [
                4.55657354270657,
                52.37926441173551
              ],
              [
                4.556720018376862,
                52.37892319787493
              ],
              [
                4.556811135764776,
                52.37857484084252
              ],
              [
                4.556846018636078,
                52.37822269563673
              ],
              [
                4.556824332383847,
                52.377870153660616
              ],
              [
                4.556746287199649,
                52.37752061005822
              ],
              [
                4.556612635997735,
                52.37717743101893
              ]
            ]
          ]
        ]
      },
      "properties": {
        "type": "buffer_union_400m",
        "buffer_m": 400
      }
    },
    {
      "type": "Feature",
      "geometry": {
        "type": "Polygon",
        "coordinates": [
          [
            [
              4.47765,
              52.332511
            ],
            [
              4.479189,
              52.334734
            ],
            [
              4.481969,
              52.338701
            ],
            [
              4.484887,
              52.343109
            ],
            [
              4.488592,
              52.347865
            ],
            [
              4.490824,
              52.351424
            ],
            [
              4.494049,
              52.356005
            ],
            [
              4.497092,
              52.36018
            ],
            [
              4.498739,
              52.363734
            ],
            [
              4.501019,
              52.367939
            ],
            [
              4.504551,
              52.372703
            ],
            [
              4.507728,
              52.376888
            ],
            [
              4.510578,
              52.381286
            ],
            [
              4.513904,
              52.386191
            ],
            [
              4.516418,
              52.390578
            ],
            [
              4.519512,
              52.395355
            ],
            [
              4.522331,
              52.399196
            ],
            [
              4.524837,
              52.40333
            ],
            [
              4.526045,
              52.405167
            ],
            [
              4.528356,
              52.404597
            ],
            [
              4.531353,
              52.403858
            ],
            [
              4.534855,
              52.402993
            ],
            [
              4.537847,
              52.402254
            ],
            [
              4.539438,
              52.401862
            ],
            [
              4.54182,
              52.401273
            ],
            [
              4.542656,
              52.401157
            ],
            [
              4.542877,
              52.401126
            ],
            [
              4.542961,
              52.401114
            ],
            [
              4.543193,
              52.401065
            ],
            [
              4.543335,
              52.401037
            ],
            [
              4.543341,
              52.401036
            ],
            [
              4.543592,
              52.400987
            ],
            [
              4.543608,
              52.400985
            ],
            [
              4.543664,
              52.400973
            ],
            [
              4.543696,
              52.400967
            ],
            [
              4.543853,
              52.400938
            ],
            [
              4.543918,
              52.400926
            ],
            [
              4.543944,
              52.400921
            ],
            [
              4.543971,
              52.400916
            ],
            [
              4.543999,
              52.400911
            ],
            [
              4.544049,
              52.400902
            ],
            [
              4.544375,
              52.400841
            ],
            [
              4.544598,
              52.400794
            ],
            [
              4.544751,
              52.400765
            ],
            [
              4.544809,
              52.400754
            ],
            [
              4.544936,
              52.400737
            ],
            [
              4.545049,
              52.400713
            ],
            [
              4.545399,
              52.400643
            ],
            [
              4.545613,
              52.4006
            ],
            [
              4.545917,
              52.40054
            ],
            [
              4.546044,
              52.400511
            ],
            [
              4.546097,
              52.400493
            ],
            [
              4.54632,
              52.400459
            ],
            [
              4.546507,
              52.400413
            ],
            [
              4.547174,
              52.400294
            ],
            [
              4.54799,
              52.400137
            ],
            [
              4.549323,
              52.399875
            ],
            [
              4.549886,
              52.399768
            ],
            [
              4.549892,
              52.399766
            ],
            [
              4.552146,
              52.399332
            ],
            [
              4.552198,
              52.399322
            ],
            [
              4.554083,
              52.398963
            ],
            [
              4.555441,
              52.398698
            ],
            [
              4.556208,
              52.398545
            ],
            [
              4.557231,
              52.398355
            ],
            [
              4.558536,
              52.398112
            ],
            [
              4.561955,
              52.397444
            ],
            [
              4.562092,
              52.397417
            ],
            [
              4.562541,
              52.397329
            ],
            [
              4.564653,
              52.396916
            ],
            [
              4.565341,
              52.396792
            ],
            [
              4.565672,
              52.396732
            ],
            [
              4.566383,
              52.396605
            ],
            [
              4.566611,
              52.396565
            ],
            [
              4.566772,
              52.396533
            ],
            [
              4.568888,
              52.396124
            ],
            [
              4.575338,
              52.394876
            ],
            [
              4.576469,
              52.394657
            ],
            [
              4.581087,
              52.393764
            ],
            [
              4.583576,
              52.393282
            ],
            [
              4.587788,
              52.392466
            ],
            [
              4.588329,
              52.392361
            ],
            [
              4.5884,
              52.392347
            ],
            [
              4.591654,
              52.391717
            ],
            [
              4.591659,
              52.391716
            ],
            [
              4.591657,
              52.391712
            ],
            [
              4.591473,
              52.391387
            ],
            [
              4.591409,
              52.391275
            ],
            [
              4.591107,
              52.39074
            ],
            [
              4.587378,
              52.384151
            ],
            [
              4.58679,
              52.383104
            ],
            [
              4.586788,
              52.383102
            ],
            [
              4.586562,
              52.382702
            ],
            [
              4.586091,
              52.381867
            ],
            [
              4.585243,
              52.380372
            ],
            [
              4.584397,
              52.378872
            ],
            [
              4.583807,
              52.377825
            ],
            [
              4.583085,
              52.376549
            ],
            [
              4.582677,
              52.375829
            ],
            [
              4.582477,
              52.375476
            ],
            [
              4.582367,
              52.375281
            ],
            [
              4.581992,
              52.374618
            ],
            [
              4.581481,
              52.373714
            ],
            [
              4.581028,
              52.372911
            ],
            [
              4.580878,
              52.372649
            ],
            [
              4.580515,
              52.372012
            ],
            [
              4.579895,
              52.370914
            ],
            [
              4.579603,
              52.370399
            ],
            [
              4.579573,
              52.370346
            ],
            [
              4.579411,
              52.370061
            ],
            [
              4.579404,
              52.370047
            ],
            [
              4.579383,
              52.370018
            ],
            [
              4.579378,
              52.369999
            ],
            [
              4.579361,
              52.369968
            ],
            [
              4.579228,
              52.36972
            ],
            [
              4.579115,
              52.36952
            ],
            [
              4.579021,
              52.36934
            ],
            [
              4.578999,
              52.369299
            ],
            [
              4.578967,
              52.36924
            ],
            [
              4.578816,
              52.368963
            ],
            [
              4.578744,
              52.368831
            ],
            [
              4.578623,
              52.368608
            ],
            [
              4.578539,
              52.368453
            ],
            [
              4.578373,
              52.368149
            ],
            [
              4.578355,
              52.368116
            ],
            [
              4.578314,
              52.368041
            ],
            [
              4.578272,
              52.367964
            ],
            [
              4.578107,
              52.367662
            ],
            [
              4.578085,
              52.367622
            ],
            [
              4.577975,
              52.367422
            ],
            [
              4.577864,
              52.367219
            ],
            [
              4.577836,
              52.367167
            ],
            [
              4.577796,
              52.367095
            ],
            [
              4.577778,
              52.367066
            ],
            [
              4.577734,
              52.366993
            ],
            [
              4.577633,
              52.366828
            ],
            [
              4.577571,
              52.366727
            ],
            [
              4.577515,
              52.366635
            ],
            [
              4.577486,
              52.366588
            ],
            [
              4.577434,
              52.366503
            ],
            [
              4.577422,
              52.366483
            ],
            [
              4.577245,
              52.366192
            ],
            [
              4.577054,
              52.365878
            ],
            [
              4.57699,
              52.365773
            ],
            [
              4.57694,
              52.365691
            ],
            [
              4.57667,
              52.365253
            ],
            [
              4.576577,
              52.36509
            ],
            [
              4.576428,
              52.364828
            ],
            [
              4.576408,
              52.364792
            ],
            [
              4.576269,
              52.364548
            ],
            [
              4.576178,
              52.364388
            ],
            [
              4.576085,
              52.364226
            ],
            [
              4.57584,
              52.363795
            ],
            [
              4.575834,
              52.363784
            ],
            [
              4.575785,
              52.363698
            ],
            [
              4.575704,
              52.363556
            ],
            [
              4.575565,
              52.363312
            ],
            [
              4.575455,
              52.363126
            ],
            [
              4.575287,
              52.362823
            ],
            [
              4.575244,
              52.36275
            ],
            [
              4.57521,
              52.36269
            ],
            [
              4.575205,
              52.36268
            ],
            [
              4.574581,
              52.361584
            ],
            [
              4.574558,
              52.361544
            ],
            [
              4.574525,
              52.361486
            ],
            [
              4.574451,
              52.361354
            ],
            [
              4.574286,
              52.361058
            ],
            [
              4.574033,
              52.360602
            ],
            [
              4.573945,
              52.360427
            ],
            [
              4.5739,
              52.360348
            ],
            [
              4.573785,
              52.360141
            ],
            [
              4.573729,
              52.360044
            ],
            [
              4.573695,
              52.359983
            ],
            [
              4.573612,
              52.359836
            ],
            [
              4.573509,
              52.35965
            ],
            [
              4.573369,
              52.359395
            ],
            [
              4.572491,
              52.357815
            ],
            [
              4.572358,
              52.357575
            ],
            [
              4.571918,
              52.356774
            ],
            [
              4.57112,
              52.355328
            ],
            [
              4.5702,
              52.353662
            ],
            [
              4.570036,
              52.353363
            ],
            [
              4.569998,
              52.353293
            ],
            [
              4.569962,
              52.35323
            ],
            [
              4.569694,
              52.352727
            ],
            [
              4.565523,
              52.345262
            ],
            [
              4.565348,
              52.344966
            ],
            [
              4.562026,
              52.338958
            ],
            [
              4.559082,
              52.333914
            ],
            [
              4.558984,
              52.333747
            ],
            [
              4.553652,
              52.32461
            ],
            [
              4.553413,
              52.324226
            ],
            [
              4.547322,
              52.313997
            ],
            [
              4.547115,
              52.31405
            ],
            [
              4.546174,
              52.314292
            ],
            [
              4.544982,
              52.31459
            ],
            [
              4.543858,
              52.314871
            ],
            [
              4.543385,
              52.315001
            ],
            [
              4.543371,
              52.314989
            ],
            [
              4.530349,
              52.318392
            ],
            [
              4.523076,
              52.320376
            ],
            [
              4.521836,
              52.320713
            ],
            [
              4.514431,
              52.322721
            ],
            [
              4.512115,
              52.323349
            ],
            [
              4.499741,
              52.326662
            ],
            [
              4.497885,
              52.327159
            ],
            [
              4.495327,
              52.327844
            ],
            [
              4.494526,
              52.328053
            ],
            [
              4.493818,
              52.328238
            ],
            [
              4.492341,
              52.328629
            ],
            [
              4.481617,
              52.331463
            ],
            [
              4.47765,
              52.332511
            ]
          ]
        ]
      },
      "properties": {
        "type": "boundary",
        "gemeente": "Zandvoort"
      }
    }
  ]
}